{"type":"FeatureCollection","crs":{"type":"name","properties":{"name":"EPSG:32637"}},"features":[{"type":"Feature","id":0,"geometry":{"type":"MultiLineString","coordinates":[[[470466.45100000035,1464418.682],[471061.15809999965,1466004.5673999991],[471556.7472000001,1468284.2775999997],[472547.92559999973,1469771.0451999996],[471754.98290000018,1470663.1056999993],[472547.92559999973,1471654.284],[471655.86510000005,1472942.8158999998],[472448.8077999996,1474231.3476999998],[472052.33640000038,1475420.7618000004],[471358.51159999985,1476015.4688000008],[471160.27589999977,1477799.5898000002],[471457.62939999998,1478394.2968000006],[472250.57210000046,1479484.5930000003],[471754.98290000018,1480674.0070999991],[470962.0401999997,1481764.3032000009],[470367.33320000023,1484044.0134999994],[469177.91920000035,1487711.3734000009],[467096.44460000005,1488801.6696000006],[465708.7949000001,1490982.2619000003],[464420.2631000001,1496631.9785999991],[460951.13879999984,1501290.5167999994],[460951.13879999984,1503907.2277000006],[459662.60699999984,1504402.8169],[458572.31080000009,1506880.7627000008],[455697.89360000007,1509160.4729999993]],[[456059.40189999994,1509244.3688999992],[454224.75399999972,1509314.9322999995],[453448.55680000037,1510302.8195999991],[449238.2751000002,1513148.8760000002],[448532.64130000025,1512749.0167999994],[447568.2751000002,1513101.8336999994],[446486.30319999997,1514348.4535000008],[445427.85250000004,1514230.8477999996],[443828.41590000037,1515101.1294999998],[443616.72580000013,1516239.5521000009],[443357.99340000004,1516709.9746000003],[441829.12009999994,1516898.1436000001],[440159.12009999994,1518709.2704000007],[439641.65529999975,1518732.7915000003],[439429.96520000044,1518991.5239000004],[439171.23280000035,1518991.5239000004],[436983.76800000016,1520214.6225000005],[435944.13410000037,1521131.9464999996],[435167.93690000009,1522660.8197000008],[434721.03550000023,1523719.2705000006],[434415.26090000011,1523907.4395000003],[433450.89470000006,1524166.1719000004],[432980.4720999999,1524189.693],[432251.3172000004,1524777.7212000005],[431969.06369999982,1525934.9605999999],[431592.7257000003,1526311.2986999992],[429828.64109999966,1526287.7774999999],[429405.26080000028,1526358.3409000002],[428911.3172000004,1526264.2564000003],[428652.5848000003,1526381.8619999997],[428393.85240000021,1526193.693],[427405.96499999985,1526123.1295999996],[426018.21860000025,1526287.7774999999],[425336.10589999985,1526146.6508000009],[424042.4439000003,1523771.0168999992],[422348.92279999983,1522430.3126999997],[421902.02130000014,1522467.9464999996],[419973.28890000004,1521856.3971999995],[419408.78189999983,1521150.7633999996],[417409.48610000033,1519292.5943999998],[416703.85230000038,1519010.3408000004],[415523.09169999976,1517895.4394000005],[413500.27479999978,1518036.5661999993],[412912.24660000019,1518271.7774999999],[412559.42970000021,1518506.9887000006],[411477.4578999998,1518412.9042000007],[410607.17619999964,1518224.7352000009],[410207.31699999981,1518930.3690000009],[409135.79899999965,1519220.4628999997],[407463.18549999967,1519973.1390000004],[406292.35610000044,1519387.7243000008],[404619.74260000046,1519722.2468999997],[402821.68310000002,1519345.9089000002],[398681.96480000019,1520600.3690000009],[396925.72070000041,1520516.7382999994],[395462.1838999996,1520558.5537],[393956.83169999998,1519178.6476000007],[393287.7862999998,1519722.2468999997],[392618.74100000039,1520934.8916999996],[391615.17289999966,1522691.1359000001],[391238.8348000003,1525576.3940999992],[389022.62200000044,1526956.3002000004],[388938.99129999988,1527834.4222999997],[387308.19319999963,1529256.1436999999],[384966.53430000041,1529256.1436999999],[382624.87550000008,1530803.3112000003],[381788.56869999971,1533228.6007000003],[381161.3387000002,1535110.2908999994],[380283.21659999993,1535361.1829000004],[377481.58899999969,1534190.3534999993],[376728.91299999971,1533103.1546999998],[375892.60620000027,1533270.4160999991],[375767.16019999981,1534441.2455000002],[374178.17740000039,1534483.0609000009],[372881.90199999977,1533437.6774000004],[370540.24309999961,1534148.5382000003],[367278.64680000022,1532559.5554000009],[366484.15539999958,1532350.4787000008],[365020.6185999997,1534524.8761999998],[363138.92850000039,1535235.7368999999],[363097.11319999956,1536406.5662999991],[361633.57639999967,1536991.9811000004],[360211.85489999969,1535904.7822999991],[357870.19610000029,1536072.0436000004],[356950.25860000029,1536950.1656999998],[354859.49179999996,1538873.6711999997],[354734.04580000043,1540044.5006000008],[354734.04580000043,1540671.7306999993],[353730.4776999997,1542595.2361999992],[351597.89549999963,1542804.3128999993],[351974.23359999992,1544058.773],[350845.21949999966,1546969.1204000004],[349590.75939999986,1548265.3958999999],[349548.94400000013,1549143.5178999994],[350845.21949999966,1550816.1314000003],[351179.74220000021,1552112.4068999998],[348169.03789999988,1552405.1141999997],[348754.45260000043,1553534.1283],[347499.9924999997,1553617.7589999996],[347374.54650000017,1554286.8044000007],[347750.88449999969,1555164.9264000002],[346580.05510000046,1556419.3866000008],[345827.37899999972,1558384.7073999997],[344405.65759999957,1558192.3567999993],[344322.02689999994,1559405.0015999991],[343402.08949999977,1560199.4930000007],[342565.78280000016,1560743.0923999995],[340893.16930000018,1561161.2456999999],[340684.09260000009,1562875.6745999996],[340391.3853000002,1563168.3818999995],[340224.12390000001,1565050.0721000005],[339764.15519999992,1566346.3475000001],[341102.24600000028,1566973.5776000004],[340976.79999999981,1568395.2990000006],[340475.0159,1568186.2223000005],[339722.33990000002,1568437.1143999994],[339011.47910000011,1567977.1457000002],[337966.09570000041,1568269.8530000001],[337757.01900000032,1569440.6823999994],[336335.29760000017,1570444.2504999992],[335666.25219999999,1571824.1566000003],[334411.7921000002,1572075.0486999992],[334746.31479999982,1573705.8467999995],[334997.20679999981,1575922.0595999993],[334620.86880000029,1576131.1362999994],[333115.51659999974,1575963.875],[332279.20990000013,1575963.875],[332404.65589999966,1576298.3977000006],[332446.47130000032,1576925.6276999991],[331651.97989999969,1577511.0424000006],[331192.0111999996,1578180.0877999999],[330272.0736999996,1578514.6105000004],[328892.16760000028,1580019.9627],[328223.1222000001,1580061.7780000009],[326717.77010000031,1581274.4228000008],[326592.32409999985,1581776.2068000007],[327888.59949999955,1583072.4822000004],[327345.00019999966,1583490.6356000006],[327721.33820000011,1585288.6951000001],[327470.44620000012,1585539.5870999992],[326926.84680000041,1585957.7404999994],[325588.75600000005,1586083.1864999998],[325379.67929999996,1587254.0159000009],[326675.95480000041,1588215.7686999999],[326508.69340000022,1588675.7374000009],[325965.09399999958,1588508.4759999998],[325546.94070000015,1588926.6294],[325463.30999999959,1589428.4134],[324167.0345999999,1589595.6747999992],[324543.37260000035,1590431.9814999998],[323623.43520000018,1591184.6576000005],[323121.65110000037,1592104.5950000007],[321992.6370000001,1593149.9783999994],[322034.45239999983,1594028.1005000006],[321156.33029999956,1595366.1912999991],[319525.53220000025,1596035.2367000002],[319023.74810000043,1597582.4041000009],[316598.45859999955,1597331.5120999999],[315971.2285000002,1597038.8047000002],[314089.53839999996,1597164.2508000005],[312709.63229999971,1596118.8673],[311120.64950000029,1596202.4979999997],[309615.29729999974,1597582.4041000009],[307315.45380000025,1596704.2820999995],[306813.66980000027,1595491.6372999996],[303928.41150000039,1594237.1772000007],[302966.65880000032,1594822.5919000003],[300457.73859999981,1593568.1317999996],[299579.61649999954,1593568.1317999996],[298617.8638000004,1591644.6262999997],[297614.29569999967,1589679.3055000007],[297530.66500000004,1588508.4759999998],[296861.61959999986,1588215.7686999999],[295774.42090000026,1585372.3257999998],[296610.72759999987,1583866.9736000001],[296150.75889999978,1582027.0987999998],[296443.46619999968,1580605.3773999996],[295648.97479999997,1579894.5165999997],[294896.29879999999,1578096.4572000001],[293223.68530000001,1578096.4572000001],[291885.59449999966,1577552.8577999994],[289502.1202999996,1578054.6417999994],[286909.56940000039,1576131.1362999994],[285822.37069999985,1576256.5822999999],[284776.98730000015,1577260.1503999997],[283438.8964999998,1577887.3805],[282644.40510000009,1579476.3632999994],[281599.02170000039,1580521.7467],[280929.97630000021,1580814.4540999997],[278964.65539999958,1580521.7467],[277668.37999999989,1581441.6841000002],[275577.61319999956,1581776.2068000007],[274114.07639999967,1582361.6215000004],[273654.10769999959,1583156.1129000001],[271688.78679999989,1582988.8516000006],[270099.80399999954,1583992.4197000004],[268761.71329999994,1583825.1582999993],[267381.80709999986,1582570.6982000005],[266420.05439999979,1582947.0362],[265834.63970000017,1583407.0048999991],[256593.45019999985,1584159.6809999999],[255924.40490000043,1583114.2975999992],[254293.60670000035,1582988.8516000006],[251742.87119999994,1582027.0987999998],[251032.01040000003,1581901.6527999993],[249317.58160000015,1583072.4822000004],[248648.53619999997,1583323.3742999993],[247561.33750000037,1582445.2522],[246641.4001000002,1582654.3289000001],[246390.50810000021,1583407.0048999991],[244383.37189999968,1583323.3742999993],[243714.32650000043,1581483.4993999992],[242543.49710000027,1581274.4228000008],[242041.71300000045,1581358.0534000006],[241456.29829999991,1580939.9001000002],[240410.91490000021,1580312.6699999999],[239616.42349999957,1580939.9001000002],[238236.51740000024,1580647.1927000005],[237609.28729999997,1580312.6699999999],[236772.98060000036,1580354.4854000006],[236814.79590000026,1579225.4713000003],[237734.73330000043,1578180.0877999999],[236940.24189999979,1577134.7043999992],[233260.49230000004,1578138.2725000009],[232507.81620000023,1578430.9799000006]]]},"properties":{"FID":0,"OBJECTID_1":1,"Id":1,"River_Name":"Tekeze","Type":"Main_River","Flow":"Permanent","Length":389.96118933600002,"OBJECTID":0,"osm_id":0,"name":" ","width":0,"Shape_Leng":0,"SPD_KM_HR":0,"SPD_KM_MIN":0,"TT_MIN_KM":0,"Shape_Le_1":389961.18978399999}},{"type":"Feature","id":1,"geometry":{"type":"LineString","coordinates":[[512880.67200000025,1547667.4509999994],[512908.00059999991,1547311.4807999991],[512989.50399999972,1547138.9159999993],[512995.01819999982,1546977.1070000008],[512853.91590000037,1546906.9182999991],[512864.92650000006,1546615.6602999996],[512952.7061999999,1546529.0090999994],[512839.87200000044,1546377.9234999996],[512674.79839999974,1546226.5581],[512596.74039999954,1546002.1219999995],[512674.98209999967,1545855.4451000001],[512653.35759999976,1545687.1418999992],[512523.07760000043,1545687.0778999999],[512466.63219999988,1545652.5225000009],[512557.87789999973,1545549.0057999995],[512510.1958999997,1545372.0525000002],[512566.78780000005,1545108.8418000005],[512493.01439999975,1544992.2938000001],[512449.6370000001,1544888.7005000003],[512562.57519999985,1544845.6013999991],[512597.33880000003,1544785.2005000003],[512523.56699999981,1544685.9164000005],[512380.24390000012,1544690.1600000001],[512315.15450000018,1544590.8695999999],[512384.67109999992,1544513.2211000007],[512488.94620000012,1544431.2875999995],[512423.85620000027,1544310.4199000001],[512497.72879999969,1544228.4605999999],[512853.93620000035,1544047.3827999998],[512728.03890000004,1543948.0609000009],[512814.94139999989,1543861.7959000003],[512819.31340000033,1543801.3800000008],[512593.51850000024,1543723.5864000004],[512584.89620000031,1543598.4329000004],[512519.77940000035,1543550.9225999992],[512493.80099999998,1543378.2822999991],[512619.81240000017,1543253.1948000006],[512654.65280000027,1543063.3204999994],[512598.23350000009,1542964.0339000002],[512502.69539999962,1542946.7233000007],[512420.22919999994,1542834.4737999998],[512320.34410000034,1542825.7880000006],[512233.51410000026,1542756.7021999992],[512216.24230000004,1542553.852],[512133.77770000044,1542432.9658000004],[512120.79750000034,1542312.1129000001],[512194.68699999992,1542204.2515999991],[512164.31170000043,1542139.5058999993],[512060.08779999986,1542117.8796999995],[512021.04179999977,1542022.9047999997],[512116.65500000026,1541889.1631000005],[512047.21310000028,1541794.1739000008],[512025.55989999976,1541647.4265999999],[511938.75499999989,1541513.5886000004],[511860.63019999955,1541388.3924000002],[511743.35030000005,1541422.8661000002],[511730.3657999998,1541306.3265000004],[511856.37739999965,1541194.1638999991],[511799.95179999992,1541116.4562999997],[511626.22229999956,1541099.1131999996],[511530.63960000034,1541163.8123000003],[511204.86959999986,1541180.9319000002],[511096.34339999966,1541055.7138],[510909.56520000007,1540832.5643000007],[510627.22630000021,1540875.6111999992],[510529.52539999969,1540789.2407000009],[510621.88659999985,1540649.0116000008],[510643.66349999979,1540492.5624000002],[510301.75009999983,1540152.5217000004],[510426.68130000029,1540012.2938000001],[510133.6035000002,1539737.0175000001],[510204.29169999994,1539472.6804000009],[509992.57320000045,1539386.2671000008],[509802.6118999999,1539181.1629000008],[509607.22800000012,1538938.3012000006],[509466.06510000024,1538916.6608000007],[509281.49689999968,1538803.2895999998],[509238.11490000039,1538646.8049999997],[509015.54320000019,1538490.2570999991],[508885.31439999957,1538236.6187999994],[508820.25910000037,1537950.6216000002],[508869.16089999955,1537837.3234999999],[508858.38159999996,1537610.7009999994],[508901.8964999998,1537394.8912000004],[508972.51059999969,1537324.7655999996],[508967.11409999989,1537216.8458999991],[508869.40249999985,1537135.8791000005],[508869.44340000022,1537017.1671999991],[508679.44660000037,1536839.0347000007],[508646.9188000001,1536704.1319999993],[508554.62420000043,1536633.9513000008],[508391.7285000002,1536590.7326999996],[508370.04270000011,1536498.9878000002],[508484.16930000018,1536218.4364999998],[508462.52219999954,1535975.5977999996],[508348.54690000042,1535786.6989999991],[508158.45710000023,1535862.1849000007],[507925.03249999974,1535624.6776000001],[507908.80929999985,1535398.0320999995],[507588.53870000038,1534955.4488999993],[507621.18879999965,1534739.6009999998],[507686.5036000004,1534226.9617999997],[507757.13439999986,1534119.0540999994],[507681.10580000002,1534102.8405000009],[507610.49280000012,1534151.3925000001],[507507.32579999976,1534086.5985000003],[507447.6481999997,1533908.5026999991],[507485.67709999997,1533849.1468000002],[507523.71860000025,1533746.6261],[507420.54519999959,1533698.0233999994],[507290.17119999975,1533816.7200000007],[507197.84329999983,1533854.4618999995],[507067.55829999968,1533654.7597000003],[507127.33189999964,1533536.0423000008],[507094.78990000021,1533368.7379999999],[506633.27639999986,1532926.0957999993],[506454.06909999996,1532845.0957999993],[506337.9578999998,1532744.6368000004],[506334.51819999982,1532627.2072999999],[506195.5120000001,1532513.1844999995],[506053.03589999955,1532354.2717000004],[506094.79330000002,1532150.5012999997],[506032.26819999982,1531981.2338999994],[505858.47020000033,1531977.7434],[505823.73159999959,1531874.1090999991],[505702.09339999966,1531767.0051000006],[505490.0541000003,1531804.9593000002],[505243.30289999954,1531545.8531999998],[505034.75409999955,1531521.6359000001],[504993.04200000037,1531473.2653000001],[504969.70440000016,1531400.1361999996],[504913.42069999967,1531319.6020999998],[504769.33420000039,1531200.7532000002],[504582.34939999972,1531064.7224000003],[504388.23489999957,1531029.1771000009],[504221.43460000027,1531013.7324999999],[504084.23809999973,1531096.2577],[503891.16940000001,1531290.0100999996],[503703.42499999981,1531524.8616000004],[503567.72719999962,1531586.1997999996],[503515.36600000039,1531556.3765999991],[503471.94280000031,1531433.7334000003],[503501.85099999979,1531293.4049999993],[503527.74670000002,1531259.6775000002],[503601.0811999999,1531224.2312000003],[503652.53369999956,1531188.1626999993],[503681.39190000016,1531145.7652000003],[503671.74940000009,1531093.3867000006],[503637.02680000011,1531036.1607000008],[503572.17420000024,1530996.2050999999],[503487.23790000007,1530917.9927999992],[503310.73859999981,1530685.4463999998],[503251.06300000008,1530627.6867999993],[503184.01599999983,1530580.2670000009],[503084.3172000004,1530580.1333000008],[503014.31799999997,1530640.2547999993],[502949.21850000042,1530757.9410999995],[502912.01400000043,1530938.5142000001],[502855.32830000017,1531006.6336000003],[502813.91650000028,1531033.6690999996],[502761.10890000034,1531016.5325000007],[502725.62700000033,1530965.4345999993],[502609.7061999999,1530894.5429999996],[502478.12469999958,1530842.352],[502222.71339999977,1530678.4288999997],[502094.08669999987,1530678.4181999993],[501961.99289999995,1530799.2979000006],[501906.36270000041,1530944.3704000004],[501788.16490000021,1531106.7135000005],[501729.05229999963,1531320.8630999997],[501590.00380000006,1531452.1067999993],[501489.19269999955,1531500.4634000007],[501405.77359999996,1531455.5467000008],[501395.35489999969,1531289.7550000008],[501395.37129999977,1530985.7884],[501287.61720000021,1530895.9696999993],[501249.37889999989,1530799.2536999993],[501374.53799999971,1530560.9196000006],[501405.8311999999,1530395.1193000004],[501259.82739999983,1530377.8370999992],[501072.11649999954,1530481.4659000002],[500898.30999999959,1530415.8220000006],[500736.43099999987,1530414.3792000003],[500643.87009999994,1530598.3049999997],[500567.3376000002,1530707.9567000009],[500485.46910000034,1530736.2559999991],[500412.49579999968,1530674.3553999998],[500321.43059999961,1530755.1758999992],[500269.44170000032,1530778.8202999998],[500027.46939999983,1530789.3033000007],[499850.94919999968,1530613.9021000005],[499640.47580000013,1530627.3966000006],[499518.26699999999,1530586.9213999994],[499538.6342000002,1530438.4933000002],[499525.04760000017,1530269.8271999992],[499457.14879999962,1530168.6353999991],[499538.62770000007,1530074.1757999994],[499762.67700000014,1529892.0141000003],[499783.04619999975,1529750.3325999994],[499599.72259999998,1529743.5885000005],[499552.19269999955,1529608.6539999992],[499592.93140000012,1529453.4795999993],[499525.02969999984,1529291.5606999993],[499416.39570000023,1529122.8857000005],[499328.12569999974,1529149.8726000004],[499253.44299999997,1529271.3173999991],[499110.86440000031,1529466.9840999991],[498988.66199999955,1529750.3513999991],[498907.20139999967,1529999.3117999993],[498776.84499999974,1530053.2873],[498657.34609999973,1530042.4993999992],[498494.37719999999,1529740.2561000008],[498402.03330000024,1529718.6736999992],[498364.02369999979,1529848.2142999992],[498461.80119999964,1530020.9223999996],[498195.6782999998,1530306.9899000004],[497983.84559999965,1530371.7800999992],[497842.62440000009,1530328.6159000006],[497690.53170000017,1530166.7089000009],[497337.45799999963,1530010.2195999995],[496995.21270000003,1529519.0888999999],[496902.85830000043,1529427.3512999993],[496750.77259999979,1529411.1790999994],[496620.41629999969,1529454.3716000002],[496528.07689999975,1529486.7655999996],[496452.01809999999,1529400.4244999997],[496310.76900000032,1529216.9252000004],[496082.6194000002,1529103.6114000008],[495865.35190000013,1529136.0270000007],[495637.21669999976,1529125.2705000006],[495485.09700000007,1528990.3613000009],[495077.64199999999,1528644.9856000002],[494186.76520000026,1528429.2695000004],[494099.83420000039,1528342.9266999997],[493936.88850000035,1528413.1359999999],[493632.71050000004,1528461.7816000003],[493551.22589999996,1528424.023],[493529.45629999973,1528278.2883000001],[493469.65000000037,1528067.7885999996],[493257.75829999987,1527889.7208999991],[493029.55869999994,1527684.6635999996],[492866.56589999981,1527587.5515000001],[492774.2229000004,1527614.5618999992],[492790.54619999975,1527706.3278000001],[492796.00789999962,1527798.0856999997],[492730.84310000017,1527889.8632999994],[492567.89219999965,1527900.7034000009],[492394.05159999989,1527852.1811999995],[492182.17740000039,1527798.2634999994],[492061.32060000021,1527807.7451000009],[491891.60819999967,1527935.9976000004],[491728.66509999987,1528003.5220999997],[491620.00769999996,1527936.0840000007],[491300.73629999999,1527551.5890999995],[490825.31879999954,1527234.6371999998],[490431.38879999984,1526998.6183000002],[489954.12459999975,1526516.1577000003],[489801.97800000012,1526399.6184999999],[489658.53469999973,1526347.8510999996],[489475.97840000037,1526274.5125999991],[489280.42939999979,1526304.8289000001],[489102.26730000041,1526352.4030000009],[489032.72279999964,1526339.4816999994],[489050.00930000003,1526119.2277000006],[489089.07129999995,1525993.9751999993],[488971.68979999982,1525881.7391999997],[488910.79690000042,1525782.4411999993],[488823.89690000005,1525829.9783999994],[488715.23900000006,1525799.8003000002],[488693.46410000045,1525709.1119999997],[488749.95309999958,1525670.2249999996],[488762.9450000003,1525570.8954000007],[488641.24590000045,1525553.6736999992],[488458.76360000018,1525666.0395999998],[488393.62760000024,1525799.9420999996],[488219.84389999975,1525925.2562000006],[488054.76640000008,1526059.2050999999],[487946.10769999959,1526050.6180000007],[487863.46449999977,1525903.8326999992],[487741.76630000025,1525886.6151999999],[487624.35369999986,1525722.5612000003],[487663.42590000015,1525631.8560000006],[487650.29810000025,1525459.1152999997],[487711.12090000045,1525398.625],[487680.67250000034,1525351.1283999998],[487502.5131000001,1525411.6750000007],[487389.46870000008,1525325.3562000003],[487237.28230000008,1525165.6451999992],[487115.58449999988,1525157.0679000001],[487089.52919999976,1525208.9048999995],[487076.59289999958,1525407.5703999996],[487033.20120000001,1525545.7895999998],[486902.87390000001,1525653.8164000008],[486785.50779999979,1525615.0131999999],[486698.58239999972,1525606.4203999992],[486481.15409999993,1525364.6867999993],[486441.95650000032,1525187.6471999995],[486233.24920000043,1525015.0099999998],[486150.69660000037,1525062.5537],[486063.87119999994,1525243.9846000001],[486007.46559999976,1525412.4376999997],[485903.18379999977,1525468.6424000002],[485820.5979000004,1525451.4126999993],[485611.87289999984,1525231.2805000003],[485590.04590000026,1525067.1829000004],[485398.71559999976,1524881.5811999999],[485168.25980000012,1524704.6405999996],[484951.07239999995,1524916.3861999996],[484794.68269999977,1525028.7628000006],[484699.02379999962,1524951.0826999992],[484712.00059999991,1524851.7401000001],[484668.40880000032,1524631.5187999997],[484616.15160000045,1524454.4784999993],[484155.42690000031,1524424.5189999994],[484077.25569999963,1524528.2151999995],[483977.31950000022,1524567.1502],[483794.80179999955,1524601.8127999995],[483548.16579999961,1524618.1587000005],[483281.93859999999,1524591.3438000008],[483191.55900000036,1524630.4859999996],[483021.92399999965,1524694.1655000001],[482793.85570000019,1524721.9528000001],[482690.9199000001,1524699.9134999998],[482576.78569999989,1524564.5569000002],[482573.91150000039,1524420.8203999996],[482710.09020000044,1524238.3052999992],[482762.86550000031,1524133.2394999992],[482662.66820000019,1524039.3238999993],[482698.75980000012,1523925.9746000003],[482651.44600000046,1523890.0743000004],[482506.82459999993,1523928.8679000009],[482356.65380000044,1523992.5384999998],[482053.45380000025,1523984.4627],[481885.84570000041,1523965.2250999995],[481768.40369999968,1523840.0600000005],[481716.1129999999,1523645.7507000007],[481729.04559999984,1523498.8955000006],[481698.54750000034,1523399.5818000007],[481750.63159999996,1523282.9353999998],[481728.75430000015,1523084.2695000004],[481685.20430000033,1522963.3662],[481533.02099999972,1522877.1001999993],[481350.42320000008,1522812.4449000005],[481167.85720000044,1522808.2522],[481098.37899999972,1522890.3629999999],[481081.05869999994,1522989.7106999997],[480972.46169999987,1523071.8613000009],[480837.70920000039,1523054.6745999996],[480772.4171000002,1522933.7997999992],[480724.50739999954,1522799.9396000002],[480507.1679999996,1522782.8268999998],[480426.87710000016,1522872.6227000002],[480226.59729999956,1522886.0343999993],[479961.7862999998,1522901.7202000003],[479761.3554999996,1522720.5460999999],[479714.55140000023,1522625.4942000005],[479574.36589999963,1522645.4997000005],[479440.91299999971,1522745.1169000007],[479360.91540000029,1522886.7069000006],[479156.16299999971,1522875.8219000008],[479027.01860000007,1522778.6254999992],[478708.80599999987,1522805.4154000003],[478561.86890000012,1522736.9790000003],[478559.5856999997,1522668.4349000007],[478615.20100000035,1522641.8466999996],[478635.16050000023,1522555.5892999992],[478497.08349999972,1522445.1316],[478370.2109000003,1522407.6458999999],[478201.05599999987,1522390.0921999998],[478036.29110000003,1522297.3541999999],[477933.79480000027,1522147.0667000003],[477875.90330000035,1522116.1607000008],[477693.19450000022,1521850.9362000003],[477617.47699999996,1521795.7153999992],[477510.67740000039,1521824.5617999993],[477455.10730000027,1521904.2151999995],[477417.38760000002,1522036.9381000008],[477392.98770000041,1522134.2597000003],[477317.37959999964,1522191.8231000006],[477234.9952999996,1522152.0922999997],[477136.99029999971,1522050.4541999996],[477021.14439999964,1521920.0778000001],[477014.33000000007,1521756.4383000005],[476891.79860000033,1521610.5853000004],[476805.00150000025,1521619.5098999999],[476720.48759999964,1521679.2949000001],[476718.5,1521946.8892999999],[476707.41820000019,1521993.3375000004],[476516.16019999981,1522139.4597999994],[476380.41909999959,1522161.7015000004],[476324.82899999991,1522214.8258999996],[476202.52630000003,1522321.0855],[475980.09130000044,1522436.2851999998],[475768.63300000038,1522392.2437999994],[475579.3479000004,1522270.8006999996],[475423.32320000045,1522012.2024000008],[475240.71430000011,1521890.7554000001],[475051.5652999999,1521906.4080999997],[474907.02770000044,1522032.6019000001],[474815.81979999971,1522072.4926999994],[474648.91679999977,1522085.9260000009],[474530.99380000029,1522110.3717999998],[474224.05790000036,1522296.4276000001],[473930.34539999999,1522340.9466999993],[473687.80520000029,1522383.2166000009],[473476.39190000016,1522387.8440000005],[473378.42250000034,1522334.8809999991],[473304.87409999967,1522231.0090999994],[473282.49170000013,1522109.4118000008],[473291.28780000005,1522001.0427999999],[473235.59680000041,1521950.2379000001],[473146.60410000011,1521976.8609999996],[473079.90350000001,1522036.6395999994],[473030.94830000028,1522049.9615000002],[472986.39790000021,1522005.7811999992],[472810.55250000022,1521974.9979999997],[472688.07710000034,1521904.3571000006],[472503.35830000043,1521906.7634999994],[472300.97190000024,1522037.4570000004],[472131.91550000012,1522108.4066000003],[472005.08490000013,1522130.6504999995],[471931.59949999955,1522090.9267999995],[471909.2631000001,1522017.9697999991],[471833.5970999999,1522011.4271000009],[471702.24289999995,1521969.5438000001],[471179.24789999984,1521972.3296000008],[471003.36799999978,1521912.8151999991],[470773.93589999992,1521729.5186999999],[470622.57230000012,1521709.7931999993],[470431.22740000021,1521752.0244999994],[470306.68140000012,1521825.1473999992],[470222.08899999969,1521803.1252999995],[470170.83000000007,1521739.0504000001],[470192.91060000006,1521584.2263999991],[470237.27689999994,1521462.5440999996],[470016.67879999988,1521232.7945000008],[469903.19680000003,1521246.1967999991],[469789.70679999981,1521261.8114],[469642.7341,1521191.2129999995],[469582.57039999962,1521122.7259999998],[469580.1754999999,1520978.9782999996],[469495.51769999973,1520903.8844000008],[469528.82529999968,1520839.7118999995],[469386.2620000001,1520733.7306999993],[469177.04650000017,1520725.1297999993],[468896.71679999959,1520813.9274000004],[468734.26470000017,1520829.5941000003],[468713.30229999963,1520792.8245000001],[468735.90020000003,1520615.8686999995],[468702.44739999995,1520557.8578999992],[468832.97649999987,1520369.7134000007],[468749.36890000012,1520245.4171999991],[468632.3861999996,1520137.7394999992],[468621.18530000001,1520074.1723999996],[468515.35979999974,1519985.8356999997],[468484.68410000019,1519927.8107999992],[468281.5680999998,1519908.7141999993],[468178.55630000029,1519850.7777999993],[467953.1967000002,1519845.5241999999],[467986.48560000025,1519768.0784000009],[467775.02170000039,1519748.9849999994],[467488.64319999982,1519890.3373000007],[467344.15919999965,1520039.7981000002],[467138.25370000023,1520020.7029999997],[466910.28890000004,1520150.9287],[466879.81359999999,1520253.2562000006],[466646.09009999968,1520223.1407999992],[466584.74490000028,1520118.1657999996],[466517.75729999971,1519946.8526000008],[466219.83669999987,1519767.5432999991],[466100.18489999976,1519753.8741999995],[465994.51180000044,1519789.9550999999],[465897.24980000034,1519875.7818999998],[465646.86239999998,1519878.8754999992],[465593.95689999964,1519840.2371999994],[465516.03529999964,1519826.5269000009],[465382.57249999978,1519890.2846000008],[465274.04129999969,1519865.5452999994],[465193.24509999994,1519779.9534000009],[465190.13080000039,1519528.3771000002],[465178.84759999998,1519417.8198000006],[464958.86500000022,1519274.3527000006],[464750.18410000019,1519263.5745000001],[464700.24149999954,1519363.1660999991],[464650.29569999967,1519459.9930000007],[464558.51819999982,1519482.2365000006],[464494.59889999963,1519534.8449000008],[464346.99199999962,1519421.6978999991],[464193.8125,1519305.7946000006],[463948.78139999975,1519167.9110000003],[463915.25490000006,1519065.6575000007],[463853.88760000002,1518946.8643999994],[463736.98610000033,1518916.6241999995],[463667.36760000046,1518866.9535000008],[463564.46850000042,1518900.2754999995],[463480.96640000027,1518872.7435999997],[463364.09910000023,1518867.3776999991],[463260.93539999984,1518712.7014000006],[463260.81469999999,1518626.9907000009],[463299.60879999958,1518513.5877],[463277.21490000002,1518411.3303999994],[463257.53780000005,1518273.1148000006],[463321.33719999995,1518134.7927999999],[463407.46449999977,1518043.4313999992],[463437.91060000006,1517935.5701000001],[463401.55539999995,1517800.1427999996],[463370.80360000022,1517697.8969999999],[463364.94369999971,1517482.2459999993],[463517.73280000035,1517316.1403000001],[463503.6584999999,1517194.5170000009],[463453.35670000035,1517036.9901999999],[463411.48720000032,1516948.5732000005],[463130.01649999991,1516628.2452000007],[462937.94469999988,1516573.2197999991],[462667.87459999975,1516451.9393000007],[462589.81429999974,1516349.7510000002],[462561.79999999981,1516214.3128999993],[462597.75,1516062.1940000001],[462681.05659999978,1515945.9396000002],[462672.57110000029,1515849.1816000007],[462722.56429999974,1515785.5185000002],[462719.4029000001,1515517.3203999996],[462630.31670000032,1515487.0230999999],[462510.64300000016,1515473.3701000009],[462259.79800000042,1515188.9392000008],[462067.37540000025,1514893.3553999998],[462095.13320000004,1514849.0772999991],[462044.98319999967,1514804.9013],[462006.09210000001,1514851.9715],[461928.32660000026,1514957.1492999997],[461758.78280000016,1515092.8859999999],[461691.99010000005,1515084.6892000008],[461588.89809999987,1514988.0702999998],[461541.3881000001,1514849.8857000005],[461371.51889999956,1514764.4143000003],[461251.66100000031,1514629.1023999993],[461131.87160000019,1514540.7932999991],[460911.48259999976,1514167.8320000004],[460836.32710000034,1514151.3552999999],[460688.99550000019,1514259.4169999994],[460630.56879999954,1514265.0343999993],[460611.03170000017,1514223.5799000002],[460569.17169999983,1514143.4617999997],[460510.61720000021,1514071.6526999995],[460513.25260000024,1513969.3377],[460588.27159999963,1513894.5621000007],[460604.85099999979,1513817.1099999994],[460551.9506000001,1513795.0708000008],[460554.5047000004,1513645.7533],[460557.05460000038,1513493.6598000005],[460829.50829999987,1513316.2774999999],[460909.95880000014,1513147.4785999991],[460879.14279999956,1513012.0243999995],[460787.15890000015,1512909.8399999999],[460770.35879999958,1512840.7325999998],[460583.91050000023,1512843.7774],[460536.5083999997,1512783.0218000002],[460533.49579999968,1512628.1610000003],[460491.5597000001,1512506.5482000001],[460257.51489999983,1512316.0935999993],[460218.40070000011,1512216.6070000008],[460206.93039999995,1511998.1560999993],[460084.22840000037,1511832.4179999996],[459972.85130000021,1511796.6446000002],[459766.92329999991,1511802.4897000007],[459677.43369999994,1511520.5560999997],[459515.9963999996,1511506.9694999997],[459468.58069999982,1511440.6751000006],[459368.3657999998,1511421.4761999995],[459315.56460000016,1511474.1013999991],[459051.17989999987,1511471.7482999992],[458903.56259999983,1511402.8355],[458628.05119999964,1511408.8096999992],[458296.38509999961,1511105.1338],[458157.09690000024,1511019.6227000002],[457984.54949999973,1511019.8986000009],[457856.66359999962,1511105.8368999995],[457792.56300000008,1511050.6315000001],[457756.20540000033,1510937.2973999996],[457544.49949999992,1510818.7280000001],[457321.5625,1510644.8589999992],[457265.60140000004,1510462.4245999996],[457198.77269999962,1510440.4035999998],[457120.7050999999,1510357.5739999991],[456970.3984000003,1510343.9846999999],[456803.13640000019,1510181.0993000008],[456711.25899999961,1510159.1206999999],[456636.2352,1510231.1532000005],[456588.91509999987,1510228.4667000007],[456505.2293999996,1510117.9772999994],[456488.4254999999,1510054.4022000004],[456443.76669999957,1509974.2730999999],[456468.55759999994,1509819.3551000003],[456415.46030000038,1509692.2260999996],[456234.50370000023,1509662.1026000008],[456134.20069999993,1509595.8911000006],[456150.73770000041,1509499.0711000003],[456132.75609999988,1509352.7510000002]]},"properties":{"FID":1,"OBJECTID_1":2,"Id":0,"River_Name":" ","Type":"river","Flow":" ","Length":0,"OBJECTID":547,"osm_id":44091767,"name":" Werie","width":0,"Shape_Leng":102446.207366,"SPD_KM_HR":1,"SPD_KM_MIN":60,"TT_MIN_KM":600,"Shape_Le_1":102181.623098}},{"type":"Feature","id":2,"geometry":{"type":"LineString","coordinates":[[507865.40189999994,1569990.8541999999],[507883.96659999993,1569969.9127999991],[507881.43759999983,1569948.9649999999],[507891.57430000044,1569897.8614000008],[507915.18919999991,1569875.2517000008],[507932.89529999997,1569874.4166999999],[507965.78440000024,1569867.7248999998],[508015.5354000004,1569834.2298000008],[508029.02840000018,1569815.7975999992],[508031.57519999985,1569780.6063999999],[508050.97929999977,1569733.6973999999],[508074.59059999976,1569722.8111000005],[508100.73280000035,1569727.0111999996],[508134.45349999983,1569718.6389000006],[508179.14400000032,1569720.3343000002],[508225.52020000014,1569714.4878000002],[508250.81659999955,1569698.5701000001],[508265.16390000004,1569675.1172000002],[508265.17349999957,1569645.7979000006],[508257.59420000017,1569594.6776000001],[508257.60819999967,1569551.9539999999],[508286.28440000024,1569528.5056999996],[508334.36409999989,1569494.9997000005],[508364.72759999987,1569459.8178000003],[508405.20540000033,1569444.7568999995],[508435.56170000043,1569431.3627000004],[508425.44840000011,1569408.7312000003],[508427.14639999997,1569364.3270999994],[508452.46129999962,1569326.6330999993],[508454.99579999968,1569298.1442000009],[508459.23039999977,1569251.2302999999],[508471.04440000001,1569221.9039999992],[508504.77500000037,1569218.5643000007],[508525.84800000023,1569217.7307999991],[508547.77819999959,1569202.6638999991],[508560.43630000018,1569166.6357000005],[508577.32610000018,1569092.9064000007],[508597.56769999955,1569062.7535999995],[508593.37100000028,1569029.2412999999],[508579.04590000026,1568985.6612999998],[508566.40739999991,1568963.8805],[508558.83469999954,1568926.1644000001],[508556.31359999999,1568883.4398999996],[508565.60250000004,1568855.7938000001],[508570.66949999984,1568836.5185000002],[508569.83540000021,1568814.7305999994],[508558.03720000014,1568796.3011000007],[508536.11620000005,1568782.8893999998],[508518.41839999985,1568756.9042000007],[508515.12380000018,1568735.2371999994],[508549.71399999969,1568712.7313000001],[508580.71169999987,1568719.8532999996],[508624.83430000022,1568715.1237000003],[508642.73819999956,1568674.8505000006],[508651.09229999967,1568635.7463000007],[508632.03029999975,1568591.8991],[508601.03729999997,1568570.5544000007],[508587.93649999984,1568511.3032000009],[508595.09690000024,1568492.3494000006],[508650.70260000043,1568450.8392999992],[508670.25420000032,1568389.2876999993],[508738.25370000023,1568330.0534000006],[508769.26790000033,1568290.9682],[508805.0560999997,1568238.8453000002],[508861.11539999954,1568198.5745000001],[508936.26489999983,1568153.5658999998],[508944.61459999997,1568128.6846999992],[508952.98450000025,1568077.7356000002],[508964.93609999958,1567998.3423999995],[509026.98929999955,1567885.7990000006],[509087.83800000045,1567793.3951999992],[509127.19959999993,1567769.7084999997],[509129.57710000034,1567789.8489999995],[509149.83449999988,1567810.0070999991],[509187.99600000028,1567823.0492000002],[509213.04389999993,1567814.7636999991],[509192.77749999985,1567789.8718999997],[509183.25289999973,1567750.7613999993],[509183.26150000002,1567727.0604999997],[509386.04959999956,1567551.7617000006],[509414.66810000036,1567547.0278999992],[509431.35730000027,1567557.7067000009],[509426.57809999958,1567583.7725000009],[509438.48940000031,1567616.9560000002],[509475.46349999961,1567602.7470999993],[509496.93630000018,1567575.5042000003],[509548.2452999996,1567491.3925000001],[509623.41260000039,1567408.4624000005],[509655.62160000019,1567383.5902999993],[509650.8666000003,1567345.6760000009],[509624.6333999997,1567319.5873000007],[509604.37870000023,1567292.3285000008],[509597.2527999999,1567217.6729000006],[509619.91579999961,1567183.3081999999],[509659.26499999966,1567196.3625000007],[509691.46569999959,1567194.0080999993],[509764.22950000037,1567134.7784000002],[509797.64690000005,1567083.8394000009],[509814.34499999974,1567072.0009000003],[509828.65230000019,1567075.5567000005],[509826.25090000033,1567118.2128999997],[509856.03880000021,1567188.1437999997],[509888.22979999986,1567210.6739000008],[509962.15160000045,1567226.1090999991],[510025.33970000036,1567260.4966000002],[510065.88769999985,1567269.9909000006],[510086.16590000037,1567264.0709000006],[510100.49399999995,1567215.4913999997],[510121.98060000036,1567156.2533],[510147.04370000027,1567112.4228000008],[510141.08600000013,1567088.7195999995],[510112.47149999999,1567081.5966999996],[510083.8546000002,1567080.4019000009],[510069.55200000014,1567037.7279000003],[510082.68699999992,1567004.5541999992],[510283.12980000023,1566761.7091000006],[510365.42349999957,1566732.1139000002],[510422.68840000033,1566687.1024999991],[510478.77049999963,1566606.5449000001],[510500.26499999966,1566531.9011000004],[510514.61340000015,1566463.1711999997],[510497.93230000045,1566406.2842999995],[510494.38499999978,1566347.0251000002],[510530.16370000038,1566332.8284000009],[510594.56759999972,1566328.1106000002],[510636.2993999999,1566348.2788999993],[510676.83389999997,1566367.2522],[510718.56759999972,1566382.6761000007],[510740.03579999972,1566372.0237000007],[510804.48419999983,1566263.0249000005],[510827.18840000033,1566163.4865000006],[510841.53780000005,1566069.8725000005],[510858.24519999977,1566039.0673999991],[510933.38040000014,1566024.8771000002],[510982.29399999976,1565983.4245999996],[511035.98929999955,1565914.7120999992],[511092.06109999958,1565866.1515999995],[511145.73110000044,1565880.3978000004],[511180.3041000003,1565886.3300000001],[511233.98170000035,1565859.1028000005],[511312.71860000025,1565804.6248000003],[511282.93840000033,1565722.8363000005],[511269.86070000008,1565646.9832000006],[511271.06830000039,1565600.7653999999],[511316.40649999958,1565569.9734000005],[511383.19840000011,1565562.9031000007],[511496.50549999997,1565523.8364000004],[511546.61830000021,1565483.5689000003],[511643.22439999972,1565459.9123],[511754.17700000014,1565380.5662999991],[511796.75769999996,1565271.3055000007],[511892.94230000023,1565182.5193000007],[511943.56950000022,1565107.1162999999],[512002.63150000013,1565063.5691],[512043.11419999972,1565035.0987],[512063.38590000011,1564979.7989000008],[512066.78160000034,1564919.4700000007],[512112.35989999957,1564842.3949999996],[512157.93620000035,1564770.341],[512188.30910000019,1564738.5149000008],[512223.85300000012,1564703.3621999994]]},"properties":{"FID":2,"OBJECTID_1":3,"Id":0,"River_Name":" ","Type":"river","Flow":" ","Length":0,"OBJECTID":1131,"osm_id":224212226,"name":"Werie","width":0,"Shape_Leng":8737.23493848,"SPD_KM_HR":1,"SPD_KM_MIN":60,"TT_MIN_KM":600,"Shape_Le_1":8761.0372786000007}},{"type":"Feature","id":3,"geometry":{"type":"LineString","coordinates":[[531439.43670000043,1546071.9308000002],[531196.07419999968,1545972.0077999998],[531153.2966,1545820.1403000001],[531110.54239999969,1545639.8164000008],[531082.11359999981,1545464.2544999998],[530962.84700000007,1545392.9414000008],[530705.03000000026,1545397.3757000007],[530428.24799999967,1545292.6757999994],[530232.6222000001,1545192.8191],[530184.99129999988,1545102.6271000002],[530261.50509999972,1544998.3476999998],[530399.90419999976,1545041.2017000001],[530419.08930000011,1544965.3223999999],[530371.48660000041,1544851.4071999993],[530314.33079999965,1544732.7251999993],[530218.88300000038,1544699.4114999995],[530175.82919999957,1544775.2628000006],[530213.88549999986,1544889.1664000005],[530123.11149999965,1544941.2498000003],[529998.95500000007,1544964.8270999994],[530003.83990000002,1544869.9412999991],[530008.79140000045,1544718.1317999996],[529922.99069999997,1544599.4283000007],[529803.64520000014,1544589.8001000006],[529727.31909999996,1544532.7875999995],[529674.97730000038,1544376.1561999992],[529670.40660000034,1544200.6128000002],[529632.44570000004,1544001.3081],[529551.33270000014,1543953.7687999997],[529431.97319999989,1543953.6315000001],[529269.55620000046,1544024.6140999999],[529131.00960000046,1544105.1140000001],[528982.94849999994,1544147.6471999995],[528882.76570000034,1544076.3655999992],[528811.26879999973,1543976.6493999995],[528658.45459999982,1544000.2009999994],[528496.06120000035,1544052.2101000007],[528357.65899999999,1544004.6110999994],[528453.33279999997,1543838.6684000008],[528357.98429999966,1543710.4594999999],[528296.11060000025,1543530.1089999992],[528195.91309999954,1543468.3192999996],[528086.04760000017,1543515.6443000007],[527885.56859999988,1543467.9800000004],[527814.04000000004,1543382.5001999997],[527823.76809999999,1543216.4511999991],[527780.92480000015,1543102.5353999995],[527680.70909999963,1543054.9814999998],[527623.31190000009,1543145.0660999995],[527599.27809999976,1543296.8662],[527441.71239999961,1543296.6971000005],[527470.48440000042,1543187.6031999998],[527442.08789999969,1542945.6002999991],[527499.51539999992,1542827.0479000006],[527490.07380000036,1542727.4020000007],[527437.57249999978,1542703.6230999995],[527351.54580000043,1542779.4441999998],[527189.25380000006,1542741.3151999991],[526998.22059999965,1542783.8146000002],[526893.24299999978,1542722.0251000002],[526807.57479999959,1542456.2403999995],[526793.37590000033,1542337.6118000001],[526884.25129999965,1542190.6146000009],[526937.04200000037,1541929.7195999995],[526827.31620000023,1541839.4472000003],[526607.72449999955,1541791.7732999995],[526459.80590000004,1541687.2403999995],[526474.22190000024,1541597.0976],[526579.37700000033,1541492.8261999991],[526660.64620000031,1541402.7529000007],[526641.62229999993,1541331.5648999996],[526679.94089999981,1541212.9799000006],[526689.70770000014,1541013.7080000006],[526603.81020000018,1540961.4177999999],[526522.58889999986,1541004.0458000004],[526350.71019999962,1540980.1461999994],[526221.9140999997,1540856.6453000009],[526097.75999999978,1540851.7742999997],[525983.18479999993,1540827.9353999998],[525992.86349999998,1540699.8314999994],[526121.88449999969,1540614.5494999997],[526102.88150000013,1540510.1391000003],[525931.03859999962,1540457.7752],[525821.3172000004,1540353.2736000009],[525816.64609999955,1540239.3889000006],[525754.66160000023,1540153.9140000008],[525611.39599999972,1540158.5153999999],[525463.41839999985,1540110.9119000006],[525401.46839999966,1539977.9924999997],[525181.83050000016,1539958.7982999999],[525057.71050000004,1539925.4540999997],[525048.24729999993,1539825.7984999996],[525062.67480000015,1539730.9108000007],[525010.31749999989,1539550.5451999996],[525129.81759999972,1539427.2927000001],[525158.63480000012,1539265.9844000004],[525096.63489999995,1539180.5111999996],[524838.77139999997,1539170.7608000003],[524518.83970000036,1539156.2202000003],[524423.4495000001,1539032.7605000008],[524423.59360000025,1538880.9024999999],[524313.81900000013,1538819.1195999999],[524199.2555999998,1538771.5552999992],[524237.55750000011,1538662.4449000005],[524194.65919999965,1538581.7364000008],[524046.62799999956,1538567.3640000001],[524046.76989999972,1538415.5059999991],[523956.11890000012,1538325.2644999996],[523846.34949999955,1538253.9835000001],[523789.08719999995,1538201.7296999991],[523922.87930000015,1538125.9300999995],[524018.44340000022,1538069.0736999996],[524013.77010000031,1537959.9230000004],[524066.39329999965,1537855.5703999996],[524052.1568,1537760.6443000007],[523937.53519999981,1537770.0266999993],[523784.71989999991,1537760.3958999999],[523603.29519999959,1537717.5173000004],[523488.73220000044,1537650.9780999999],[523249.98979999963,1537612.8051999994],[523073.2723000003,1537631.6243999992],[522906.04609999992,1537716.8875999991],[522820.10479999986,1537693.0886000004],[522796.34279999975,1537564.9432999995],[522882.44489999954,1537408.4173000008],[522892.05840000045,1537337.2358999997],[522696.2845999999,1537303.8509],[522552.44070000015,1537260.9243000001],[522478.19070000015,1537220.5918000005],[522208.14080000017,1537099.5547000002],[521958.32820000034,1536998.6772000007],[521789.57990000024,1536877.7311000004],[521445.07490000036,1536951.2641000003],[521323.61220000032,1536816.9343999997],[521398.08820000011,1536588.8059],[521377.98680000007,1536400.8774999995],[521236.18090000004,1536367.1949000005],[521067.30989999976,1536387.1955999993],[521013.37810000032,1536266.3378999997],[520946.06620000023,1535977.6972000003],[520851.57949999999,1535890.3614000008],[520642.12590000033,1535977.4520999994],[520540.80009999964,1535997.4993999992],[520297.83949999977,1535762.4037999995],[520243.94469999988,1535574.4389999993],[520183.21250000037,1535507.2716000006],[520075.08540000021,1535587.7222000007],[520155.98639999982,1535769.0056999996],[520068.01370000001,1535983.7006999999],[519858.63650000002,1535990.2517000008],[519622.27359999996,1535936.3770000003],[519419.8256000001,1535708.0339000002],[519284.81620000023,1535607.2584000006],[519109.24909999967,1535546.7208999991],[519116.06149999984,1535466.1908999998],[519021.6063000001,1535325.1684000008],[518866.21630000044,1535372.0347000007],[518758.15639999975,1535365.2427999992],[518589.38760000002,1535237.6052000001],[518474.58739999961,1535197.2442000005],[518346.18730000034,1535304.5507999994],[518238.09250000026,1535331.3155000005],[518211.16210000031,1535217.1960000005],[518109.96590000018,1535035.9046999998],[517968.1623999998,1534982.1119999997],[517819.4617999997,1535136.3875999991],[517738.31940000039,1535263.8471000008],[517630.27529999986,1535216.7924000006],[517589.86890000012,1535055.6841000002],[517495.43859999999,1534847.5475999992],[517380.66860000044,1534773.6480999999],[517272.54110000003,1534847.3973999992],[517272.45569999982,1534974.9236999992],[517279.07990000024,1535183.0004999992],[517211.45909999963,1535290.3423999995],[517056.13889999967,1535236.5457000006],[516880.64979999978,1535061.9232999999],[516786.21389999986,1534853.7894000001],[516766.05999999959,1534692.6955999993],[516624.21300000045,1534699.3168000001],[516563.32510000002,1534840.2302000001],[516428.19330000039,1534907.2523999996],[516232.30580000021,1534927.2676999997],[516117.57199999969,1534772.8281999994],[516036.62889999989,1534591.5579000004],[515955.67459999956,1534443.8421999998],[515800.34260000009,1534396.7662000004],[515503.15340000018,1534369.7335999999],[515428.95249999966,1534215.3105999995],[515408.81879999954,1533987.0872000009],[515368.33370000031,1533913.2303999998],[515253.46630000044,1533986.9948999994],[515131.83550000004,1534060.7561000008],[515050.78529999964,1534047.2936000004],[514922.5307,1533899.5537999999],[514814.48680000007,1533852.5],[514665.84449999966,1533926.2478999998],[514496.96710000001,1533939.5787000004],[514328.13829999976,1533865.6517999992],[514328.21279999986,1533731.4124999996],[514416.11110000033,1533577.0831000004],[514409.4291000003,1533449.5420999993],[514341.92779999971,1533355.5327000003],[513929.89159999974,1533341.8808999993],[513747.50079999957,1533361.9224999994],[513700.25299999956,1533294.7777999993],[513707.0597000001,1533194.0965],[513815.17300000042,1533120.3214999996],[513835.49029999971,1533033.0735999998],[513761.22530000005,1532952.4771999996],[513680.13200000022,1533012.8516000006],[513531.53039999958,1533006.0603999998],[513382.91830000002,1533019.409],[513193.79229999986,1532979.0335000008],[512977.69299999997,1532858.0998999998],[512761.57930000033,1532784.1597000007],[512531.98819999956,1532602.8168000001],[512336.10240000021,1532589.2963999994],[512065.91999999993,1532548.8904999997],[511903.86880000029,1532387.7129999995],[511741.73809999973,1532421.2041999996],[511566.13509999961,1532354.0055],[511424.31929999962,1532239.8314999994],[510917.7276999997,1532145.6298999991],[510742.12909999955,1532058.2977000009],[510640.88159999996,1531870.3014000002],[510539.69020000007,1531514.4905999992],[510418.09690000024,1531527.8674999997],[510242.43120000046,1531594.9276999999],[510080.33129999973,1531514.3073999994],[509924.95629999973,1531534.3864999991],[509708.81730000023,1531447.0347000007],[509550.98859999981,1531322.5690000001],[509485.16860000044,1531206.7531000003],[509348.41339999996,1531070.7725000009],[508841.88150000013,1530713.1330999993],[508764.19940000027,1530701.3616000004],[508710.14680000022,1530733.2276000008],[508698.28589999955,1530849.0263],[508662.79360000044,1530927.8897999991],[508600.29820000008,1530937.9331],[508519.24270000029,1530900.9900000002],[508477.05719999969,1530796.9186000004],[508431.46710000001,1530759.9872999992],[508360.53079999983,1530773.3904999997],[508267.61060000025,1530867.3432],[508157.81219999958,1530926.0447000004],[508085.19020000007,1530941.1290000007],[508000.76350000035,1530900.8244000003],[507777.88410000037,1530729.5796000008],[507664.72269999981,1530724.5025999993],[507500.89699999988,1530736.2107999995],[507433.3395999996,1530763.0324000008],[507369.17250000034,1530724.4167999998],[507318.5307,1530623.7069000006],[507284.75739999954,1530598.5262000002],[507234.10130000021,1530585.0858999994],[507191.87129999977,1530620.3203999996],[507169.89809999987,1530674.0185000002],[507129.35089999996,1530720.9986000005],[507004.36050000042,1530781.3818999995],[506952.01080000028,1530757.8664999995],[506919.94240000006,1530660.5243999995],[506889.56190000009,1530595.0669],[506806.80649999995,1530598.3959999997],[506582.18340000045,1530613.4450000003],[506518.00710000005,1530605.0347000007],[506501.13540000003,1530531.1870000008],[506469.05869999994,1530459.0166999996],[506399.82160000037,1530418.7212000005],[506337.33449999988,1530438.8449000008],[506281.58069999982,1530499.2486000005],[506234.28660000023,1530522.7383999992],[506176.87189999968,1530480.7653999999],[506131.28390000015,1530463.9663999993],[506050.20779999997,1530494.1615999993],[505876.21410000045,1530641.8081],[505739.40539999958,1530697.1516999993],[505651.57799999975,1530720.6336000003],[505604.29650000017,1530690.4090999998],[505604.30999999959,1530628.3217999991],[505577.29650000017,1530567.8986000009],[505508.05630000029,1530537.6697000004],[505399.96779999975,1530556.1160000004],[505242.88269999996,1530633.2780000009],[505139.83860000037,1530774.2311000004],[504964.17960000038,1530853.0723000001],[504878.04330000002,1530854.7368999999],[504778.3936999999,1530886.6023999993],[504660.16469999962,1530940.2851999998],[504582.34939999972,1531064.7224000003]]},"properties":{"FID":3,"OBJECTID_1":4,"Id":0,"River_Name":" ","Type":"river","Flow":" ","Length":0,"OBJECTID":1132,"osm_id":224212227,"name":" Werie","width":0,"Shape_Leng":44744.2025622,"SPD_KM_HR":1,"SPD_KM_MIN":60,"TT_MIN_KM":600,"Shape_Le_1":44499.607529200002}},{"type":"Feature","id":4,"geometry":{"type":"LineString","coordinates":[[513300.36110000033,1566885.9691000003],[513241.36359999981,1566830.6395999994],[513199.2313000001,1566776.9891999997],[513180.69900000002,1566743.4575999994],[513175.6660000002,1566689.8265000004],[513155.45629999973,1566644.5708000008],[513123.43120000046,1566597.6279000007],[513062.72580000013,1566587.5431999993],[512985.1370000001,1566589.1731000002],[512872.11359999981,1566647.7759000007],[512813.08910000045,1566642.7137000002],[512801.31080000009,1566589.0792999994],[512803.03500000015,1566508.6432000007],[512771.00389999989,1566493.5414000005],[512730.52539999969,1566495.1911999993],[512668.10360000003,1566528.6815000009],[512609.09210000001,1566496.8112000003],[512534.93049999978,1566419.6773000006],[512518.08719999995,1566372.7426999994],[512524.85080000013,1566334.2030999996],[512583.90789999999,1566275.5719000008],[512599.0979000004,1566240.3874999993],[512582.25949999969,1566205.1873000003],[512524.9338999996,1566166.6158000007],[512454.11160000041,1566143.1121999994],[512373.15780000016,1566138.0513000004],[512352.92819999997,1566107.8705000002],[512358.00899999961,1566067.6491],[512383.34090000018,1566014.0330999997],[512447.49880000018,1565875.5310999993],[512457.05829999968,1565835.2454000004],[512449.91760000028,1565806.8074999992],[512424.88129999954,1565785.4609999992],[512371.22240000032,1565771.2118999995],[512321.14010000043,1565747.4866000004],[512292.54320000019,1565702.4376999997],[512273.49380000029,1565640.8037999999],[512277.10030000005,1565569.7030999996],[512305.74980000034,1565529.4265000001],[512346.30640000012,1565503.3675999995],[512384.46470000036,1565504.5695999991],[512425.01879999973,1565505.784],[512440.52120000031,1565493.9356999993],[512441.73429999966,1565463.1239999998],[512434.6015999997,1565418.0855999999],[512403.62310000043,1565365.9240000006],[512391.71129999962,1565317.3330000006],[512371.45100000035,1565304.2836000007],[512347.59910000023,1565309.0166999996],[512338.05840000045,1565288.8611999992],[512346.42800000031,1565254.5029000007],[512352.42169999983,1565201.1761000007],[512369.12980000023,1565173.9221999999],[512397.78369999956,1565104.0170000009],[512391.86349999998,1565006.8328000009],[512365.64960000012,1564964.1517999992],[512328.6902999999,1564936.8827],[512290.56439999957,1564866.9450000003],[512275.08600000013,1564806.4964000005],[512223.85300000012,1564703.3621999994],[512218.47439999972,1564622.6682999991],[512248.31769999955,1564570.5363999996],[512395.07660000026,1564440.2366000004],[512454.72599999979,1564414.1983000003],[512480.97369999997,1564389.3158],[512501.26889999956,1564354.9636000004],[512512.03129999992,1564283.8552999999],[512463.21490000002,1564116.7306999993],[512447.73510000017,1564058.6487000007],[512468.04169999994,1564001.7679999992],[512490.70930000022,1563993.4844000004],[512508.60099999979,1563997.0432999991],[512524.09389999975,1564006.5402000006],[512552.73089999985,1563995.8817999996],[512564.6679999996,1563972.1868999992],[512595.72470000014,1563870.2765999995],[512620.79719999991,1563822.8872999996],[512701.9291000003,1563767.2204],[512755.60329999961,1563758.9526000004],[512812.83719999995,1563775.5710000005],[512910.60429999977,1563839.6229999997],[512973.79820000008,1563871.6510000005],[513026.27960000001,1563874.0557000004],[513070.40919999965,1563874.0784000009],[513094.25760000013,1563878.8244000003],[513132.41309999954,1563910.8508000001],[513166.97979999986,1563933.3861999996],[513219.45299999975,1563951.1864999998],[513243.3032999998,1563952.3824000005],[513268.37060000002,1563916.8496000003],[513277.9227,1563894.3260999992],[513258.88430000003,1563813.7355000004],[513232.67250000034,1563767.4923999999],[513219.57620000001,1563715.3391999993],[513223.18840000033,1563659.6336000003],[513256.62459999975,1563574.3257999998],[513273.34090000018,1563535.2164999992],[513298.39319999982,1563529.3127999995],[513323.43420000002,1563544.7321000006],[513372.33829999994,1563537.6465000007],[513457.05829999968,1563457.0997000001],[513488.89890000038,1563431.2923000008],[513523.8861999996,1563394.3164000008],[513554.91069999989,1563361.1428999994],[513558.50069999974,1563327.9658000004],[513537.05350000039,1563292.3976000007],[513489.3777999999,1563241.4092999995],[513435.72300000023,1563210.5686000008],[513391.60979999974,1563177.3550000004],[513347.49170000013,1563153.6309999991],[513336.76499999966,1563131.1077999994],[513346.32060000021,1563102.6675000004],[513394.03899999987,1563094.3979000002],[513460.83920000028,1563064.7935000006],[513519.32990000024,1562993.7221000008],[513528.93130000029,1562879.9455999993],[513524.20720000006,1562793.4232000001],[513505.13769999985,1562750.7448999994],[513495.62590000033,1562696.2158000004],[513513.56520000007,1562612.0723999999],[513541.02010000031,1562575.3468999993],[513579.20949999988,1562526.7712999992],[513599.52819999959,1562454.4852000009],[513592.39910000004,1562404.7018999998],[513588.83889999986,1562362.0318999998],[513559.03509999998,1562330.0092999991],[513516.11809999961,1562297.9908000007],[513431.47009999957,1562235.1269000005],[513404.06080000009,1562185.3329000007],[513359.93520000018,1562172.2703000009],[513313.41119999997,1562184.1017000005],[513254.9693,1562180.5098999999],[513213.23429999966,1562156.7872000001],[513195.37229999993,1562093.9591000006],[513197.7834999999,1562044.1808000002],[513224.04999999981,1562009.8213],[513277.74500000011,1561969.5480000004],[513357.67810000014,1561929.2885999996],[513394.68219999969,1561878.3452000003],[513392.3180999998,1561838.0427000001],[513382.80140000023,1561791.8193999995],[513350.61529999971,1561752.6844999995],[513310.06329999957,1561736.0735999998],[513225.39130000025,1561714.6953999996],[513177.69660000037,1561693.3364000004],[513140.73450000025,1561663.6773000006],[513119.27329999954,1561630.4872999992],[513099.02209999971,1561594.9089000002],[513097.83880000003,1561566.4628999997],[513128.86649999954,1561551.0728999991],[513158.67740000039,1561551.0884000007],[513231.41940000001,1561600.9057],[513268.37320000026,1561625.8202999998],[513319.66640000045,1561638.8866000008],[513347.09260000009,1561637.7175999992],[513368.58359999955,1561614.0170000009],[513412.73249999993,1561564.2609000001],[513423.4768000003,1561554.7884999998],[513489.08260000031,1561546.5175000001],[513543.96480000019,1561528.7740000002],[513577.36870000046,1561511.0079999994],[513594.08499999996,1561475.4602000006],[513595.31039999984,1561424.4979999997],[513594.15620000008,1561342.7113000005],[513601.33949999977,1561291.7412999999],[513632.3805999998,1561252.6510000005],[513692.04150000028,1561201.7092000004],[513730.23510000017,1561169.7344000004],[513809.76400000043,1561064.8991],[513830.09659999982,1560970.0846999995],[513815.81230000034,1560919.1030999999],[513790.77979999967,1560883.5327000003],[513777.70449999999,1560792.2613999993],[513772.96980000008,1560725.8789000008],[513798.0418999996,1560689.1414000001],[513827.91619999986,1560594.3322999999],[513836.29140000045,1560536.2628000006],[513791.05250000022,1560382.1440999992],[513776.7762000002,1560315.7565000001],[513779.19369999971,1560256.4892999995],[513785.18030000012,1560204.3464000002],[513826.96559999976,1560140.3559000008],[513927.2396999998,1560004.1007000003],[514002.45689999964,1559877.3102000002],[514008.4495000001,1559834.6344000008],[514001.32519999985,1559776.5453999992],[513979.88329999987,1559726.7541000005],[513967.75590000022,1559678.5384999998],[513969.45760000031,1559645.8582000006],[514036.12959999964,1559572.9678000007],[514100.26829999965,1559514.3321000002],[514135.72169999965,1559465.7335999999],[514176.77209999971,1559426.5058999993],[514195.65579999983,1559398.7125000004],[514231.9534,1559346.7747000009],[514252.21870000008,1559299.8379999995],[514249.7248999998,1559242.8462000005],[514235.42129999958,1559168.2411000002],[514230.3973000003,1559118.7796999998],[514234.64940000046,1559043.3443],[514213.58299999963,1559016.5130000003],[514113.23979999963,1558956.9451000001],[514059.33210000023,1558899.7589999996],[514042.65940000024,1558852.3372000009],[514066.53469999973,1558816.7937000003],[514133.33600000013,1558826.3089000005],[514214.45199999958,1558833.4655000009],[514269.36120000016,1558760.0052000005],[514286.1456000004,1558608.2765999995],[514262.3563000001,1558489.7260999996],[514195.58600000013,1558423.3089000005],[514147.89510000031,1558385.3476999998],[514152.69940000027,1558326.0709000006],[514205.19600000046,1558302.3994999994],[514250.47750000004,1558171.3239999991],[514264.84850000031,1558069.3846000005],[514295.90840000007,1557986.4217000008],[514293.57620000001,1557891.5952000003],[514286.46860000025,1557803.8662999999],[514269.79690000042,1557754.0666000005],[514231.65419999976,1557704.2546999995],[514152.92040000018,1557697.0995000005],[514093.25989999995,1557711.2890000008],[514038.40130000003,1557689.9245999996],[514019.33040000033,1557663.8355],[514021.74490000028,1557611.6687000003],[514071.85840000026,1557585.6179000009],[514193.54420000035,1557576.2073999997],[514262.73709999956,1557580.9795999993],[514331.93790000025,1557571.5405000001],[514341.49399999995,1557547.8341000006],[514320.05370000005,1557493.2980000004],[514281.89709999971,1557448.2197999991],[514248.61569999997,1557237.1947000008],[514260.56429999974,1557201.6338],[514320.26609999966,1557116.3092],[514339.3786000004,1557068.9074000008],[514334.66459999979,1556966.9463],[514341.87000000011,1556881.6031999998],[514411.10230000038,1556819.9962000009],[514475.57299999986,1556722.8188000005],[514485.14030000009,1556680.1453000009],[514468.45749999955,1556649.3126999997],[514408.81469999999,1556646.9120000005],[514315.76040000003,1556644.4815999996],[514263.2918999996,1556592.2949999999],[514208.43499999959,1556563.8080000002],[514198.9168999996,1556499.7895999998],[514201.35429999977,1556407.3216999993],[514232.42819999997,1556321.9810000006],[514201.46949999966,1556201.0380000006],[514222.99100000039,1556132.2925000004],[514227.82359999977,1556023.2252999991],[514256.50549999997,1555930.7719999999],[514292.47009999957,1555615.4387999997],[514426.2723000003,1555312.0057999995],[514579.19600000046,1554935.0824999996],[514679.55119999964,1554700.4002999999],[514724.95280000009,1554600.8348999992],[514794.24590000045,1554446.7485000007],[514880.19359999988,1554356.6961000003],[514839.67760000005,1554278.4147999994],[514763.3356999997,1554242.8028999995],[514691.78050000034,1554200.0825999994],[514589.1557,1554209.5015999991],[514534.28579999972,1554195.2475000005],[514469.86789999995,1554169.1324000005],[514467.51020000037,1554119.3297000006],[514546.28220000025,1554079.0624000002],[514746.76140000019,1554022.2651000004],[514799.29069999978,1553977.2498000003],[514808.86649999954,1553922.7094999999],[514770.71509999968,1553861.0413000006],[514694.38269999996,1553825.4294000007],[514682.50999999978,1553706.8528000005],[514634.88320000004,1553543.2098999992],[514556.18130000029,1553457.7959000003],[514408.34819999989,1553256.1510000005],[514324.89780000038,1553125.6784000006],[514315.40130000003,1553040.3151999991],[514341.67250000034,1552997.6401000004],[514391.8236999996,1552921.7885999996],[514389.45639999956,1552888.5863000005],[514344.13870000001,1552855.3599999994],[514265.39389999956,1552841.0932],[514158.02329999954,1552812.5769999996],[514084.05559999961,1552788.8243000004],[514072.15780000016,1552729.5273000002],[514098.44460000005,1552658.4067000002],[514093.7182,1552575.4019000009],[513972.15539999958,1552316.8508000001],[513881.54750000034,1552174.5198999997],[513848.22449999955,1552020.3646000009],[513917.49820000026,1551885.2212000005],[513948.56730000023,1551816.4697999991],[513943.85319999978,1551709.7534999996],[513903.29729999974,1551671.7860000003],[513772.06919999979,1551624.2914000005],[513679.01549999975,1551586.2960000001],[513676.68520000018,1551481.9476999994],[513755.49089999963,1551391.8769000005],[513786.55700000003,1551308.8915999997],[513772.31120000035,1551176.0807000007],[513829.63509999961,1551097.8432],[513839.23039999977,1551005.3684],[513832.11270000041,1550929.4737999998],[513779.62629999965,1550886.7555999998],[513650.74969999958,1550896.1754000001],[513607.79320000019,1550881.9187000003],[513576.81140000001,1550806.0116000008],[513569.69039999973,1550734.8617000002],[513617.42939999979,1550711.1754999999],[513555.41789999977,1550649.4854000006],[513440.87820000015,1550620.9575999994],[513343.03650000039,1550604.3058000002],[513218.9402999999,1550575.7851],[513202.62229999993,1550350.7368999999],[513121.68340000045,1550240.0222999994],[513047.4785000002,1550136.0133999996],[512983.40330000035,1550028.6478000004],[512909.18350000028,1549951.4697999991],[512831.5421000002,1549978.2611999996],[512710.07890000008,1549880.9428000003],[512619.02919999976,1549726.6059000008],[512578.57620000001,1549622.6151999999],[512595.48369999975,1549562.2495000008],[512652.87260000035,1549548.8627000004],[512710.21079999954,1549615.9782999996],[512740.57039999962,1549669.6543000005],[512787.81199999992,1549693.1574000008],[512818.2296000002,1549609.3191],[512811.56140000001,1549448.3220000006],[512801.47449999955,1549364.4636000004],[512868.98039999977,1549354.4443999995],[512939.88900000043,1549320.9365999997],[512882.60929999966,1549116.3060999997],[512886.03259999957,1549008.9749999996],[512960.33509999979,1548928.5212999992],[513021.07600000035,1548952.0316000003],[513105.49100000039,1548905.1159000006],[513092.07650000043,1548720.625],[513048.28870000038,1548549.5446000006],[513007.81500000041,1548485.7990000006],[513038.26389999967,1548344.9381000008],[513058.57390000019,1548244.3179000001],[513061.99110000022,1548150.4020000007],[513014.7742999997,1548073.2378000002],[512950.6512000002,1548049.7257000003],[512873.02419999987,1548036.2714000009],[512795.43240000028,1547952.3680000007],[512788.71320000011,1547891.9907000009],[512809.00169999991,1547811.4986000005],[512880.67200000025,1547667.4509999994]]},"properties":{"FID":4,"OBJECTID_1":5,"Id":0,"River_Name":" ","Type":"river","Flow":" ","Length":0,"OBJECTID":1133,"osm_id":224212229,"name":" Werie","width":0,"Shape_Leng":27364.371776200001,"SPD_KM_HR":1,"SPD_KM_MIN":60,"TT_MIN_KM":600,"Shape_Le_1":27563.2511658}}]}