{"type":"FeatureCollection", "features": [
{"type":"Feature","geometry":{"type":"MultiLineString","coordinates":[[[38.72738349600007,13.246564144000047],[38.73285739100004,13.260910222000064],[38.737410139000076,13.281529096000043],[38.74654673900005,13.294982353000023],[38.73921726800006,13.303041333000067],[38.74652903900005,13.312011379000069],[38.73827999200006,13.32365444800007],[38.745589521000056,13.335313305000057],[38.74191707500006,13.34606474700007],[38.73550413800007,13.351435706000075],[38.73365580600006,13.36756646200007],[38.73639609800006,13.372946892000073],[38.743708870000034,13.382813266000028],[38.73912010600003,13.393563682000035],[38.73178536900008,13.40341483800006],[38.726268951000065,13.424022816000047],[38.71524272700003,13.457171992000042],[38.69600026200004,13.467008233000058],[38.683153778000076,13.486709842000039],[38.67117804900005,13.53778042700003],[38.639053828000044,13.579859387000056],[38.63901801700007,13.603519991000042],[38.62709951800008,13.607983605000072],[38.61698433500004,13.63037407400003],[38.590374119000046,13.650944915000025]],[[38.59371533800004,13.651708997000071],[38.576750953000044,13.652318688000037],[38.56955798600006,13.661238817000026],[38.53057716300003,13.686902062000058],[38.524059187000034,13.683274114000028],[38.51513496900003,13.686446955000065],[38.50510607100006,13.697698956000067],[38.49532006900006,13.696615812000061],[38.48051171600008,13.704454158000033],[38.47853130300007,13.714743468000052],[38.47612901700006,13.718991886000026],[38.46198532300008,13.720662892000064],[38.44650181600008,13.737004575000071],[38.44171518300004,13.737206467000021],[38.43975166300004,13.739541425000027],[38.43735857400003,13.739535980000028],[38.417098794000026,13.75054792800006],[38.407461660000024,13.758819170000038],[38.40024662500008,13.77262537200005],[38.39608797900007,13.782185416000061],[38.39325490200008,13.783879815000034],[38.384327480000024,13.786197015000027],[38.379975030000026,13.78639875400006],[38.373215421000054,13.79169838000007],[38.370576183000026,13.802155005000031],[38.36708526800004,13.805548755000075],[38.35076500500003,13.805293499000072],[38.34684623700008,13.805921119000061],[38.342278789000034,13.805058258000031],[38.339882086000046,13.80611517400007],[38.33749316800004,13.804407394000066],[38.32835540900004,13.803744579000067],[38.315512193000075,13.805197811000028],[38.30920528900003,13.803904153000076],[38.297301154000024,13.782391000000075],[38.281671937000056,13.770223853000061],[38.277536965000024,13.77055202400004],[38.25971322700008,13.764969766000036],[38.25451177300005,13.758574099000043],[38.236073427000065,13.741717066000035],[38.22955537300004,13.739144814000042],[38.21866807300006,13.729030265000063],[38.19995587100004,13.730246333000025],[38.19451026200005,13.73235526700006],[38.191239937000034,13.734471211000027],[38.18123617600003,13.733587579000073],[38.173193308000066,13.731859469000028],[38.16947276700006,13.738226859000065],[38.15955328600006,13.740816108000047],[38.14405898100006,13.747568002000037],[38.133249454000065,13.742237362000026],[38.117768554000065,13.74520698300006],[38.101151591000075,13.741744445000052],[38.06281982200005,13.752943519000041],[38.046579406000035,13.752125136000075],[38.03304172900005,13.752450466000028],[38.01917081500005,13.73991993900006],[38.01296265900004,13.744809858000053],[38.00672874700007,13.755748317000041],[37.99737916000004,13.771588554000061],[37.99378651600006,13.797659263000071],[37.97323075200006,13.81004977300006],[37.97242229300008,13.817985351000061],[37.957278099000064,13.83077497100004],[37.935613672000045,13.830681903000027],[37.913884504000066,13.844574064000028],[37.906044232000056,13.866465342000026],[37.90016029900005,13.883450582000023],[37.892023667000046,13.885682037000038],[37.866149663000044,13.87497845100006],[37.85923299800004,13.865117464000036],[37.85148736700006,13.866593352000052],[37.85027450500007,13.877172504000043],[37.835569355000075,13.877480938000076],[37.82362225400004,13.867973065000058],[37.801922398000045,13.874294171000031],[37.77181855300006,13.85978003100007],[37.76447766300004,13.857852985000022],[37.750831584000025,13.877440676000049],[37.73338556600004,13.883777176000024],[37.732941123000046,13.89435929800004],[37.719369149000045,13.899580688000071],[37.70626753400006,13.889683304000073],[37.684591081000065,13.89107957400006],[37.67603358400004,13.898971496000058],[37.65658635400007,13.916253458000028],[37.655364269000074,13.926830831000075],[37.65533146800004,13.932500706000042],[37.64594229900007,13.949836786000049],[37.626193200000046,13.951616070000057],[37.62960938300006,13.96297531600004],[37.61900251700007,13.989223897000045],[37.60731956800004,14.000874976000034],[37.606884627000056,14.008810365000045],[37.618794697000055,14.023998375000076],[37.62182181500003,14.035733503000074],[37.59393038400003,14.038218954000058],[37.59928859100006,14.048455837000063],[37.58766867800006,14.04914420700004],[37.58647003400006,14.055185047000066],[37.589906091000046,14.063142927000058],[37.578994470000055,14.07441863200006],[37.571914169000024,14.092142240000044],[37.558758761000036,14.090325208000024],[37.55791542700007,14.101281727000071],[37.54935033900006,14.108411985000032],[37.54157371400004,14.113278775000026],[37.52605841400003,14.116964064000058],[37.52402217400004,14.132448724000028],[37.52129394700006,14.135077806000027],[37.51963464700003,14.15207659400005],[37.51529780900006,14.163767094000036],[37.52765672600003,14.169512932000032],[37.52641164500005,14.182356532000028],[37.521775207000076,14.180438091000042],[37.514787495000064,14.182662745000073],[37.50822907500003,14.17846428100006],[37.49852716400005,14.181049517000076],[37.49652047500007,14.19162018000003],[37.483288505000075,14.200608042000056],[37.477006467000024,14.213041142000066],[37.465368186000035,14.215234548000069],[37.46836841100003,14.229994520000048],[37.470558306000044,14.250040824000052],[37.46705808200005,14.251908193000077],[37.45311848700004,14.250306354000031],[37.44536863800005,14.250255980000077],[37.44651041600008,14.253287124000053],[37.446859104000055,14.258958843000073],[37.439460078000025,14.264202001000058],[37.43515568000004,14.270221159000073],[37.426609179000025,14.273188553000068],[37.41372552100006,14.286709575000032],[37.40752210200003,14.287046108000027],[37.39349262600007,14.297912482000072],[37.392297694000035,14.302439846000027],[37.40422971000004,14.314236824000034],[37.39916421700008,14.317982287000063],[37.40253759800004,14.334257023000077],[37.40019575100007,14.336508966000054],[37.39512965900008,14.340254278000032],[37.38271720000006,14.341303825000068],[37.38070299200007,14.351872680000042],[37.39265825900003,14.360646940000038],[37.39107786200003,14.364793674000055],[37.386048895000044,14.363247655000066],[37.382144991000075,14.367000518000054],[37.381337006000024,14.371530388000053],[37.369307770000034,14.372959622000053],[37.37274226900007,14.380542211000034],[37.364163346000055,14.38728608200006],[37.35945009500006,14.395568224000044],[37.34891206800006,14.404943425000056],[37.34924141400006,14.412882527000022],[37.341009136000025,14.424918946000048],[37.32584091000007,14.430858813000043],[37.32108270900005,14.444808666000029],[37.298607547000074,14.442379854000023],[37.29281082700004,14.439692407000052],[37.27535172300003,14.440699094000024],[37.262628138000025,14.431157466000059],[37.24788714400006,14.431804257000067],[37.233829280000066,14.444170815000064],[37.21256469300005,14.436074189000067],[37.20799919700005,14.42507992000003],[37.18133697900004,14.413538500000072],[37.17237633900004,14.418760062000047],[37.14920647500003,14.407242283000073],[37.141064766000056,14.407178341000076],[37.13229231500003,14.389725528000042],[37.12313661400003,14.371891579000021],[37.12244962800003,14.361304834000066],[37.116269912000064,14.35861045200005],[37.10640799000004,14.332834567000077],[37.11427294900005,14.319292689000065],[37.110149068000055,14.302632194000068],[37.11296885100006,14.289805869000077],[37.10566029600005,14.283323454000026],[37.09882207000004,14.26701917500003],[37.08332417500003,14.266895025000053],[37.070967765000034,14.26188266500003],[37.048845149000044,14.266237312000044],[37.02497562800005,14.248657858000058],[37.014893323000024,14.249707834000048],[37.005128607000074,14.258695580000051],[36.992681256000026,14.26425931500006],[36.985192622000056,14.278555523000023],[36.975422113000036,14.287919561000024],[36.969199090000075,14.29051166100004],[36.95101256800007,14.287710634000064],[36.938925942000026,14.295919367000067],[36.91952520900003,14.298773367000024],[36.90591513500004,14.303943963000052],[36.901586347000034,14.311085137000077],[36.883389161000025,14.309412305000023],[36.86857979500007,14.318348408000077],[36.85619477400007,14.316725530000042],[36.84351631800007,14.305275322000057],[36.83457234100007,14.308594619000075],[36.82910802400005,14.312701053000069],[36.74341355000007,14.318703390000053],[36.73730898800005,14.309199707000062],[36.72221064900003,14.307921992000047],[36.69866635500006,14.299005396000041],[36.69209207000006,14.297808232000023],[36.676100004000034,14.30823115000004],[36.669878022000034,14.310437068000056],[36.65988740700004,14.302404952000074],[36.65134502500007,14.304209723000042],[36.64894987500003,14.310986501000059],[36.630362210000044,14.310046234000026],[36.624338453000064,14.293362989000059],[36.61351196100003,14.29136562900004],[36.608855575000064,14.292074454000044],[36.60347246200007,14.288242352000054],[36.593848766000065,14.282478361000074],[36.58642877500006,14.288070062000031],[36.573674512000025,14.285295835000056],[36.56789681500004,14.282214580000073],[36.56014599500003,14.282513033000043],[36.560643206000066,14.272318002000077],[36.56926556900004,14.262961540000049],[36.56200831000007,14.253442820000032],[36.52782862000004,14.262157493000075],[36.520828452000046,14.264729181000064]]]},"properties":{"OBJECTID_12":1,"OBJECTID_1":1,"Id":1,"River_Name":"Tekeze","Type":"Main_River","Flow":"Permanent","Length":389.961189336,"OBJECTID":0,"osm_id":0,"name":" ","width":0,"Shape_Leng":0,"SPD_KM_HR":0,"SPD_KM_MIN":0,"TT_MIN_KM":0,"Shape_Le_1":389961.189784,"Shape_Length":3.573258241159294},"id":1},
{"type":"Feature","geometry":{"type":"LineString","coordinates":[[39.11927530000003,13.999438500000053],[39.11952669900006,13.99621970100003],[39.12028060000006,13.99465900000007],[39.120330899000066,13.993195901000036],[39.119024000000024,13.992561900000055],[39.11912459900003,13.989928300000031],[39.11993700000005,13.989144401000033],[39.118891500000075,13.987778801000047],[39.117362300000025,13.986410901000056],[39.11663850100007,13.984381900000074],[39.117362300000025,13.983055300000046],[39.11716130100007,13.981533601000024],[39.11595500000004,13.981533601000024],[39.11543220000004,13.981221400000038],[39.11627660000005,13.980285000000038],[39.115834300000074,13.97868520000003],[39.11635709900003,13.976305000000025],[39.115673499000025,13.97525150000007],[39.11527140000004,13.974315000000047],[39.116316899000026,13.973924800000077],[39.11663850000008,13.97337850100007],[39.11595500100003,13.972481101000028],[39.11462800100003,13.972520101000043],[39.11402490100005,13.971622601000036],[39.11466820000004,13.970920200000023],[39.11563330000007,13.970178900000064],[39.11503010000007,13.969086300000072],[39.11571370100006,13.968344899000044],[39.119010901000024,13.966706001000034],[39.11784479900007,13.965808500000037],[39.11864900100005,13.96502810000004],[39.11868920000006,13.964481800000044],[39.11659830000008,13.963779401000068],[39.116517901000066,13.96264780100006],[39.11591480000004,13.962218500000063],[39.11567350000007,13.960657600000047],[39.11683960100004,13.95952600000004],[39.11716130100007,13.957809000000054],[39.11663850000008,13.956911501000036],[39.11575390100006,13.956755401000066],[39.11498990100006,13.955740801000047],[39.11406510000006,13.955662700000062],[39.11326090000006,13.955038401000024],[39.113100100000054,13.953204301000028],[39.11233610000005,13.952111600000023],[39.112215400000025,13.951018901000054],[39.11289900000003,13.95004330100005],[39.112617500000056,13.94945800000005],[39.11165250000005,13.949262900000065],[39.111290600000075,13.94840430100004],[39.112175200000024,13.947194599000056],[39.111531900000045,13.946336001000077],[39.111330801000065,13.945009200000072],[39.110526599000025,13.943799401000035],[39.10980280100006,13.942667701000062],[39.10871720000006,13.942979900000068],[39.10859650000003,13.941926200000069],[39.10976260000007,13.940911500000027],[39.109239900000034,13.94020910100005],[39.10763150100007,13.940053000000034],[39.106746900000076,13.940638401000058],[39.10373110000006,13.940794500000038],[39.10272590000005,13.939662701000032],[39.10099590000004,13.937645700000076],[39.098382300000026,13.938036001000057],[39.097477500000025,13.937255400000026],[39.09833200000003,13.935987101000023],[39.09853299900004,13.934572400000036],[39.09536650100006,13.93149900000003],[39.09652250000005,13.930230599000026],[39.09380840100005,13.927742600000045],[39.09446180100008,13.925352201000067],[39.09250160000005,13.924571600000036],[39.09074240000007,13.922717700000021],[39.08893290000003,13.920522401000028],[39.08762610100007,13.920327200000031],[39.08591720000004,13.91930270100005],[39.085515101000055,13.917887901000029],[39.08345430000003,13.916473101000065],[39.08224800000005,13.914180100000067],[39.08164490100006,13.911594300000047],[39.08209719900003,13.910569701000043],[39.08199669900006,13.908520601000077],[39.08239880000008,13.90656910100006],[39.083052200000054,13.905934800000068],[39.083001901000046,13.904959001000066],[39.08209720000008,13.904227200000037],[39.08209720000008,13.903153800000041],[39.08033800000004,13.901543700000047],[39.08003650000006,13.900324001000058],[39.07918200000006,13.899689701000057],[39.077674100000024,13.899299400000075],[39.07747310000008,13.898469901000055],[39.07852860000003,13.895932800000026],[39.07832749900007,13.893737101000056],[39.07727200000005,13.892029401000059],[39.07551280000007,13.892712500000073],[39.07335160100007,13.890565600000059],[39.07320080100004,13.888516301000038],[39.070235300000036,13.884515300000032],[39.070536901000025,13.88256350000006],[39.07114000000007,13.877928001000043],[39.07179340000005,13.87695210000004],[39.07108970000007,13.876805701000023],[39.07043630000004,13.87724490100004],[39.069481299000074,13.876659301000075],[39.06892850000003,13.875049101000059],[39.06928030100005,13.874512300000049],[39.069632100000035,13.873585200000036],[39.06867710000006,13.873146000000077],[39.06747080000008,13.87421960000006],[39.06661640000004,13.87456110000005],[39.065410100000065,13.872755701000074],[39.06596300000007,13.871682100000044],[39.06566140100006,13.870169401000055],[39.06138910000004,13.866168100000039],[39.059730401000024,13.865436101000057],[39.058655600000066,13.864528001000053],[39.05862350000007,13.863466200000062],[39.05733680000003,13.86243550000006],[39.056017901000075,13.860998901000073],[39.05640390000008,13.859156300000052],[39.05582490000006,13.857625901000063],[39.05421650000005,13.857594701000039],[39.05389480000008,13.856657700000028],[39.052768901000036,13.85568950000004],[39.05080670000007,13.856033101000037],[39.048522700000035,13.853690700000072],[39.046592700000076,13.853472100000033],[39.04620660100005,13.853034801000035],[39.04599050000007,13.852373601000068],[39.045469499000035,13.851645500000075],[39.04413590000007,13.850571100000025],[39.04240530100003,13.84934140100006],[39.04060890000005,13.849020301000053],[39.03906530000006,13.84888090000004],[39.037795800000026,13.849627301000055],[39.03600940000007,13.851379500000064],[39.034272299000065,13.853503301000046],[39.03301660100004,13.854058100000032],[39.03253200000006,13.853788500000064],[39.03213000000005,13.852679601000034],[39.03240660000006,13.85141070000003],[39.032646200000045,13.851105700000062],[39.03332480000006,13.850785100000053],[39.033800900000074,13.850458899000046],[39.03406790100007,13.85007550000006],[39.03397860000007,13.849601900000039],[39.03365720000005,13.84908450100005],[39.03305700000004,13.848723300000074],[39.03227090000007,13.848016200000075],[39.03063730000008,13.84591370000004],[39.03008500000004,13.845391500000062],[39.029464500000074,13.844962800000076],[39.02854189900006,13.844961701000045],[39.02789420000005,13.845505400000036],[39.02729190000008,13.846569601000056],[39.02694780000007,13.848202401000037],[39.02642330000003,13.848818401000074],[39.026040101000035,13.849062900000035],[39.02555140000004,13.848908000000051],[39.02522299900005,13.84844600100007],[39.024150200000065,13.847805100000073],[39.022932500000024,13.84733330000006],[39.020568800000035,13.84585129900006],[39.01937850000007,13.84585130000005],[39.01815620000008,13.84694440100003],[39.017641499000035,13.848256200000037],[39.01654780000007,13.849724200000026],[39.01600090000005,13.85166060000006],[39.01471420000007,13.85284740000003],[39.01378130000006,13.853284700000074],[39.01300930000008,13.852878601000043],[39.01291280100003,13.851379500000064],[39.01291280100003,13.848631001000058],[39.011915600000066,13.84781890100004],[39.01156170000007,13.84694440100003],[39.01271980000007,13.844789300000059],[39.01300930000008,13.843290100000047],[39.011658200000056,13.843133901000044],[39.009921199000075,13.844071000000042],[39.008312800000056,13.843477501000052],[39.00681480000003,13.843464501000028],[39.00595830100008,13.845127601000058],[39.00525010000007,13.846119100000067],[39.004492500000026,13.84637500100007],[39.00381720000007,13.845815300000027],[39.00297450000005,13.846546099000022],[39.00249340000005,13.846759900000052],[39.000254201000075,13.84685470100004],[38.99862070000006,13.845268700000076],[38.996673000000044,13.845390700000053],[38.99554210000008,13.845024701000057],[38.99573060000006,13.843682601000069],[38.995604900000046,13.842157501000031],[38.99497660000003,13.841242501000067],[38.99573060000006,13.840388400000052],[38.997803900000065,13.838741301000027],[38.997992400000044,13.837460201000056],[38.996296001000076,13.83739920100004],[38.99585620100004,13.836179100000038],[38.99623320000006,13.834776001000023],[38.995604901000036,13.83331190000007],[38.99459970000004,13.831786700000066],[38.99378289900005,13.832030700000075],[38.99309180100005,13.833128800000054],[38.99177240000006,13.834898001000056],[38.99064150000004,13.837460201000056],[38.98988760000003,13.839711300000033],[38.98868130100004,13.840199300000052],[38.98757550000005,13.840101701000037],[38.98606760000007,13.83736870100006],[38.985213101000056,13.837173500000063],[38.984861300000034,13.838344800000073],[38.98576600100006,13.83990650100003],[38.98330320000008,13.842493001000037],[38.98134290000007,13.843078700000035],[38.98003610000006,13.842688301000067],[38.978628800000024,13.841224201000045],[38.975361700000065,13.839808900000037],[38.972195200000044,13.835367700000063],[38.97134070100003,13.834538100000032],[38.96993339900007,13.834391700000026],[38.96872710000008,13.83478210100003],[38.96787260000008,13.835074901000041],[38.96716890000005,13.834294101000069],[38.96586210000004,13.832634700000028],[38.96375110100007,13.83160980100007],[38.96174060100003,13.831902601000024],[38.95962960000003,13.831805001000077],[38.95822220000008,13.830584900000076],[38.95445250000006,13.827461300000039],[38.946209501000055,13.825509100000033],[38.94540530100005,13.824728200000038],[38.943897400000026,13.825362701000074],[38.94108270000004,13.825801901000034],[38.94032880000003,13.825460301000021],[38.94012770000006,13.82414250100004],[38.93957480000006,13.82223900100007],[38.937614600000074,13.820628400000032],[38.93550359900007,13.818773701000055],[38.933995700000025,13.817895200000066],[38.93314119900003,13.818139200000076],[38.93329199900006,13.818969000000038],[38.93334230000005,13.819798700000035],[38.93273910000005,13.820628400000032],[38.931231301000025,13.820726000000036],[38.92962290000003,13.820286800000076],[38.927662600000076,13.819798700000035],[38.926544300000046,13.81988410100007],[38.924973600000044,13.821043301000032],[38.923465700000065,13.82165340000006],[38.922460501000046,13.821043301000032],[38.919507500000066,13.817565700000046],[38.91510960000005,13.814698301000021],[38.91146550000008,13.812562901000035],[38.907051300000035,13.80819880000007],[38.90564400000005,13.807144501000039],[38.90431700000005,13.806675900000073],[38.90262820000004,13.806012101000022],[38.900818800000025,13.806285501000048],[38.89917020000007,13.806715001000043],[38.89852680000007,13.806597900000043],[38.89868760000007,13.804606401000058],[38.89904950000005,13.80347400100004],[38.897963901000026,13.802458700000045],[38.897400901000026,13.801560600000073],[38.89659669900004,13.801990101000058],[38.89559150000008,13.801716801000055],[38.89539040000005,13.800896700000067],[38.89591320000005,13.800545301000056],[38.896033800000055,13.799647201000028],[38.89490790000008,13.799491001000035],[38.89321909900008,13.800506300000052],[38.89261590000007,13.801716801000055],[38.89100750000006,13.802849199000036],[38.88947960000007,13.804059700000039],[38.88847430000004,13.803981600000043],[38.88771030000004,13.802654001000064],[38.88658440000006,13.802497801000072],[38.88549880000005,13.801013900000044],[38.88586070000008,13.800193900000068],[38.885740001000045,13.798631901000022],[38.886303000000055,13.798085201000049],[38.88602150000003,13.797655600000041],[38.88437290000007,13.79820230000007],[38.88332740000004,13.797421300000053],[38.88192010000006,13.795976500000052],[38.880794200000025,13.795898400000056],[38.880552900000055,13.796367000000032],[38.88043230000005,13.798163300000056],[38.88003020000008,13.79941290000005],[38.87882390000004,13.800389101000064],[38.87773820000007,13.800037699000029],[38.87693400000006,13.799959601000069],[38.87492350000008,13.797772800000075],[38.874561699000026,13.796171801000071],[38.872631600000034,13.794609801000036],[38.87186760000003,13.795039300000042],[38.871063400000025,13.796679401000063],[38.87054069900006,13.79820230100006],[38.869575600000076,13.798710000000028],[38.86881160000007,13.798553801000025],[38.866881600000056,13.796562300000062],[38.866680501000076,13.795078400000023],[38.864911300000074,13.793399200000067],[38.86278009900008,13.79179810100004],[38.860769600000026,13.793711601000041],[38.85932210100003,13.794726900000057],[38.858437500000036,13.794023999000046],[38.85855810100003,13.79312580100003],[38.858156000000065,13.791134300000067],[38.85767350100008,13.78953320100004],[38.85341120000004,13.789259799000035],[38.852687400000036,13.790197001000024],[38.85176259900004,13.790548501000046],[38.850073800000075,13.790860900000041],[38.84779189900007,13.791007300000047],[38.84532900000005,13.790763300000037],[38.84449260000008,13.791116701000021],[38.84292280000005,13.79169150100006],[38.84081260000005,13.791941400000042],[38.83986040000008,13.791741500000057],[38.83880530000005,13.790516900000057],[38.838779600000066,13.789217201000042],[38.840040601000055,13.787567700000068],[38.84052950000006,13.786618000000033],[38.83960310000003,13.785768201000053],[38.839937700000064,13.784743500000047],[38.83950020000003,13.784418600000038],[38.83816200000007,13.784768500000041],[38.836772300000064,13.785343300000022],[38.83396730000004,13.785268400000064],[38.83241680000003,13.78509340000005],[38.831331101000046,13.783960900000068],[38.83084860100007,13.782203601000049],[38.83096920000003,13.780875801000036],[38.830687699000066,13.779977600000052],[38.83117030100004,13.778923200000065],[38.83096920000003,13.777126700000053],[38.83056710000005,13.776033201000075],[38.82915980100006,13.775252200000068],[38.82747100100005,13.774666401000047],[38.82578209900004,13.774627301000066],[38.82513880000005,13.775369301000069],[38.82497790000008,13.776267501000063],[38.82397269900008,13.777009600000042],[38.822726200000034,13.776853301000074],[38.82212300000003,13.775759901000072],[38.82168070000006,13.77454920100007],[38.819670200000076,13.774393001000021],[38.81892679900005,13.775204400000064],[38.817073900000025,13.775324301000069],[38.81462400000004,13.775464301000056],[38.81277110000008,13.773824701000024],[38.81233880000008,13.772964901000023],[38.811041800000055,13.773144801000058],[38.809806500000036,13.774044600000025],[38.809065400000065,13.775324300000023],[38.80717130000005,13.77522440100006],[38.80597730000005,13.774344601000053],[38.80303330000004,13.77458450100005],[38.80167449900006,13.773964600000056],[38.801653900000076,13.773344800000075],[38.80216859900003,13.773104800000056],[38.80235390000007,13.772325000000023],[38.801077400000054,13.771325200000035],[38.799904000000026,13.770985300000063],[38.798339300000066,13.770825301000059],[38.79681580100004,13.769985500000075],[38.79586880000005,13.768625800000052],[38.79533350000003,13.768345900000043],[38.79364540100005,13.765946301000042],[38.792945400000065,13.765446401000077],[38.79195720000007,13.765706401000045],[38.79144250000007,13.766426201000058],[38.79109250000005,13.767626000000064],[38.79086600000005,13.76850580100006],[38.79016610000008,13.769025700000043],[38.78940429900007,13.768665800000065],[38.78849850000006,13.767746000000045],[38.78742790100006,13.766566200000057],[38.787366200000065,13.765086500000052],[38.78623390000007,13.763766700000076],[38.78543090000005,13.763846700000045],[38.784648600000025,13.764386600000023],[38.784627999000065,13.766806201000065],[38.78452510000005,13.767226101000062],[38.78275460100008,13.768545799000037],[38.78149870000004,13.768745800000033],[38.780984000000046,13.76922570000005],[38.77985170000005,13.770185501000071],[38.77779300100008,13.771225300000026],[38.77583720100006,13.77082530000007],[38.774087200000054,13.769725600000072],[38.77264610000003,13.767386001000034],[38.77095790000004,13.766286300000047],[38.76920800000005,13.766426200000069],[38.76786980000003,13.767566000000045],[38.76702570100008,13.767925900000023],[38.765481600000044,13.768045900000061],[38.76439050000005,13.768265900000074],[38.761549400000035,13.769945501000052],[38.758831900000075,13.770345400000053],[38.75658780100008,13.77072540100005],[38.75463200100006,13.77076530100004],[38.753726200000074,13.770285501000046],[38.75304680100004,13.769345601000055],[38.75284090000008,13.768245900000068],[38.75292330000008,13.767266100000029],[38.75240860100007,13.766806201000065],[38.751585101000046,13.767046100000073],[38.75096750000006,13.767586000000051],[38.750514501000055,13.767706000000032],[38.750102800000036,13.767306100000042],[38.74847640000007,13.767026100000066],[38.74734410000008,13.766386200000056],[38.74563530100005,13.766406200000063],[38.74376180000007,13.76758600100004],[38.74219720100007,13.768225900000061],[38.74102370000003,13.768425801000035],[38.74034430100005,13.768065900000067],[38.740138401000024,13.76740600000005],[38.73943850100005,13.767346101000044],[38.73822380100006,13.766966100000047],[38.73338570000004,13.766986100000054],[38.73175930000008,13.766446201000065],[38.72963880100008,13.76478650100006],[38.72823880000004,13.764606601000025],[38.72646830000008,13.764986500000077],[38.725315401000046,13.765646400000037],[38.72453310000003,13.765446401000077],[38.72405960100008,13.764866501000029],[38.72426550000006,13.76346680100005],[38.72467720000003,13.76236700000004],[38.72263900100006,13.760287300000073],[38.721589100000074,13.760407301000043],[38.72053910000005,13.760547301000031],[38.71918030000006,13.759907400000031],[38.71862450000003,13.759287501000074],[38.71860390000006,13.757987700000058],[38.717821600000036,13.757307801000024],[38.718130400000064,13.756727901000033],[38.71681280100006,13.755768101000058],[38.71487759900003,13.755688100000043],[38.71228350000007,13.756488000000047],[38.71078060000008,13.756627901000059],[38.710587100000055,13.756295200000068],[38.71079810100008,13.75469540000006],[38.71048930100005,13.754170500000043],[38.71169880100007,13.75247070000006],[38.71092680000004,13.751345900000047],[38.70984590000006,13.750371001000076],[38.70974300000006,13.749796101000072],[38.70876510000005,13.748996201000068],[38.70848199900007,13.74847120100003],[38.70660340000006,13.74829630000005],[38.70565120100008,13.747771300000068],[38.70356670100006,13.747721300000023],[38.70387550000004,13.747021400000051],[38.701919700000076,13.746846400000038],[38.69926910000004,13.748121300000037],[38.697930900000074,13.74947110000005],[38.69602650000007,13.749296101000027],[38.69391630100006,13.750471000000061],[38.69363320000008,13.751395901000024],[38.691471601000046,13.751120900000046],[38.69090540000008,13.750171000000023],[38.69028780000008,13.74862120000006],[38.68753420000007,13.746996401000047],[38.68642760000006,13.746871400000032],[38.68544970100004,13.747196400000064],[38.68454900000006,13.747971301000064],[38.68223290000003,13.747996300000068],[38.68174400000004,13.747646300000042],[38.68102340100006,13.74752140000004],[38.67978810100004,13.748096300000043],[38.67878450100005,13.747871301000032],[38.67803820100005,13.747096401000022],[38.67801250100007,13.744821600000023],[38.677909500000055,13.743821800000035],[38.67587650000007,13.742521900000042],[38.673946400000034,13.742421900000068],[38.67348319900003,13.743321800000047],[38.673020000000065,13.744196700000032],[38.67217080100005,13.744396700000038],[38.67157890000004,13.744871601000057],[38.67021499900005,13.743846700000063],[38.668799601000046,13.742796800000065],[38.666534900000045,13.741546999000036],[38.66622610100006,13.74062200000003],[38.66566000000006,13.739547101000028],[38.664579100000026,13.739272200000073],[38.66393580000005,13.738822200000072],[38.662983600000075,13.739122201000043],[38.662211600000035,13.73887220100005],[38.66113070100005,13.738822200000072],[38.66017850000003,13.737422300000048],[38.66017850000003,13.736647300000072],[38.66053880000004,13.735622400000068],[38.660333001000026,13.734697501000028],[38.66015280000005,13.733447501000057],[38.660744700000066,13.732197600000063],[38.66154250000005,13.731372600000043],[38.66182550100007,13.730397700000026],[38.66149100100006,13.729172701000039],[38.66120790000008,13.728247800000076],[38.66115650000006,13.726297801000044],[38.66257180000008,13.724797801000022],[38.66244320000004,13.723697900000047],[38.66198000000003,13.722272900000064],[38.66159390000007,13.721472899000048],[38.65899480000007,13.718572900000026],[38.65721910000008,13.718072901000028],[38.654722900000024,13.716972800000065],[38.65400230000006,13.71604780000007],[38.65374500000007,13.714822800000036],[38.65407950100007,13.71344780000004],[38.65485150000006,13.712397700000054],[38.65477430000004,13.711522700000046],[38.655237500000055,13.710947701000066],[38.655211800000075,13.708522600000038],[38.65438830100004,13.708247501000073],[38.653281700000036,13.708122500000059],[38.65096560100005,13.705547400000057],[38.64918999900004,13.702872200000058],[38.64944730000008,13.702472199000056],[38.648984100000064,13.702072100000066],[38.64862380000005,13.702497201000028],[38.64790320100008,13.703447201000074],[38.64633340100005,13.704672301000073],[38.64571580000006,13.704597301000035],[38.644763700000055,13.703722301000028],[38.644326199000034,13.702472199000056],[38.64275640000005,13.701697100000047],[38.64164980100003,13.700472001000037],[38.640543200000025,13.699671900000055],[38.63851020000004,13.69629660000004],[38.63781540100007,13.696146601000066],[38.636451400000055,13.697121701000071],[38.63591099900003,13.69717170000007],[38.635730900000055,13.696796601000074],[38.635344900000064,13.696071600000039],[38.634804400000064,13.695421501000055],[38.63483020000007,13.694496401000038],[38.63552500000003,13.693821299000035],[38.63567940000007,13.693121200000064],[38.63519049900003,13.692921200000058],[38.63521620000006,13.691571101000022],[38.63524190000004,13.690195900000049],[38.63776389900005,13.688595700000064],[38.63851020000004,13.687070500000061],[38.63822710000005,13.685845301000029],[38.63737790000005,13.684920100000056],[38.63722350000006,13.684295001000066],[38.63549929900006,13.68432000100006],[38.63506180100006,13.683770000000038],[38.635036100000036,13.682369701000027],[38.63465000100007,13.681269500000042],[38.63248840000006,13.679544200000066],[38.632128100000045,13.678644101000032],[38.63202510100007,13.67666870000005],[38.63089280000003,13.675168401000064],[38.62986340000003,13.674843400000043],[38.627959100000055,13.674893401000077],[38.62713560100008,13.672342901000036],[38.625643000000025,13.672217801000045],[38.62520550000005,13.67161770100006],[38.62427910100007,13.671442701000046],[38.623790100000065,13.671917800000074],[38.62134540000005,13.67189280100007],[38.61998140000003,13.671267600000022],[38.61743370000005,13.671317700000031],[38.61437130000007,13.668567101000065],[38.613084600000036,13.667791900000054],[38.611489101000075,13.667791900000054],[38.61030530000005,13.668567101000065],[38.60971340000003,13.668067000000065],[38.609378900000024,13.667041700000027],[38.60742309900007,13.66596650100007],[38.605364300000076,13.664391101000035],[38.60484960000008,13.662740700000029],[38.604232000000025,13.662540600000057],[38.60351140000006,13.661790500000052],[38.60212180100007,13.66166540000006],[38.60057770000003,13.660190101000069],[38.599728500000026,13.65999000000005],[38.599033700000064,13.660640200000046],[38.59859620000003,13.660615201000041],[38.59782410100007,13.659614900000065],[38.59766970100003,13.659039800000073],[38.59725799900008,13.65831460100003],[38.597489600000074,13.656914201000063],[38.59700060000006,13.655763900000068],[38.59532790000003,13.655488800000057],[38.59440150100005,13.65488860000005],[38.594555900000046,13.654013401000043],[38.59439190000006,13.65269010000003]]},"properties":{"OBJECTID_12":2,"OBJECTID_1":2,"Id":0,"River_Name":" ","Type":"river","Flow":" ","Length":0,"OBJECTID":547,"osm_id":44091767,"name":" Werie","width":0,"Shape_Leng":102446.207366,"SPD_KM_HR":1,"SPD_KM_MIN":60,"TT_MIN_KM":600,"Shape_Le_1":102181.623098,"Shape_Length":0.9352817129510964},"id":2},
{"type":"Feature","geometry":{"type":"LineString","coordinates":[[39.072897900000044,14.20130320100003],[39.073069900000064,14.20111379900004],[39.07304640000007,14.200924400000076],[39.07314020000007,14.200462301000073],[39.07335900000004,14.200257800000031],[39.073523100000045,14.200250200000028],[39.07382790100007,14.200189600000044],[39.074288900000056,14.19988660000007],[39.074413900000025,14.199719900000048],[39.07443740000008,14.199401700000067],[39.07461710100006,14.198977500000069],[39.07483589900005,14.198879000000034],[39.075078200000064,14.198916900000029],[39.07539070000007,14.198841101000028],[39.07580490000004,14.198856300000045],[39.07623470000004,14.198803300000066],[39.076469100000054,14.198659300000031],[39.076602001000026,14.198447200000032],[39.076602001000026,14.198182100000054],[39.07653160000007,14.197719901000028],[39.07653160000007,14.197333601000025],[39.07679730000007,14.197121500000037],[39.07724280000008,14.19681840100003],[39.07752410000006,14.196500201000049],[39.07789920000005,14.196363900000051],[39.07818050000003,14.196242701000074],[39.07808670000003,14.196038101000056],[39.07810230000007,14.195636601000047],[39.078336799000056,14.195295701000077],[39.07836020000008,14.195038101000023],[39.07839930000006,14.194613900000036],[39.07850870000004,14.194348700000035],[39.07882130100006,14.194318401000032],[39.079016600000045,14.19431080000004],[39.07921979900004,14.194174500000031],[39.079337000000066,14.193848700000046],[39.079493300000024,14.193181999000046],[39.07968080000006,14.192909300000053],[39.07964180000005,14.192606300000023],[39.079508900000064,14.19221230100004],[39.07939170100008,14.192015401000049],[39.079321400000026,14.191674401000057],[39.07929790000003,14.191288100000065],[39.07938390100003,14.191038100000071],[39.07943080000007,14.190863800000045],[39.079423001000066,14.190666800000031],[39.079313600000035,14.19050020000003],[39.07911040000005,14.190379000000064],[39.07894630100003,14.190144100000055],[39.07891570000004,14.18994820100005],[39.07923620100007,14.18974460000004],[39.07952350000005,14.189808901000049],[39.079932400000075,14.189766000000077],[39.080098200000066,14.189401801000031],[39.08017549900006,14.189048201000048],[39.07999870000003,14.18865180000006],[39.079711400000065,14.188458900000057],[39.079589799000075,14.187923200000057],[39.07965609900003,14.187751801000047],[39.080171300000075,14.187376301000029],[39.08035230000007,14.186819700000058],[39.08098230000007,14.186283900000035],[39.08126960000004,14.185930401000064],[39.08160110000006,14.185459001000027],[39.08212050000003,14.185094701000025],[39.082816801000035,14.184687500000052],[39.08289410000003,14.184462501000041],[39.08297150000004,14.184001800000033],[39.08308200000005,14.183283900000049],[39.08365670000006,14.18226610000005],[39.08422030000003,14.181430401000057],[39.08458499900007,14.181216101000075],[39.08460710000003,14.181398200000046],[39.08479490000008,14.181580401000076],[39.085148600000025,14.181698200000028],[39.08538070000003,14.181623201000036],[39.08519280000007,14.181398200000046],[39.08510440100008,14.181044600000064],[39.085104400000034,14.180830300000025],[39.086983101000044,14.179244600000061],[39.087248300000056,14.179201701000068],[39.08740300000005,14.179298201000051],[39.08735880000006,14.179533900000024],[39.087469300000066,14.179833900000062],[39.087811901000066,14.179705300000023],[39.08801080000006,14.179458901000032],[39.088486000000046,14.178698200000042],[39.08918230100005,14.177948100000037],[39.089480700000024,14.177723099000048],[39.08943650000003,14.177380300000038],[39.089193300000034,14.177144501000043],[39.08900550000004,14.176898100000074],[39.08893920000003,14.176223100000072],[39.08914910000004,14.17591230100004],[39.08951380100007,14.17603020000007],[39.08981220000004,14.176008801000023],[39.090486300000066,14.175473001000057],[39.09079580000008,14.175012301000038],[39.090950500000076,14.174905200000069],[39.09108310000005,14.174937301000057],[39.091061000000025,14.175323000000049],[39.09133730000008,14.175955200000033],[39.09163570000004,14.176158800000053],[39.09232080100003,14.176298100000054],[39.092906500000026,14.176608801000043],[39.093282300000055,14.176694501000043],[39.09347020000007,14.176640900000052],[39.09360280000004,14.17620160000007],[39.09380170000003,14.17566590000007],[39.094033799000044,14.17526950000007],[39.09397850000005,14.175055200000031],[39.09371330100004,14.174990900000068],[39.093448101000035,14.17498020000005],[39.09331539900006,14.174594400000046],[39.09343700000005,14.174294401000054],[39.09529360000005,14.17209790000004],[39.096056101000045,14.171830000000057],[39.09658660000008,14.171422800000073],[39.09710600000005,14.17069420000007],[39.09730490100003,14.17001920100006],[39.097437600000035,14.169397701000037],[39.09728280000007,14.168883400000027],[39.09724969900003,14.168347600000061],[39.09758119900005,14.168219101000034],[39.098178000000075,14.168176200000062],[39.09856480000008,14.168358400000045],[39.098940500000026,14.168529800000044],[39.09932730000003,14.168669101000035],[39.09952620000007,14.168572701000073],[39.10012300000005,14.16758690100005],[39.100333000000035,14.166686801000026],[39.100465600000064,14.16584030000007],[39.10062030000006,14.165561700000069],[39.10131649900006,14.16543310000003],[39.10176960000007,14.165058101000056],[39.102266900000075,14.164436601000034],[39.10278630100004,14.163997301000052],[39.10328370000008,14.164125900000045],[39.10360410000004,14.164179400000023],[39.10410139900006,14.163933000000043],[39.10483080000006,14.16344010000006],[39.10455450000006,14.162700700000073],[39.10443300000003,14.162014900000031],[39.10444400000006,14.161597000000029],[39.10486400000008,14.161318400000027],[39.10548290000003,14.16125420000003],[39.10653270000006,14.160900501000071],[39.10699690000007,14.16053620100007],[39.10789200000005,14.160321901000032],[39.10891980000008,14.159604001000048],[39.109313900000075,14.15861590000003],[39.110204800000076,14.157812700000022],[39.11067360100003,14.157130701000028],[39.11122069900006,14.156736700000067],[39.111595700000066,14.156479101000059],[39.11178330000007,14.155979000000059],[39.11181449900005,14.155433500000072],[39.11223649900006,14.154736401000036],[39.112658500000066,14.154084701000045],[39.11293980000005,14.153796801000055],[39.11326900100005,14.153478800000073]]},"properties":{"OBJECTID_12":3,"OBJECTID_1":3,"Id":0,"River_Name":" ","Type":"river","Flow":" ","Length":0,"OBJECTID":1131,"osm_id":224212226,"name":"Werie","width":0,"Shape_Leng":8737.23493848,"SPD_KM_HR":1,"SPD_KM_MIN":60,"TT_MIN_KM":600,"Shape_Le_1":8761.0372786,"Shape_Length":0.08008274597713022},"id":3},
{"type":"Feature","geometry":{"type":"LineString","coordinates":[[39.291110600000025,13.984866601000022],[39.28885610000003,13.983965800000021],[39.28845830000006,13.982593101000077],[39.28806040000006,13.980963101000043],[39.28779520000006,13.979376000000059],[39.286690100000044,13.978732500000035],[39.28430300000008,13.978775401000064],[39.28173910000004,13.97783170100007],[39.27992670000003,13.97693090000007],[39.27948470000007,13.976115900000025],[39.280192000000056,13.975172200000031],[39.28147390000004,13.975558200000023],[39.28165070000006,13.974871901000029],[39.281208700000036,13.97384240100007],[39.28067820100006,13.97276990100005],[39.27979410000006,13.972469701000023],[39.27939629900004,13.973156000000074],[39.27974990100006,13.974185501000022],[39.27891000000005,13.97465740000007],[39.277760699000055,13.974871901000029],[39.277804900000035,13.974013900000045],[39.277849099000036,13.972641200000055],[39.27705340000006,13.971568801000046],[39.27594830000004,13.971483001000024],[39.27524100000005,13.970968300000038],[39.274754700000074,13.969552601000032],[39.274710500000026,13.967965400000026],[39.27435690000004,13.966163700000038],[39.273605400000065,13.965734700000041],[39.27250030000005,13.965734700000041],[39.27099730000003,13.966378200000065],[39.26971539900006,13.967107501000044],[39.26834500100006,13.967493600000068],[39.26741670100006,13.966850099000055],[39.26675370000004,13.965949200000068],[39.26533910000006,13.966163701000028],[39.26383610000005,13.966635600000075],[39.26255420000007,13.966206600000078],[39.263438301000065,13.964705200000026],[39.26255420000007,13.96354690000004],[39.26197950000005,13.96191680100003],[39.261051200000054,13.961359101000028],[39.260034500000074,13.961788100000035],[39.25817790000008,13.961359100000038],[39.25751480100007,13.960586900000067],[39.25760320000006,13.959085400000049],[39.25720540100008,13.958055801000057],[39.25627710100008,13.95762680100006],[39.255746600000066,13.958441899000036],[39.255525600000055,13.959814700000038],[39.25406680000003,13.959814700000038],[39.254332100000056,13.958828001000029],[39.25406680000003,13.956640100000072],[39.25459730000006,13.955567601000041],[39.254508900000076,13.954666700000075],[39.25402260000004,13.954452200000048],[39.25322690100006,13.955138601000044],[39.251724000000024,13.954795400000023],[39.249955800000066,13.955181501000027],[39.24898330000008,13.954623800000036],[39.24818760000005,13.952221400000042],[39.24805500000008,13.951148900000021],[39.24889490000004,13.949818900000025],[39.24938110000005,13.94745940000007],[39.24836440000007,13.946644200000037],[39.246331000000055,13.94621520100003],[39.24496060000007,13.94527140100007],[39.24509320000004,13.944456200000047],[39.24606570000003,13.943512401000078],[39.246817201000056,13.942697200000055],[39.24664040000005,13.94205370000003],[39.24699400000003,13.940981100000045],[39.24708250100008,13.93917920000007],[39.246286800000064,13.938707200000067],[39.24553530000003,13.939093400000047],[39.24394390100008,13.938878900000077],[39.24275040100008,13.93776340100004],[39.24160100100005,13.937720500000069],[39.24054010000003,13.937506000000042],[39.24062850100006,13.936347601000023],[39.241822100000036,13.935575301000029],[39.24164520000005,13.934631400000058],[39.24005390000008,13.934159501000067],[39.23903720000004,13.93321559900005],[39.23899290000003,13.932185900000036],[39.238418300000035,13.931413601000031],[39.23709210000004,13.93145650100007],[39.23572180000008,13.931027400000062],[39.23514710000006,13.92982610100006],[39.23311370000005,13.929654501000073],[39.23196440000004,13.929354100000069],[39.231875899000045,13.92845310000007],[39.23200860000003,13.927595001000043],[39.23152230100004,13.925964600000043],[39.23262740000007,13.924849100000074],[39.232892700000036,13.923390300000051],[39.23231800000008,13.922618000000057],[39.229930900000056,13.922532100000069],[39.22696920100003,13.922403400000064],[39.22608510100008,13.921287900000038],[39.226085100000034,13.919914801000061],[39.225068400000055,13.91935710100006],[39.22400750000003,13.91892800100004],[39.22436110000007,13.917941100000064],[39.223963301000026,13.917211700000053],[39.22259290000005,13.917083000000048],[39.22259290000005,13.915709900000024],[39.221753001000025,13.914894701000037],[39.220736300000056,13.914251101000048],[39.22020580100008,13.913779101000046],[39.22144360100003,13.913092600000027],[39.22232770000005,13.912577701000032],[39.22228349900007,13.911590800000056],[39.22276970000007,13.910646800000052],[39.22263710000004,13.909788599000024],[39.22157620000007,13.909874401000025],[39.22016160000004,13.909788599000024],[39.21848190000003,13.909402401000023],[39.217420901000025,13.908801701000073],[39.21521070000006,13.908458500000052],[39.21357510000007,13.908630101000028],[39.212027900000066,13.909402401000023],[39.21123220000004,13.909187900000063],[39.21101120000003,13.908029400000032],[39.211806901000045,13.906613401000072],[39.21189530100003,13.90596970100006],[39.21008290000003,13.905669400000022],[39.20875110000003,13.905282400000033],[39.20806350100003,13.904918300000077],[39.205562900000075,13.903826000000038],[39.20324980000004,13.902915801000063],[39.20168689900004,13.901823500000035],[39.19849870100006,13.902491000000055],[39.19737340000006,13.90127730100005],[39.19806100100004,13.899214001000075],[39.19787350000007,13.897514899000043],[39.19656070100007,13.89721140100005],[39.19499780000007,13.897393501000067],[39.194497700000056,13.896301101000063],[39.193872499000065,13.893691700000034],[39.19299730000006,13.892902700000036],[39.19105930000006,13.893691701000023],[39.190121600000055,13.893873701000075],[39.18787110000005,13.891749700000048],[39.187370901000065,13.89005050000003],[39.18680830100004,13.889443601000039],[39.18580810000003,13.890171801000065],[39.186558200000036,13.891810401000043],[39.18574549900006,13.893752300000074],[39.18380760000008,13.893813000000023],[39.18161950000007,13.893327500000055],[39.17974410000005,13.891264200000023],[39.17849380000007,13.890353901000026],[39.176868400000046,13.889807701000052],[39.17693090100005,13.889079500000037],[39.17605570000006,13.88780500100006],[39.17461780000008,13.888229800000033],[39.17361760000006,13.888169100000027],[39.172054701000036,13.887016101000029],[39.17099189900006,13.88665190100005],[39.169804200000044,13.887623000000076],[39.16880390100005,13.887865701000067],[39.168553899000074,13.886833999000032],[39.16761610000003,13.885195400000043],[39.16630330000004,13.884709901000065],[39.16492800100008,13.886105800000053],[39.16417780100005,13.88725880000004],[39.16317749900003,13.886833999000032],[39.162802501000044,13.885377500000061],[39.16192720000004,13.883496101000048],[39.16086450100005,13.882828600000039],[39.15986420100006,13.883496101000048],[39.15986420000007,13.88464920000007],[39.15992680000005,13.886530600000071],[39.15930159900006,13.887501600000064],[39.157863699000075,13.88701610000004],[39.15623840000006,13.885438200000067],[39.155363100000045,13.883556800000065],[39.155175600000064,13.882100301000037],[39.15386280000007,13.882161000000053],[39.153300100000024,13.883435500000076],[39.15204980000004,13.884042299000043],[39.15023690100003,13.88422440000005],[39.14917410000004,13.882828600000039],[39.14842390100006,13.88119000100005],[39.147673800000064,13.879854801000022],[39.14623590000008,13.87943000100006],[39.14348520000004,13.879187201000036],[39.14279760100004,13.877791301000059],[39.14260999900006,13.87572780000005],[39.14223490000006,13.875060200000064],[39.141172201000074,13.87572779900006],[39.140046899000026,13.876395400000035],[39.139296699000056,13.876274100000046],[39.13810890100007,13.874938900000075],[39.137108700000056,13.874514000000033],[39.13573340000005,13.875181600000076],[39.13417050000004,13.875303001000077],[39.13260760000003,13.874635401000035],[39.13260760000003,13.873421600000029],[39.13342030000007,13.872025701000041],[39.133357800000056,13.870872500000075],[39.132732600000054,13.870022801000061],[39.12891920000004,13.86990139900007],[39.12723130000006,13.870083501000067],[39.126793699000075,13.86947660100003],[39.12685620000008,13.868566200000032],[39.12785640000004,13.867898601000036],[39.128044000000045,13.867109600000049],[39.12735630000003,13.866381201000024],[39.12660610100005,13.866927500000031],[39.12523080100004,13.866866801000072],[39.12385550100004,13.866988200000037],[39.12210500000003,13.866624002000037],[39.120104500000025,13.865531500000031],[39.11810410000004,13.864863901000035],[39.11597850100003,13.863225200000045],[39.114165600000035,13.863103800000033],[39.11166500000007,13.862739600000054],[39.110164600000076,13.861282900000049],[39.10866430100003,13.861586400000022],[39.10703890100007,13.860979500000042],[39.10572599900007,13.859947700000077],[39.10103740100004,13.859097900000052],[39.099412001000076,13.858308900000054],[39.09847430000008,13.856609400000025],[39.09753650000005,13.85339250100003],[39.096411301000046,13.853513901000042],[39.09478590000003,13.854120901000044],[39.093285500000036,13.85339250000004],[39.09184769900003,13.853574601000048],[39.089847200000065,13.852785500000039],[39.08838620000006,13.85166060000006],[39.08777670000006,13.850613601000077],[39.086510700000076,13.849384501000031],[39.08182210000007,13.846152300000028],[39.08110319900004,13.846046100000024],[39.080603100000076,13.846334401000036],[39.08049370100008,13.84738150000004],[39.08016550100007,13.848094700000047],[39.07958719900006,13.848185701000034],[39.07883699900003,13.847851900000023],[39.07844630000005,13.846911001000024],[39.07802430000004,13.84657720000007],[39.07736790000007,13.846698601000071],[39.07650830000006,13.84754840100004],[39.07549240000003,13.84807950100003],[39.07482040000008,13.848216101000048],[39.07403900000003,13.847851900000023],[39.07197600000006,13.846304101000044],[39.07092879900006,13.846258500000033],[39.069412800000066,13.84636480100005],[39.06878770000003,13.846607501000051],[39.068193800000074,13.846258501000023],[39.067724901000076,13.845348001000048],[39.06741230100005,13.845120401000031],[39.066943501000026,13.844999001000076],[39.06655280000007,13.845317701000056],[39.06634960000008,13.845803300000057],[39.06597450000004,13.846228200000041],[39.06481800000006,13.846774501000027],[39.06433350000003,13.846562000000063],[39.06403650000004,13.845681900000045],[39.06375520100005,13.84509010000005],[39.06298940000005,13.845120400000042],[39.060910800000045,13.84525700000006],[39.06031690100008,13.845181101000037],[39.060160600000074,13.84451340000004],[39.05986360000003,13.843860901000028],[39.059222799000054,13.84349670100005],[39.058644601000026,13.843678800000077],[39.058128801000066,13.844225100000074],[39.05769120100007,13.844437601000038],[39.05715980100007,13.844058201000053],[39.05673790000003,13.843906401000027],[39.05598770000006,13.844179601000064],[39.05437790000008,13.845514999000045],[39.053112000000056,13.846015700000066],[39.05229930000007,13.84622820100003],[39.051861700000075,13.84595500000006],[39.051861700000075,13.845393600000023],[39.05161160000006,13.844847300000026],[39.05097080000007,13.844574101000035],[39.04997060000005,13.844741101000068],[39.048517100000026,13.845439100000021],[39.047563800000034,13.846713800000032],[39.04593840100006,13.847427001000028],[39.04514130100006,13.847442200000046],[39.04421920000004,13.847730500000068],[39.04312520000008,13.848216101000048],[39.04240530100003,13.84934140100006]]},"properties":{"OBJECTID_12":4,"OBJECTID_1":4,"Id":0,"River_Name":" ","Type":"river","Flow":" ","Length":0,"OBJECTID":1132,"osm_id":224212227,"name":" Werie","width":0,"Shape_Leng":44744.2025622,"SPD_KM_HR":1,"SPD_KM_MIN":60,"TT_MIN_KM":600,"Shape_Le_1":44499.6075292,"Shape_Length":0.4078618139218744},"id":4},
{"type":"Feature","geometry":{"type":"LineString","coordinates":[[39.12325480000004,14.173208701000021],[39.12270780000006,14.172708700000044],[39.12231710100008,14.17222380100003],[39.122145200000034,14.171920701000033],[39.12209830000006,14.17143580000004],[39.12191080000008,14.171026700000027],[39.121613800000034,14.170602400000064],[39.12105120000007,14.170511500000032],[39.120332200000064,14.170526600000073],[39.11928510000007,14.171057000000076],[39.11873810000003,14.171011500000077],[39.118628700000045,14.170526600000073],[39.11864430000003,14.169799301000069],[39.11834740100005,14.169662899000059],[39.117972300000076,14.169678001000023],[39.11739400100004,14.16998109900004],[39.11684700100005,14.16969320000004],[39.11615940000007,14.168996100000072],[39.11600310000006,14.168571800000052],[39.11606560000007,14.168223301000069],[39.11661260000005,14.167692900000077],[39.11675320000006,14.167374700000039],[39.11659700000007,14.167056501000047],[39.11606560000007,14.166708000000028],[39.115409200000045,14.166495801000053],[39.11465899900003,14.166450401000077],[39.11447140000007,14.166177600000026],[39.11451830000004,14.165813901000035],[39.114752800000076,14.165329001000032],[39.11534669900004,14.164076401000045],[39.11543510000007,14.163712101000044],[39.115368800000056,14.163455001000045],[39.11513670100004,14.163262101000043],[39.114639400000044,14.163133500000072],[39.114175200000034,14.162919201000022],[39.11391000100008,14.162512001000039],[39.11373320100006,14.161954800000046],[39.113766300000066,14.161311901000033],[39.11403160000003,14.160947600000043],[39.11440730100003,14.160711800000058],[39.11476090000008,14.160722500000077],[39.11513670100004,14.16073330000006],[39.11528030000005,14.160626101000048],[39.11529140000005,14.160347500000057],[39.11522510000003,14.159940301000063],[39.11493780100005,14.15946880100006],[39.114827200000036,14.159029501000077],[39.114639400000044,14.158911600000067],[39.114418400000034,14.15895450100004],[39.11432990000003,14.158772300000066],[39.11440730100003,14.158461600000066],[39.114462600000024,14.157979400000045],[39.11461730000008,14.157732900000042],[39.11488250000008,14.157100700000058],[39.114827200000036,14.15622200000007],[39.11458410000006,14.155836201000056],[39.11424150100004,14.155589801000076],[39.113887900000066,14.154957601000035],[39.11374420100003,14.15441110100005],[39.11326900100005,14.153478800000073],[39.11321880000003,14.152749200000073],[39.11349510000008,14.15227770000007],[39.11485440000007,14.151098900000022],[39.11540700000006,14.15086320100005],[39.11565010000004,14.150638099000048],[39.11583800000005,14.150327401000027],[39.115937400000064,14.149684401000059],[39.11548430100004,14.148173500000041],[39.115340600000025,14.147648400000037],[39.11552850100003,14.14713400100004],[39.11573850000008,14.14705900100006],[39.11590430000007,14.147091100000068],[39.11604790000007,14.147176901000023],[39.116313200000036,14.14708040000005],[39.11642370000004,14.146866101000057],[39.116711000000066,14.14594450100003],[39.11694310000007,14.145515901000067],[39.11769460000005,14.145012201000043],[39.118191900000056,14.144937200000072],[39.11872230000006,14.145087200000034],[39.11962850000003,14.14566590100003],[39.12021420000008,14.14595520100005],[39.120700499000066,14.145976700000062],[39.12110940000008,14.145976700000062],[39.12133040000003,14.146019501000069],[39.12168410000004,14.146308901000054],[39.12200450100005,14.146512500000028],[39.12249080000004,14.146673201000056],[39.12271180100004,14.146683901000074],[39.12294390000005,14.146362500000066],[39.123032300000034,14.146158800000023],[39.12285550000007,14.145430201000067],[39.122612401000026,14.145012201000043],[39.12249080000004,14.14454070000005],[39.122524000000055,14.144037001000072],[39.12283340000005,14.143265500000041],[39.12298810000004,14.142911800000036],[39.12322020000005,14.142858301000047],[39.123452300000054,14.142997601000047],[39.12390540000007,14.142933301000028],[39.124690000000044,14.14220460100006],[39.12498490000007,14.141971100000035],[39.12530890000005,14.141636600000027],[39.125596200000075,14.141336500000023],[39.12562930000007,14.141036499000052],[39.12543040000003,14.140715000000057],[39.12498840000006,14.140254201000062],[39.12449110000006,14.13997560100006],[39.12408219900004,14.139675499000077],[39.123673300000064,14.139461201000074],[39.12357380100008,14.139257600000064],[39.12366220000007,14.139000401000033],[39.124104301000045,14.138925400000062],[39.12472310000004,14.138657401000046],[39.12526470100005,14.138014500000054],[39.12535310000004,14.136985701000071],[39.12530890000005,14.136203400000056],[39.125132001000054,14.135817600000053],[39.125043600000026,14.135324601000036],[39.125209400000074,14.134563700000058],[39.125463600000046,14.134231500000055],[39.12581720000003,14.13379210100004],[39.12600510100003,14.133138400000064],[39.12593880000003,14.13268830000004],[39.125905601000056,14.132302501000026],[39.12562930000007,14.132013101000041],[39.12523150100003,14.131723801000021],[39.124446900000066,14.131155800000045],[39.12419270000004,14.130705700000021],[39.12378380000007,14.130587801000047],[39.12335280000008,14.13069500000006],[39.12281130100007,14.130662801000028],[39.12242450000008,14.130448500000057],[39.12225870000003,14.12988050000007],[39.122280800000055,14.129430399000057],[39.122523999000066,14.12911960100007],[39.12302130000006,14.128755201000047],[39.123761700000045,14.128390800000034],[39.124104301000045,14.12792999900006],[39.12408220000003,14.127565600000025],[39.12399380000005,14.127147700000023],[39.12369540000003,14.126794001000064],[39.12331959900007,14.126644000000056],[39.12253499900004,14.126451102000033],[39.122092999000074,14.126258201000041],[39.121750399000064,14.125990200000047],[39.121551400000044,14.125690201000054],[39.12136360000005,14.125368600000058],[39.12135250100005,14.125111400000037],[39.12163990000005,14.124972100000036],[39.12191610000008,14.124972100000036],[39.12259030000007,14.12542220000006],[39.12293280100005,14.125647300000026],[39.12340810000006,14.125765201000036],[39.12366220000007,14.125754500000028],[39.12386120100007,14.125540100000023],[39.124270000000024,14.125090000000057],[39.12436950000006,14.125004300000057],[39.12497730100006,14.124929200000054],[39.12548569900008,14.124768501000062],[39.12579510000006,14.124607701000059],[39.12594980000006,14.124286201000075],[39.12596090000005,14.123825401000033],[39.12594980000006,14.123085901000024],[39.12601610000007,14.122625001000074],[39.12630350000006,14.122271400000045],[39.12685600000003,14.121810500000038],[39.12720970000004,14.121521200000075],[39.127946000000065,14.12057290100006],[39.12813390000008,14.11971550000004],[39.12800130000005,14.119254601000023],[39.127769199000056,14.11893310000005],[39.127647600000046,14.118107900000041],[39.127603400000055,14.117507700000033],[39.12783550100005,14.117175401000054],[39.128111800000056,14.116318000000035],[39.12818910000004,14.115792901000077],[39.127769199000056,14.11439960000007],[39.12763660100006,14.113799401000051],[39.12765870000004,14.113263501000063],[39.12771390000006,14.11279200100006],[39.12810070000006,14.112213201000031],[39.12902900000006,14.110980700000027],[39.12972520100004,14.10983390000007],[39.12978050000004,14.109448000000043],[39.12971420100007,14.108922801000062],[39.12951530000004,14.10847270000005],[39.12940270100006,14.108036800000036],[39.129418300000054,14.107741300000043],[39.13003559900005,14.107081900000026],[39.130629500000055,14.106551401000047],[39.13095770000007,14.106111800000065],[39.13133780000004,14.105756900000074],[39.131512600000065,14.10550550000005],[39.13184860100006,14.10503570000003],[39.13203609900006,14.104611200000022],[39.132012700000075,14.104095899000072],[39.131879801000025,14.103421400000059],[39.13183300000003,14.102974201000052],[39.13187200100003,14.102292100000057],[39.131676699000025,14.102049601000033],[39.130746800000054,14.101511500000072],[39.130247100000076,14.100994700000058],[39.13009240000008,14.100566000000072],[39.130313400000034,14.10024450000003],[39.13093230000004,14.10033020000003],[39.131683800000076,14.10039450000005],[39.132192100000054,14.099730001000069],[39.13234680000005,14.098358001000065],[39.13212580000004,14.097286200000042],[39.13150690000003,14.096686001000023],[39.13106490000007,14.096343000000047],[39.13110910100005,14.095807001000026],[39.13159530000007,14.095592701000044],[39.13201410000005,14.094407300000057],[39.13214670000008,14.093485501000032],[39.132434000000046,14.09273520000005],[39.13241190100007,14.091877800000077],[39.132345601000054,14.091084600000045],[39.13219090000007,14.090634401000045],[39.131837301000076,14.090184199000078],[39.131107901000064,14.090119901000037],[39.130555300000026,14.090248501000076],[39.13004700000005,14.090055600000028],[39.129870201000074,14.089819800000043],[39.12989230100004,14.089348101000041],[39.13035640000004,14.089112301000057],[39.131483600000024,14.089026601000057],[39.132124601000044,14.089069400000028],[39.13276560000003,14.088983700000028],[39.132854000000066,14.08876930100007],[39.13265510100007,14.088276300000075],[39.132301400000074,14.087868901000036],[39.131992000000025,14.085961000000054],[39.13210250000003,14.085639401000037],[39.13265510100007,14.084867600000052],[39.13283190000004,14.084438900000066],[39.13278770000005,14.083517001000075],[39.132854000000066,14.082745300000056],[39.13349500000004,14.082187901000054],[39.134091700000056,14.081308900000067],[39.13418010000004,14.08092300100003],[39.13402540000004,14.080644301000063],[39.13347290000007,14.080622900000037],[39.13261090100008,14.080601400000035],[39.132124600000054,14.080129800000066],[39.131616300000076,14.079872501000068],[39.13152780000007,14.07929370000005],[39.13154990000004,14.078457601000025],[39.131837301000076,14.07768580100003],[39.13154990000004,14.076592401000028],[39.13174890000005,14.075970701000074],[39.13179309900005,14.074984500000028],[39.13205830100003,14.07414840000007],[39.132389800000055,14.071297000000072],[39.13362760100006,14.068552700000055],[39.13504209900003,14.065143801000033],[39.135970400000076,14.063021301000049],[39.13639040100003,14.062120801000049],[39.13703140000007,14.06072720000003],[39.13782700000007,14.059912500000053],[39.137451301000056,14.059204900000054],[39.13674400000008,14.058883301000037],[39.13608100000005,14.058497401000068],[39.13513050100005,14.058583101000067],[39.13462220000008,14.058454500000039],[39.13402540000004,14.058218701000044],[39.134003300000074,14.057768400000043],[39.13473270000003,14.057403901000043],[39.136589300000026,14.05688930100007],[39.13707560000006,14.056482000000074],[39.13716400000004,14.055988800000023],[39.136810300000036,14.055431401000021],[39.13610310000007,14.055109800000025],[39.13599250000004,14.054037701000027],[39.13555050000008,14.052558300000044],[39.13482110100006,14.051786400000026],[39.13345079900006,14.049963900000023],[39.132677200000046,14.048784601000023],[39.132588800000065,14.048012800000038],[39.13283190000004,14.047626801000035],[39.13329600000003,14.04694070100004],[39.13327390100005,14.046640500000024],[39.132854000000066,14.046340301000043],[39.132124601000044,14.046211701000061],[39.13113000000004,14.045954401000074],[39.13044480000008,14.04574000100007],[39.13033430100006,14.045203900000047],[39.13057740100004,14.044560701000023],[39.13053320100005,14.043810200000053],[39.129406000000074,14.041473001000043],[39.12856610000006,14.040186500000061],[39.128256699000076,14.038792800000067],[39.12889760000007,14.037570500000072],[39.129184999000074,14.036948700000039],[39.12914079900003,14.035983800000054],[39.12876500100003,14.035640700000044],[39.12754940000008,14.035211900000036],[39.12668740000004,14.034868801000073],[39.12666530000007,14.033925300000021],[39.127394700000025,14.033110501000067],[39.12768199900006,14.03236000000004],[39.12754940000008,14.031159200000047],[39.128079900000046,14.030451500000026],[39.12816830000003,14.029615301000035],[39.12810200100006,14.028929100000028],[39.127615701000025,14.028543101000025],[39.12642219900005,14.028628901000047],[39.12602430100003,14.028500200000053],[39.125736999000026,14.027814000000035],[39.12567070000006,14.027170700000056],[39.12611270000008,14.026956301000041],[39.125538101000075,14.026398800000038],[39.12447720000006,14.026141401000075],[39.12357100000003,14.025991300000044],[39.12242160000005,14.025734001000046],[39.12226940000005,14.023699201000056],[39.121519299000056,14.022698501000036],[39.12083160000003,14.021758401000056],[39.120237701000065,14.020787900000073],[39.11955000000006,14.020090400000072],[39.11883110000008,14.02033300100004],[39.11770580000007,14.019453600000077],[39.11686190000006,14.018058500000052],[39.116486800000075,14.017118400000072],[39.11664310000003,14.016572500000052],[39.11717450000003,14.016451201000052],[39.11770580000007,14.017057800000032],[39.11798720000007,14.017543000000046],[39.11842480100006,14.017755301000022],[39.11870610100004,14.016997100000026],[39.11864360100003,14.015541400000075],[39.11854980000004,14.014783201000057],[39.119174900000075,14.014692301000025],[39.119831400000066,14.01438900100004],[39.11930000000007,14.01253900000006],[39.11933120100008,14.011568500000067],[39.12001890000005,14.010840701000063],[39.12058150000007,14.01105300100005],[39.12136300000003,14.01062840000003],[39.12123790100003,14.008960301000059],[39.12083160000003,14.007413600000064],[39.120456500000046,14.006837400000052],[39.120737801000075,14.005563600000073],[39.12092540000003,14.004653701000052],[39.120956600000056,14.003804500000058],[39.12051900000006,14.003107001000046],[39.119925100000046,14.00289470000007],[39.119206200000065,14.00277340100007],[39.11848730000003,14.002015100000051],[39.11842480000007,14.001469200000031],[39.11861230000005,14.000741301000062],[39.11927530000003,13.999438500000053]]},"properties":{"OBJECTID_12":5,"OBJECTID_1":5,"Id":0,"River_Name":" ","Type":"river","Flow":" ","Length":0,"OBJECTID":1133,"osm_id":224212229,"name":" Werie","width":0,"Shape_Leng":27364.3717762,"SPD_KM_HR":1,"SPD_KM_MIN":60,"TT_MIN_KM":600,"Shape_Le_1":27563.2511658,"Shape_Length":0.2514547823290343},"id":5}
]}
