{"type":"FeatureCollection","crs":{"type":"name","properties":{"name":"EPSG:32637"}},"features":[{"type":"Feature","id":0,"geometry":{"type":"Point","coordinates":[470087,1563340,2208,null]},"properties":{"FID":0,"OBJECTID_1":1,"OBJECTID":1,"SN":1,"Name":"Me'eraf","X_Easting":470087,"Y_Northing":1563340,"Z":2208,"Woreda_Nam":"Aksum","Distance_A":0,"Attra_Type":" ","NEAR_FID":12,"NEAR_DIST":2017.59498334,"Nomber":0,"Site_name":" ","Type":" ","X":0,"Y":0,"Altitude":0,"Descriptio":" ","Local_Name":" ","Location_W":" ","Settl_Type":" ","RoadRef_Pn":" ","Asphalt":0,"Gravel":0,"Foot_path":0,"Total_km":0,"direction":" ","Remarks":" "}},{"type":"Feature","id":1,"geometry":{"type":"Point","coordinates":[478151,1554890,2084,null]},"properties":{"FID":1,"OBJECTID_1":2,"OBJECTID":2,"SN":2,"Name":"Melazo","X_Easting":478151,"Y_Northing":1554890,"Z":2084,"Woreda_Nam":"Laelay Machew","Distance_A":0,"Attra_Type":"Archeological (Temple)","NEAR_FID":0,"NEAR_DIST":645.32624596000005,"Nomber":0,"Site_name":" ","Type":" ","X":0,"Y":0,"Altitude":0,"Descriptio":" ","Local_Name":" ","Location_W":" ","Settl_Type":" ","RoadRef_Pn":" ","Asphalt":0,"Gravel":0,"Foot_path":0,"Total_km":0,"direction":" ","Remarks":" "}},{"type":"Feature","id":2,"geometry":{"type":"Point","coordinates":[468835,1561591,2151,null]},"properties":{"FID":2,"OBJECTID_1":3,"OBJECTID":3,"SN":72,"Name":"Axum Town-old","X_Easting":468835,"Y_Northing":1561591,"Z":2151,"Woreda_Nam":"Aksum Adikilte","Distance_A":0,"Attra_Type":"Archeological (Old town)","NEAR_FID":10,"NEAR_DIST":245.834110802,"Nomber":0,"Site_name":" ","Type":" ","X":0,"Y":0,"Altitude":0,"Descriptio":" ","Local_Name":" ","Location_W":" ","Settl_Type":" ","RoadRef_Pn":" ","Asphalt":0,"Gravel":0,"Foot_path":0,"Total_km":0,"direction":" ","Remarks":" "}},{"type":"Feature","id":3,"geometry":{"type":"Point","coordinates":[470803,1564092,2184,null]},"properties":{"FID":3,"OBJECTID_1":4,"OBJECTID":4,"SN":73,"Name":"Berik Awdi","X_Easting":470803,"Y_Northing":1564092,"Z":2184,"Woreda_Nam":" ","Distance_A":0,"Attra_Type":" ","NEAR_FID":12,"NEAR_DIST":2783.1247074600001,"Nomber":0,"Site_name":" ","Type":" ","X":0,"Y":0,"Altitude":0,"Descriptio":" ","Local_Name":" ","Location_W":" ","Settl_Type":" ","RoadRef_Pn":" ","Asphalt":0,"Gravel":0,"Foot_path":0,"Total_km":0,"direction":" ","Remarks":" "}},{"type":"Feature","id":4,"geometry":{"type":"Point","coordinates":[472039,1560528,2116,null]},"properties":{"FID":4,"OBJECTID_1":5,"OBJECTID":5,"SN":74,"Name":"Hamed Gebez","X_Easting":472039,"Y_Northing":1560528,"Z":2116,"Woreda_Nam":"Aksum","Distance_A":0,"Attra_Type":"Archeological","NEAR_FID":12,"NEAR_DIST":771.38589408999997,"Nomber":0,"Site_name":" ","Type":" ","X":0,"Y":0,"Altitude":0,"Descriptio":" ","Local_Name":" ","Location_W":" ","Settl_Type":" ","RoadRef_Pn":" ","Asphalt":0,"Gravel":0,"Foot_path":0,"Total_km":0,"direction":" ","Remarks":" "}},{"type":"Feature","id":5,"geometry":{"type":"Point","coordinates":[466778,1566167,2134,null]},"properties":{"FID":5,"OBJECTID_1":6,"OBJECTID":6,"SN":75,"Name":"Adi Tsehafi arbaetu ensisa","X_Easting":466778,"Y_Northing":1566167,"Z":2134,"Woreda_Nam":"Aksum","Distance_A":0,"Attra_Type":"Open field","NEAR_FID":10,"NEAR_DIST":4843.4447025199997,"Nomber":0,"Site_name":" ","Type":" ","X":0,"Y":0,"Altitude":0,"Descriptio":" ","Local_Name":" ","Location_W":" ","Settl_Type":" ","RoadRef_Pn":" ","Asphalt":0,"Gravel":0,"Foot_path":0,"Total_km":0,"direction":" ","Remarks":" "}},{"type":"Feature","id":6,"geometry":{"type":"Point","coordinates":[480943,1505900,2000,null]},"properties":{"FID":6,"OBJECTID_1":7,"OBJECTID":8,"SN":90,"Name":"Mariam Tamba","X_Easting":480943,"Y_Northing":1505900,"Z":2000,"Woreda_Nam":" ","Distance_A":0,"Attra_Type":" ","NEAR_FID":11,"NEAR_DIST":15475.913970600001,"Nomber":0,"Site_name":" ","Type":" ","X":0,"Y":0,"Altitude":0,"Descriptio":" ","Local_Name":" ","Location_W":" ","Settl_Type":" ","RoadRef_Pn":" ","Asphalt":0,"Gravel":0,"Foot_path":0,"Total_km":0,"direction":" ","Remarks":" "}},{"type":"Feature","id":7,"geometry":{"type":"Point","coordinates":[469582,1561875,2152,null]},"properties":{"FID":7,"OBJECTID_1":8,"OBJECTID":9,"SN":105,"Name":"Axum Tsion Mariam","X_Easting":469582,"Y_Northing":1561875,"Z":2152,"Woreda_Nam":" ","Distance_A":0,"Attra_Type":" ","NEAR_FID":12,"NEAR_DIST":480.02083288099999,"Nomber":0,"Site_name":" ","Type":" ","X":0,"Y":0,"Altitude":0,"Descriptio":" ","Local_Name":" ","Location_W":" ","Settl_Type":" ","RoadRef_Pn":" ","Asphalt":0,"Gravel":0,"Foot_path":0,"Total_km":0,"direction":" ","Remarks":" "}},{"type":"Feature","id":8,"geometry":{"type":"Point","coordinates":[489060,1565788,1880,null]},"properties":{"FID":8,"OBJECTID_1":9,"OBJECTID":10,"SN":106,"Name":"Medhane Alem Adwa","X_Easting":489060,"Y_Northing":1565788,"Z":1880,"Woreda_Nam":"Adwa","Distance_A":0,"Attra_Type":"Church","NEAR_FID":12,"NEAR_DIST":13.504765373,"Nomber":0,"Site_name":" ","Type":" ","X":0,"Y":0,"Altitude":0,"Descriptio":" ","Local_Name":" ","Location_W":" ","Settl_Type":" ","RoadRef_Pn":" ","Asphalt":0,"Gravel":0,"Foot_path":0,"Total_km":0,"direction":" ","Remarks":" "}},{"type":"Feature","id":9,"geometry":{"type":"Point","coordinates":[496238,1560277,2050,null]},"properties":{"FID":9,"OBJECTID_1":10,"OBJECTID":12,"SN":108,"Name":"Akbetsa Teklehaimanot","X_Easting":496238,"Y_Northing":1560277,"Z":2050,"Woreda_Nam":"Rural Adwa","Distance_A":0,"Attra_Type":"Church","NEAR_FID":11,"NEAR_DIST":438.64157862799999,"Nomber":0,"Site_name":" ","Type":" ","X":0,"Y":0,"Altitude":0,"Descriptio":" ","Local_Name":" ","Location_W":" ","Settl_Type":" ","RoadRef_Pn":" ","Asphalt":0,"Gravel":0,"Foot_path":0,"Total_km":0,"direction":" ","Remarks":" "}},{"type":"Feature","id":10,"geometry":{"type":"Point","coordinates":[490017,1565112,1890,null]},"properties":{"FID":10,"OBJECTID_1":11,"OBJECTID":15,"SN":112,"Name":"Debreberhan Selassie","X_Easting":490017,"Y_Northing":1565112,"Z":1890,"Woreda_Nam":"Adwa","Distance_A":0,"Attra_Type":"Church","NEAR_FID":11,"NEAR_DIST":147.53458970099999,"Nomber":0,"Site_name":" ","Type":" ","X":0,"Y":0,"Altitude":0,"Descriptio":" ","Local_Name":" ","Location_W":" ","Settl_Type":" ","RoadRef_Pn":" ","Asphalt":0,"Gravel":0,"Foot_path":0,"Total_km":0,"direction":" ","Remarks":" "}},{"type":"Feature","id":11,"geometry":{"type":"Point","coordinates":[502050,1579398,2150,null]},"properties":{"FID":11,"OBJECTID_1":12,"OBJECTID":16,"SN":113,"Name":"Abune Aftse","X_Easting":502050,"Y_Northing":1579398,"Z":2150,"Woreda_Nam":" Ahsea","Distance_A":0,"Attra_Type":"Monastry","NEAR_FID":4,"NEAR_DIST":317.694876572,"Nomber":0,"Site_name":" ","Type":" ","X":0,"Y":0,"Altitude":0,"Descriptio":" ","Local_Name":" ","Location_W":" ","Settl_Type":" ","RoadRef_Pn":" ","Asphalt":0,"Gravel":0,"Foot_path":0,"Total_km":0,"direction":" ","Remarks":" "}},{"type":"Feature","id":12,"geometry":{"type":"Point","coordinates":[486413,1569083,1980,null]},"properties":{"FID":12,"OBJECTID_1":13,"OBJECTID":17,"SN":114,"Name":"Teklehaimanot Addi Abun","X_Easting":486413,"Y_Northing":1569083,"Z":1980,"Woreda_Nam":"Adwa","Distance_A":0,"Attra_Type":"Church","NEAR_FID":13,"NEAR_DIST":580.72174454599997,"Nomber":0,"Site_name":" ","Type":" ","X":0,"Y":0,"Altitude":0,"Descriptio":" ","Local_Name":" ","Location_W":" ","Settl_Type":" ","RoadRef_Pn":" ","Asphalt":0,"Gravel":0,"Foot_path":0,"Total_km":0,"direction":" ","Remarks":" "}},{"type":"Feature","id":13,"geometry":{"type":"Point","coordinates":[463038,1542673,0,null]},"properties":{"FID":13,"OBJECTID_1":14,"OBJECTID":18,"SN":115,"Name":"Gebriel Kenef","X_Easting":463038,"Y_Northing":1542673,"Z":0,"Woreda_Nam":"Adet","Distance_A":0,"Attra_Type":"Church","NEAR_FID":2,"NEAR_DIST":1177.7886126999999,"Nomber":0,"Site_name":" ","Type":" ","X":0,"Y":0,"Altitude":0,"Descriptio":" ","Local_Name":" ","Location_W":" ","Settl_Type":" ","RoadRef_Pn":" ","Asphalt":0,"Gravel":0,"Foot_path":0,"Total_km":0,"direction":" ","Remarks":" "}},{"type":"Feature","id":14,"geometry":{"type":"Point","coordinates":[478270,1504373,1960,null]},"properties":{"FID":14,"OBJECTID_1":15,"OBJECTID":19,"SN":116,"Name":"Abune Likanos/Libanos","X_Easting":478270,"Y_Northing":1504373,"Z":1960,"Woreda_Nam":"Aksum","Distance_A":0,"Attra_Type":"Monastry","NEAR_FID":11,"NEAR_DIST":18463.482849200002,"Nomber":0,"Site_name":" ","Type":" ","X":0,"Y":0,"Altitude":0,"Descriptio":" ","Local_Name":" ","Location_W":" ","Settl_Type":" ","RoadRef_Pn":" ","Asphalt":0,"Gravel":0,"Foot_path":0,"Total_km":0,"direction":" ","Remarks":" "}},{"type":"Feature","id":15,"geometry":{"type":"Point","coordinates":[513293,1501223,2639,null]},"properties":{"FID":15,"OBJECTID_1":16,"OBJECTID":20,"SN":120,"Name":"Mariam Koraro","X_Easting":513293,"Y_Northing":1501223,"Z":2639,"Woreda_Nam":"Degua Temben","Distance_A":0,"Attra_Type":"Church","NEAR_FID":15,"NEAR_DIST":575.66978520700002,"Nomber":0,"Site_name":" ","Type":" ","X":0,"Y":0,"Altitude":0,"Descriptio":" ","Local_Name":" ","Location_W":" ","Settl_Type":" ","RoadRef_Pn":" ","Asphalt":0,"Gravel":0,"Foot_path":0,"Total_km":0,"direction":" ","Remarks":" "}},{"type":"Feature","id":16,"geometry":{"type":"Point","coordinates":[513875,1507827,2508,null]},"properties":{"FID":16,"OBJECTID_1":17,"OBJECTID":21,"SN":122,"Name":"Melfa Mariam","X_Easting":513875,"Y_Northing":1507827,"Z":2508,"Woreda_Nam":"Degua Temben","Distance_A":0,"Attra_Type":" ","NEAR_FID":15,"NEAR_DIST":2509.3875051499999,"Nomber":0,"Site_name":" ","Type":" ","X":0,"Y":0,"Altitude":0,"Descriptio":" ","Local_Name":" ","Location_W":" ","Settl_Type":" ","RoadRef_Pn":" ","Asphalt":0,"Gravel":0,"Foot_path":0,"Total_km":0,"direction":" ","Remarks":" "}},{"type":"Feature","id":17,"geometry":{"type":"Point","coordinates":[502046,1579318,2150,null]},"properties":{"FID":17,"OBJECTID_1":18,"OBJECTID":22,"SN":153,"Name":"Yeha Temple","X_Easting":502046,"Y_Northing":1579318,"Z":2150,"Woreda_Nam":"Ahsea","Distance_A":0,"Attra_Type":"Temple","NEAR_FID":4,"NEAR_DIST":259.09467188600001,"Nomber":0,"Site_name":" ","Type":" ","X":0,"Y":0,"Altitude":0,"Descriptio":" ","Local_Name":" ","Location_W":" ","Settl_Type":" ","RoadRef_Pn":" ","Asphalt":0,"Gravel":0,"Foot_path":0,"Total_km":0,"direction":" ","Remarks":" "}},{"type":"Feature","id":18,"geometry":{"type":"Point","coordinates":[486949,1566576,1981,null]},"properties":{"FID":18,"OBJECTID_1":19,"OBJECTID":23,"SN":155,"Name":"Enda Giorgis Adwa","X_Easting":486949,"Y_Northing":1566576,"Z":1981,"Woreda_Nam":"Adwa","Distance_A":0,"Attra_Type":"Church","NEAR_FID":12,"NEAR_DIST":385.80665972499997,"Nomber":0,"Site_name":" ","Type":" ","X":0,"Y":0,"Altitude":0,"Descriptio":" ","Local_Name":" ","Location_W":" ","Settl_Type":" ","RoadRef_Pn":" ","Asphalt":0,"Gravel":0,"Foot_path":0,"Total_km":0,"direction":" ","Remarks":" "}},{"type":"Feature","id":19,"geometry":{"type":"Point","coordinates":[486949,1566576,1981,null]},"properties":{"FID":19,"OBJECTID_1":20,"OBJECTID":24,"SN":156,"Name":"Aba Fremonna","X_Easting":486949,"Y_Northing":1566576,"Z":1981,"Woreda_Nam":" ","Distance_A":0,"Attra_Type":" ","NEAR_FID":12,"NEAR_DIST":385.80665972499997,"Nomber":0,"Site_name":" ","Type":" ","X":0,"Y":0,"Altitude":0,"Descriptio":" ","Local_Name":" ","Location_W":" ","Settl_Type":" ","RoadRef_Pn":" ","Asphalt":0,"Gravel":0,"Foot_path":0,"Total_km":0,"direction":" ","Remarks":" "}},{"type":"Feature","id":20,"geometry":{"type":"Point","coordinates":[516630,1510189,2487,null]},"properties":{"FID":20,"OBJECTID_1":21,"OBJECTID":25,"SN":160,"Name":"Adi Gezaeti/Mewaferi EPRDF","X_Easting":516630,"Y_Northing":1510189,"Z":2487,"Woreda_Nam":"Degua Temben","Distance_A":0,"Attra_Type":"Historic","NEAR_FID":15,"NEAR_DIST":2304.8613643799999,"Nomber":0,"Site_name":" ","Type":" ","X":0,"Y":0,"Altitude":0,"Descriptio":" ","Local_Name":" ","Location_W":" ","Settl_Type":" ","RoadRef_Pn":" ","Asphalt":0,"Gravel":0,"Foot_path":0,"Total_km":0,"direction":" ","Remarks":" "}},{"type":"Feature","id":21,"geometry":{"type":"Point","coordinates":[509970,1499309,2035,null]},"properties":{"FID":21,"OBJECTID_1":22,"OBJECTID":26,"SN":161,"Name":"Menewe Alula's Birth Place","X_Easting":509970,"Y_Northing":1499309,"Z":2035,"Woreda_Nam":"Degua Temben","Distance_A":0,"Attra_Type":"Monastry","NEAR_FID":15,"NEAR_DIST":20.223535795299998,"Nomber":0,"Site_name":" ","Type":" ","X":0,"Y":0,"Altitude":0,"Descriptio":" ","Local_Name":" ","Location_W":" ","Settl_Type":" ","RoadRef_Pn":" ","Asphalt":0,"Gravel":0,"Foot_path":0,"Total_km":0,"direction":" ","Remarks":" "}},{"type":"Feature","id":22,"geometry":{"type":"Point","coordinates":[513875,1507827,2508,null]},"properties":{"FID":22,"OBJECTID_1":23,"OBJECTID":27,"SN":162,"Name":"Melfa","X_Easting":513875,"Y_Northing":1507827,"Z":2508,"Woreda_Nam":"Degua Temben","Distance_A":0,"Attra_Type":"Church","NEAR_FID":15,"NEAR_DIST":2509.3875051499999,"Nomber":0,"Site_name":" ","Type":" ","X":0,"Y":0,"Altitude":0,"Descriptio":" ","Local_Name":" ","Location_W":" ","Settl_Type":" ","RoadRef_Pn":" ","Asphalt":0,"Gravel":0,"Foot_path":0,"Total_km":0,"direction":" ","Remarks":" "}},{"type":"Feature","id":23,"geometry":{"type":"Point","coordinates":[499965,1518081,1949,null]},"properties":{"FID":23,"OBJECTID_1":24,"OBJECTID":28,"SN":163,"Name":"Workamba","X_Easting":499965,"Y_Northing":1518081,"Z":1949,"Woreda_Nam":"Kola Temben","Distance_A":0,"Attra_Type":"Church","NEAR_FID":11,"NEAR_DIST":1785.4520422600001,"Nomber":0,"Site_name":" ","Type":" ","X":0,"Y":0,"Altitude":0,"Descriptio":" ","Local_Name":" ","Location_W":" ","Settl_Type":" ","RoadRef_Pn":" ","Asphalt":0,"Gravel":0,"Foot_path":0,"Total_km":0,"direction":" ","Remarks":" "}},{"type":"Feature","id":24,"geometry":{"type":"Point","coordinates":[515653,1508578,2600,null]},"properties":{"FID":24,"OBJECTID_1":25,"OBJECTID":29,"SN":165,"Name":"Geza Gebrehara","X_Easting":515653,"Y_Northing":1508578,"Z":2600,"Woreda_Nam":"Kola Temben","Distance_A":0,"Attra_Type":" ","NEAR_FID":15,"NEAR_DIST":2357.09379459,"Nomber":0,"Site_name":" ","Type":" ","X":0,"Y":0,"Altitude":0,"Descriptio":" ","Local_Name":" ","Location_W":" ","Settl_Type":" ","RoadRef_Pn":" ","Asphalt":0,"Gravel":0,"Foot_path":0,"Total_km":0,"direction":" ","Remarks":" "}},{"type":"Feature","id":25,"geometry":{"type":"Point","coordinates":[502462,1516243,1883,null]},"properties":{"FID":25,"OBJECTID_1":26,"OBJECTID":30,"SN":166,"Name":"Wersege Italian Cemetry","X_Easting":502462,"Y_Northing":1516243,"Z":1883,"Woreda_Nam":"Kola Temben","Distance_A":0,"Attra_Type":"Historic","NEAR_FID":11,"NEAR_DIST":3979.8054186099998,"Nomber":0,"Site_name":" ","Type":" ","X":0,"Y":0,"Altitude":0,"Descriptio":" ","Local_Name":" ","Location_W":" ","Settl_Type":" ","RoadRef_Pn":" ","Asphalt":0,"Gravel":0,"Foot_path":0,"Total_km":0,"direction":" ","Remarks":" "}},{"type":"Feature","id":26,"geometry":{"type":"Point","coordinates":[508191,1551938,1994,null]},"properties":{"FID":26,"OBJECTID_1":27,"OBJECTID":32,"SN":193,"Name":"Enda Abba Tsahma","X_Easting":508191,"Y_Northing":1551938,"Z":1994,"Woreda_Nam":"Edaga Ari","Distance_A":0,"Attra_Type":"Monastry","NEAR_FID":9,"NEAR_DIST":72.744090598200003,"Nomber":0,"Site_name":" ","Type":" ","X":0,"Y":0,"Altitude":0,"Descriptio":" ","Local_Name":" ","Location_W":" ","Settl_Type":" ","RoadRef_Pn":" ","Asphalt":0,"Gravel":0,"Foot_path":0,"Total_km":0,"direction":" ","Remarks":" "}},{"type":"Feature","id":27,"geometry":{"type":"Point","coordinates":[494929,1565551,2178,null]},"properties":{"FID":27,"OBJECTID_1":28,"OBJECTID":33,"SN":194,"Name":"Enda Aba Gerima","X_Easting":494929,"Y_Northing":1565551,"Z":2178,"Woreda_Nam":"Rural Adwa","Distance_A":0,"Attra_Type":"Monastry","NEAR_FID":11,"NEAR_DIST":1364.3292658299999,"Nomber":0,"Site_name":" ","Type":" ","X":0,"Y":0,"Altitude":0,"Descriptio":" ","Local_Name":" ","Location_W":" ","Settl_Type":" ","RoadRef_Pn":" ","Asphalt":0,"Gravel":0,"Foot_path":0,"Total_km":0,"direction":" ","Remarks":" "}},{"type":"Feature","id":28,"geometry":{"type":"Point","coordinates":[458570,1567505,2350,null]},"properties":{"FID":28,"OBJECTID_1":29,"OBJECTID":34,"SN":195,"Name":"Debre Benkol","X_Easting":458570,"Y_Northing":1567505,"Z":2350,"Woreda_Nam":"Tahtay Machew","Distance_A":0,"Attra_Type":"Monastry","NEAR_FID":7,"NEAR_DIST":1189.52257177,"Nomber":0,"Site_name":" ","Type":" ","X":0,"Y":0,"Altitude":0,"Descriptio":" ","Local_Name":" ","Location_W":" ","Settl_Type":" ","RoadRef_Pn":" ","Asphalt":0,"Gravel":0,"Foot_path":0,"Total_km":0,"direction":" ","Remarks":" "}},{"type":"Feature","id":29,"geometry":{"type":"Point","coordinates":[517366,1506222,2618,null]},"properties":{"FID":29,"OBJECTID_1":30,"OBJECTID":35,"SN":205,"Name":"Abune Aregawi /Zeji/","X_Easting":517366,"Y_Northing":1506222,"Z":2618,"Woreda_Nam":"Kola Temben","Distance_A":0,"Attra_Type":" ","NEAR_FID":15,"NEAR_DIST":498.11776245099998,"Nomber":0,"Site_name":" ","Type":" ","X":0,"Y":0,"Altitude":0,"Descriptio":" ","Local_Name":" ","Location_W":" ","Settl_Type":" ","RoadRef_Pn":" ","Asphalt":0,"Gravel":0,"Foot_path":0,"Total_km":0,"direction":" ","Remarks":" "}},{"type":"Feature","id":30,"geometry":{"type":"Point","coordinates":[508340,1499075,1900,null]},"properties":{"FID":30,"OBJECTID_1":31,"OBJECTID":36,"SN":206,"Name":"Chik Silassie","X_Easting":508340,"Y_Northing":1499075,"Z":1900,"Woreda_Nam":"Kola Temben","Distance_A":0,"Attra_Type":" ","NEAR_FID":15,"NEAR_DIST":832.75248944700002,"Nomber":0,"Site_name":" ","Type":" ","X":0,"Y":0,"Altitude":0,"Descriptio":" ","Local_Name":" ","Location_W":" ","Settl_Type":" ","RoadRef_Pn":" ","Asphalt":0,"Gravel":0,"Foot_path":0,"Total_km":0,"direction":" ","Remarks":" "}},{"type":"Feature","id":31,"geometry":{"type":"Point","coordinates":[524487,1503823,0,null]},"properties":{"FID":31,"OBJECTID_1":32,"OBJECTID":37,"SN":207,"Name":"Giorgis Rubakisa","X_Easting":524487,"Y_Northing":1503823,"Z":0,"Woreda_Nam":"Kola Temben","Distance_A":0,"Attra_Type":" ","NEAR_FID":15,"NEAR_DIST":5966.8255696599999,"Nomber":0,"Site_name":" ","Type":" ","X":0,"Y":0,"Altitude":0,"Descriptio":" ","Local_Name":" ","Location_W":" ","Settl_Type":" ","RoadRef_Pn":" ","Asphalt":0,"Gravel":0,"Foot_path":0,"Total_km":0,"direction":" ","Remarks":" "}},{"type":"Feature","id":32,"geometry":{"type":"Point","coordinates":[511788,1510560,2546,null]},"properties":{"FID":32,"OBJECTID_1":33,"OBJECTID":39,"SN":210,"Name":"Endaba Selama","X_Easting":511788,"Y_Northing":1510560,"Z":2546,"Woreda_Nam":"Kola Temben","Distance_A":0,"Attra_Type":" ","NEAR_FID":15,"NEAR_DIST":5726.7996824100001,"Nomber":0,"Site_name":" ","Type":" ","X":0,"Y":0,"Altitude":0,"Descriptio":" ","Local_Name":" ","Location_W":" ","Settl_Type":" ","RoadRef_Pn":" ","Asphalt":0,"Gravel":0,"Foot_path":0,"Total_km":0,"direction":" ","Remarks":" "}},{"type":"Feature","id":33,"geometry":{"type":"Point","coordinates":[518235,1515325,2300,null]},"properties":{"FID":33,"OBJECTID_1":34,"OBJECTID":40,"SN":211,"Name":"Mereta Abye Egzi","X_Easting":518235,"Y_Northing":1515325,"Z":2300,"Woreda_Nam":"Kola Temben","Distance_A":0,"Attra_Type":" ","NEAR_FID":15,"NEAR_DIST":5910.4641425500004,"Nomber":0,"Site_name":" ","Type":" ","X":0,"Y":0,"Altitude":0,"Descriptio":" ","Local_Name":" ","Location_W":" ","Settl_Type":" ","RoadRef_Pn":" ","Asphalt":0,"Gravel":0,"Foot_path":0,"Total_km":0,"direction":" ","Remarks":" "}},{"type":"Feature","id":34,"geometry":{"type":"Point","coordinates":[522477,1514316,2209,null]},"properties":{"FID":34,"OBJECTID_1":35,"OBJECTID":41,"SN":213,"Name":"Enda Abune Abiyezgi","X_Easting":522477,"Y_Northing":1514316,"Z":2209,"Woreda_Nam":"Kola Temben","Distance_A":0,"Attra_Type":" ","NEAR_FID":15,"NEAR_DIST":4241.70490711,"Nomber":0,"Site_name":" ","Type":" ","X":0,"Y":0,"Altitude":0,"Descriptio":" ","Local_Name":" ","Location_W":" ","Settl_Type":" ","RoadRef_Pn":" ","Asphalt":0,"Gravel":0,"Foot_path":0,"Total_km":0,"direction":" ","Remarks":" "}},{"type":"Feature","id":35,"geometry":{"type":"Point","coordinates":[516556,1510003,2480,null]},"properties":{"FID":35,"OBJECTID_1":36,"OBJECTID":42,"SN":221,"Name":"Medhanealem Harekuwa","X_Easting":516556,"Y_Northing":1510003,"Z":2480,"Woreda_Nam":"Kola Temben","Distance_A":0,"Attra_Type":" ","NEAR_FID":15,"NEAR_DIST":2266.12926582,"Nomber":0,"Site_name":" ","Type":" ","X":0,"Y":0,"Altitude":0,"Descriptio":" ","Local_Name":" ","Location_W":" ","Settl_Type":" ","RoadRef_Pn":" ","Asphalt":0,"Gravel":0,"Foot_path":0,"Total_km":0,"direction":" ","Remarks":" "}},{"type":"Feature","id":36,"geometry":{"type":"Point","coordinates":[510351,1511169,2444,null]},"properties":{"FID":36,"OBJECTID_1":37,"OBJECTID":43,"SN":222,"Name":"Enda Amanuel","X_Easting":510351,"Y_Northing":1511169,"Z":2444,"Woreda_Nam":" Kola Temben","Distance_A":0,"Attra_Type":" ","NEAR_FID":15,"NEAR_DIST":6936.8563800000002,"Nomber":0,"Site_name":" ","Type":" ","X":0,"Y":0,"Altitude":0,"Descriptio":" ","Local_Name":" ","Location_W":" ","Settl_Type":" ","RoadRef_Pn":" ","Asphalt":0,"Gravel":0,"Foot_path":0,"Total_km":0,"direction":" ","Remarks":" "}},{"type":"Feature","id":37,"geometry":{"type":"Point","coordinates":[469589,1562213,2151,null]},"properties":{"FID":37,"OBJECTID_1":38,"OBJECTID":44,"SN":226,"Name":"Archaeological Museum of Axum","X_Easting":469589,"Y_Northing":1562213,"Z":2151,"Woreda_Nam":"Aksum","Distance_A":0,"Attra_Type":"Archaeological","NEAR_FID":12,"NEAR_DIST":816.91921265200006,"Nomber":0,"Site_name":" ","Type":" ","X":0,"Y":0,"Altitude":0,"Descriptio":" ","Local_Name":" ","Location_W":" ","Settl_Type":" ","RoadRef_Pn":" ","Asphalt":0,"Gravel":0,"Foot_path":0,"Total_km":0,"direction":" ","Remarks":" "}},{"type":"Feature","id":38,"geometry":{"type":"Point","coordinates":[489912,1568737,2600,null]},"properties":{"FID":38,"OBJECTID_1":39,"OBJECTID":47,"SN":229,"Name":"Adwa Mountains","X_Easting":489912,"Y_Northing":1568737,"Z":2600,"Woreda_Nam":"Adwa","Distance_A":0,"Attra_Type":"Historical","NEAR_FID":16,"NEAR_DIST":1330.1842123599999,"Nomber":0,"Site_name":" ","Type":" ","X":0,"Y":0,"Altitude":0,"Descriptio":" ","Local_Name":" ","Location_W":" ","Settl_Type":" ","RoadRef_Pn":" ","Asphalt":0,"Gravel":0,"Foot_path":0,"Total_km":0,"direction":" ","Remarks":" "}},{"type":"Feature","id":39,"geometry":{"type":"Point","coordinates":[501527,1505594,1847,null]},"properties":{"FID":39,"OBJECTID_1":40,"OBJECTID":48,"SN":231,"Name":"Mai Lomin /Seasonal & Potential/","X_Easting":501527,"Y_Northing":1505594,"Z":1847,"Woreda_Nam":"Abiyi Adi","Distance_A":0,"Attra_Type":" ","NEAR_FID":15,"NEAR_DIST":1445.98832692,"Nomber":0,"Site_name":" ","Type":" ","X":0,"Y":0,"Altitude":0,"Descriptio":" ","Local_Name":" ","Location_W":" ","Settl_Type":" ","RoadRef_Pn":" ","Asphalt":0,"Gravel":0,"Foot_path":0,"Total_km":0,"direction":" ","Remarks":" "}},{"type":"Feature","id":40,"geometry":{"type":"Point","coordinates":[468257,1561586,2130,null]},"properties":{"FID":40,"OBJECTID_1":41,"OBJECTID":51,"SN":251,"Name":"Dongur Palace","X_Easting":468257,"Y_Northing":1561586,"Z":2130,"Woreda_Nam":"Aksum","Distance_A":0,"Attra_Type":"Archaeological","NEAR_FID":10,"NEAR_DIST":105.07638935600001,"Nomber":0,"Site_name":" ","Type":" ","X":0,"Y":0,"Altitude":0,"Descriptio":" ","Local_Name":" ","Location_W":" ","Settl_Type":" ","RoadRef_Pn":" ","Asphalt":0,"Gravel":0,"Foot_path":0,"Total_km":0,"direction":" ","Remarks":" "}},{"type":"Feature","id":41,"geometry":{"type":"Point","coordinates":[468529,1562332,2286,null]},"properties":{"FID":41,"OBJECTID_1":42,"OBJECTID":52,"SN":252,"Name":"Bete Giorgis Hill-Ona Negast","X_Easting":468529,"Y_Northing":1562332,"Z":2286,"Woreda_Nam":"Aksum","Distance_A":0,"Attra_Type":"Archaeological","NEAR_FID":10,"NEAR_DIST":893.78391434000002,"Nomber":0,"Site_name":" ","Type":" ","X":0,"Y":0,"Altitude":0,"Descriptio":" ","Local_Name":" ","Location_W":" ","Settl_Type":" ","RoadRef_Pn":" ","Asphalt":0,"Gravel":0,"Foot_path":0,"Total_km":0,"direction":" ","Remarks":" "}},{"type":"Feature","id":42,"geometry":{"type":"Point","coordinates":[469407,1561801,2152,null]},"properties":{"FID":42,"OBJECTID_1":43,"OBJECTID":57,"SN":257,"Name":"Arbaetu Ensesa","X_Easting":469407,"Y_Northing":1561801,"Z":2152,"Woreda_Nam":"Aksum","Distance_A":0,"Attra_Type":"Church","NEAR_FID":12,"NEAR_DIST":414.654992677,"Nomber":0,"Site_name":" ","Type":" ","X":0,"Y":0,"Altitude":0,"Descriptio":" ","Local_Name":" ","Location_W":" ","Settl_Type":" ","RoadRef_Pn":" ","Asphalt":0,"Gravel":0,"Foot_path":0,"Total_km":0,"direction":" ","Remarks":" "}},{"type":"Feature","id":43,"geometry":{"type":"Point","coordinates":[469582,1561875,2152,null]},"properties":{"FID":43,"OBJECTID_1":44,"OBJECTID":60,"SN":260,"Name":"Maryam Tsion Church","X_Easting":469582,"Y_Northing":1561875,"Z":2152,"Woreda_Nam":"Aksum","Distance_A":0,"Attra_Type":"Monastry","NEAR_FID":12,"NEAR_DIST":480.02083288099999,"Nomber":0,"Site_name":" ","Type":" ","X":0,"Y":0,"Altitude":0,"Descriptio":" ","Local_Name":" ","Location_W":" ","Settl_Type":" ","RoadRef_Pn":" ","Asphalt":0,"Gravel":0,"Foot_path":0,"Total_km":0,"direction":" ","Remarks":" "}},{"type":"Feature","id":44,"geometry":{"type":"Point","coordinates":[469493,1561919,2152,null]},"properties":{"FID":44,"OBJECTID_1":45,"OBJECTID":61,"SN":261,"Name":"Throne Bases/Menagesha/","X_Easting":469493,"Y_Northing":1561919,"Z":2152,"Woreda_Nam":"Aksum","Distance_A":0,"Attra_Type":" ","NEAR_FID":12,"NEAR_DIST":520.70048972500001,"Nomber":0,"Site_name":" ","Type":" ","X":0,"Y":0,"Altitude":0,"Descriptio":" ","Local_Name":" ","Location_W":" ","Settl_Type":" ","RoadRef_Pn":" ","Asphalt":0,"Gravel":0,"Foot_path":0,"Total_km":0,"direction":" ","Remarks":" "}},{"type":"Feature","id":45,"geometry":{"type":"Point","coordinates":[469990,1562780,2176,null]},"properties":{"FID":45,"OBJECTID_1":46,"OBJECTID":66,"SN":266,"Name":"Inscription/On the way to Kaleb and G.Meskel Tomb/","X_Easting":469990,"Y_Northing":1562780,"Z":2176,"Woreda_Nam":"Aksum","Distance_A":0,"Attra_Type":"Archaeological","NEAR_FID":12,"NEAR_DIST":1450.3629367200001,"Nomber":0,"Site_name":" ","Type":" ","X":0,"Y":0,"Altitude":0,"Descriptio":" ","Local_Name":" ","Location_W":" ","Settl_Type":" ","RoadRef_Pn":" ","Asphalt":0,"Gravel":0,"Foot_path":0,"Total_km":0,"direction":" ","Remarks":" "}},{"type":"Feature","id":46,"geometry":{"type":"Point","coordinates":[470775,1563473,2260,null]},"properties":{"FID":46,"OBJECTID_1":47,"OBJECTID":69,"SN":269,"Name":"Tomb of Kaleb and G/Meskel","X_Easting":470775,"Y_Northing":1563473,"Z":2260,"Woreda_Nam":"Aksum","Distance_A":0,"Attra_Type":"Palace","NEAR_FID":12,"NEAR_DIST":2164.7202353500002,"Nomber":0,"Site_name":" ","Type":" ","X":0,"Y":0,"Altitude":0,"Descriptio":" ","Local_Name":" ","Location_W":" ","Settl_Type":" ","RoadRef_Pn":" ","Asphalt":0,"Gravel":0,"Foot_path":0,"Total_km":0,"direction":" ","Remarks":" "}},{"type":"Feature","id":47,"geometry":{"type":"Point","coordinates":[469716,1562311,2166,null]},"properties":{"FID":47,"OBJECTID_1":48,"OBJECTID":70,"SN":270,"Name":"Axum Stelae Park","X_Easting":469716,"Y_Northing":1562311,"Z":2166,"Woreda_Nam":"Aksum","Distance_A":0,"Attra_Type":"Historical","NEAR_FID":12,"NEAR_DIST":932.82367036899996,"Nomber":0,"Site_name":" ","Type":" ","X":0,"Y":0,"Altitude":0,"Descriptio":" ","Local_Name":" ","Location_W":" ","Settl_Type":" ","RoadRef_Pn":" ","Asphalt":0,"Gravel":0,"Foot_path":0,"Total_km":0,"direction":" ","Remarks":" "}},{"type":"Feature","id":48,"geometry":{"type":"Point","coordinates":[493382,1515226,1200,null]},"properties":{"FID":48,"OBJECTID_1":49,"OBJECTID":71,"SN":278,"Name":"Abba Yohanni","X_Easting":493382,"Y_Northing":1515226,"Z":1200,"Woreda_Nam":"Kola Temben","Distance_A":0,"Attra_Type":"Monastry","NEAR_FID":11,"NEAR_DIST":4247.3932575400004,"Nomber":0,"Site_name":" ","Type":" ","X":0,"Y":0,"Altitude":0,"Descriptio":" ","Local_Name":" ","Location_W":" ","Settl_Type":" ","RoadRef_Pn":" ","Asphalt":0,"Gravel":0,"Foot_path":0,"Total_km":0,"direction":" ","Remarks":" "}},{"type":"Feature","id":49,"geometry":{"type":"Point","coordinates":[496998,1517210,2100,null]},"properties":{"FID":49,"OBJECTID_1":50,"OBJECTID":72,"SN":279,"Name":"Gebriel Wuqien","X_Easting":496998,"Y_Northing":1517210,"Z":2100,"Woreda_Nam":"Kola Temben","Distance_A":0,"Attra_Type":" ","NEAR_FID":11,"NEAR_DIST":581.28506164800001,"Nomber":0,"Site_name":" ","Type":" ","X":0,"Y":0,"Altitude":0,"Descriptio":" ","Local_Name":" ","Location_W":" ","Settl_Type":" ","RoadRef_Pn":" ","Asphalt":0,"Gravel":0,"Foot_path":0,"Total_km":0,"direction":" ","Remarks":" "}},{"type":"Feature","id":50,"geometry":{"type":"Point","coordinates":[515815,1518126,1900,null]},"properties":{"FID":50,"OBJECTID_1":51,"OBJECTID":73,"SN":280,"Name":"Mariam Hibi'ito","X_Easting":515815,"Y_Northing":1518126,"Z":1900,"Woreda_Nam":"Kola Temben","Distance_A":0,"Attra_Type":" ","NEAR_FID":15,"NEAR_DIST":9470.8970817299996,"Nomber":0,"Site_name":" ","Type":" ","X":0,"Y":0,"Altitude":0,"Descriptio":" ","Local_Name":" ","Location_W":" ","Settl_Type":" ","RoadRef_Pn":" ","Asphalt":0,"Gravel":0,"Foot_path":0,"Total_km":0,"direction":" ","Remarks":" "}},{"type":"Feature","id":51,"geometry":{"type":"Point","coordinates":[494589,1516136,2130,null]},"properties":{"FID":51,"OBJECTID_1":52,"OBJECTID":74,"SN":282,"Name":"Mariam Te'amina","X_Easting":494589,"Y_Northing":1516136,"Z":2130,"Woreda_Nam":"Abiyi","Distance_A":0,"Attra_Type":" ","NEAR_FID":11,"NEAR_DIST":3217.0890429199999,"Nomber":0,"Site_name":" ","Type":" ","X":0,"Y":0,"Altitude":0,"Descriptio":" ","Local_Name":" ","Location_W":" ","Settl_Type":" ","RoadRef_Pn":" ","Asphalt":0,"Gravel":0,"Foot_path":0,"Total_km":0,"direction":" ","Remarks":" "}},{"type":"Feature","id":52,"geometry":{"type":"Point","coordinates":[495343,1513725,2100,null]},"properties":{"FID":52,"OBJECTID_1":53,"OBJECTID":75,"SN":283,"Name":"Kaka Arbaetu Ensissa","X_Easting":495343,"Y_Northing":1513725,"Z":2100,"Woreda_Nam":"Abiyi","Distance_A":0,"Attra_Type":" ","NEAR_FID":11,"NEAR_DIST":2175.4827034,"Nomber":0,"Site_name":" ","Type":" ","X":0,"Y":0,"Altitude":0,"Descriptio":" ","Local_Name":" ","Location_W":" ","Settl_Type":" ","RoadRef_Pn":" ","Asphalt":0,"Gravel":0,"Foot_path":0,"Total_km":0,"direction":" ","Remarks":" "}},{"type":"Feature","id":53,"geometry":{"type":"Point","coordinates":[506995,1517790,1800,null]},"properties":{"FID":53,"OBJECTID_1":54,"OBJECTID":76,"SN":284,"Name":"Eyesus Welegesa","X_Easting":506995,"Y_Northing":1517790,"Z":1800,"Woreda_Nam":"Kola Temben","Distance_A":0,"Attra_Type":" ","NEAR_FID":11,"NEAR_DIST":8522.1438015399999,"Nomber":0,"Site_name":" ","Type":" ","X":0,"Y":0,"Altitude":0,"Descriptio":" ","Local_Name":" ","Location_W":" ","Settl_Type":" ","RoadRef_Pn":" ","Asphalt":0,"Gravel":0,"Foot_path":0,"Total_km":0,"direction":" ","Remarks":" "}},{"type":"Feature","id":54,"geometry":{"type":"Point","coordinates":[502935,1509678,2400,null]},"properties":{"FID":54,"OBJECTID_1":55,"OBJECTID":77,"SN":285,"Name":"Mariam Etsewto","X_Easting":502935,"Y_Northing":1509678,"Z":2400,"Woreda_Nam":"Kola Temben","Distance_A":0,"Attra_Type":" ","NEAR_FID":15,"NEAR_DIST":4764.1437780599999,"Nomber":0,"Site_name":" ","Type":" ","X":0,"Y":0,"Altitude":0,"Descriptio":" ","Local_Name":" ","Location_W":" ","Settl_Type":" ","RoadRef_Pn":" ","Asphalt":0,"Gravel":0,"Foot_path":0,"Total_km":0,"direction":" ","Remarks":" "}},{"type":"Feature","id":55,"geometry":{"type":"Point","coordinates":[520142,1513676,2115,null]},"properties":{"FID":55,"OBJECTID_1":56,"OBJECTID":78,"SN":287,"Name":"Tensehe Kidane Mihret","X_Easting":520142,"Y_Northing":1513676,"Z":2115,"Woreda_Nam":"Kola Temben","Distance_A":0,"Attra_Type":" ","NEAR_FID":15,"NEAR_DIST":3842.0645945400001,"Nomber":0,"Site_name":" ","Type":" ","X":0,"Y":0,"Altitude":0,"Descriptio":" ","Local_Name":" ","Location_W":" ","Settl_Type":" ","RoadRef_Pn":" ","Asphalt":0,"Gravel":0,"Foot_path":0,"Total_km":0,"direction":" ","Remarks":" "}},{"type":"Feature","id":56,"geometry":{"type":"Point","coordinates":[480943,1505900,2000,null]},"properties":{"FID":56,"OBJECTID_1":57,"OBJECTID":79,"SN":288,"Name":"Teklehaimanot Tamba/Guya/","X_Easting":480943,"Y_Northing":1505900,"Z":2000,"Woreda_Nam":"Ambera","Distance_A":0,"Attra_Type":" ","NEAR_FID":11,"NEAR_DIST":15475.913970600001,"Nomber":0,"Site_name":" ","Type":" ","X":0,"Y":0,"Altitude":0,"Descriptio":" ","Local_Name":" ","Location_W":" ","Settl_Type":" ","RoadRef_Pn":" ","Asphalt":0,"Gravel":0,"Foot_path":0,"Total_km":0,"direction":" ","Remarks":" "}},{"type":"Feature","id":57,"geometry":{"type":"Point","coordinates":[532567,1561807,2079,null]},"properties":{"FID":57,"OBJECTID_1":58,"OBJECTID":81,"SN":293,"Name":"Wukro Mariam","X_Easting":532567,"Y_Northing":1561807,"Z":2079,"Woreda_Nam":"Embaseneyti","Distance_A":0,"Attra_Type":"Monastry","NEAR_FID":8,"NEAR_DIST":4504.9325587000003,"Nomber":0,"Site_name":" ","Type":" ","X":0,"Y":0,"Altitude":0,"Descriptio":" ","Local_Name":" ","Location_W":" ","Settl_Type":" ","RoadRef_Pn":" ","Asphalt":0,"Gravel":0,"Foot_path":0,"Total_km":0,"direction":" ","Remarks":" "}},{"type":"Feature","id":58,"geometry":{"type":"Point","coordinates":[470430.70999999996,1561575.875,2142,null]},"properties":{"FID":58,"OBJECTID_1":59,"OBJECTID":82,"SN":0,"Name":"Bazen Tomb","X_Easting":470430.71000000002,"Y_Northing":1561575.875,"Z":2142,"Woreda_Nam":"Aksum","Distance_A":0,"Attra_Type":"Archaeological","NEAR_FID":12,"NEAR_DIST":277.82001934499999,"Nomber":0,"Site_name":" ","Type":" ","X":0,"Y":0,"Altitude":0,"Descriptio":" ","Local_Name":" ","Location_W":" ","Settl_Type":" ","RoadRef_Pn":" ","Asphalt":0,"Gravel":0,"Foot_path":0,"Total_km":0,"direction":" ","Remarks":" "}},{"type":"Feature","id":59,"geometry":{"type":"Point","coordinates":[470346.00399999972,1561480.5850000009,2165,null]},"properties":{"FID":59,"OBJECTID_1":60,"OBJECTID":83,"SN":0,"Name":"Ezana Park","X_Easting":470346.00400000002,"Y_Northing":1561480.585,"Z":2165,"Woreda_Nam":"Aksum","Distance_A":0,"Attra_Type":"Historical","NEAR_FID":12,"NEAR_DIST":184.55713493600001,"Nomber":0,"Site_name":" ","Type":" ","X":0,"Y":0,"Altitude":0,"Descriptio":" ","Local_Name":" ","Location_W":" ","Settl_Type":" ","RoadRef_Pn":" ","Asphalt":0,"Gravel":0,"Foot_path":0,"Total_km":0,"direction":" ","Remarks":" "}},{"type":"Feature","id":60,"geometry":{"type":"Point","coordinates":[470231.27699999977,1561555.398,2161.8399999999965,null]},"properties":{"FID":60,"OBJECTID_1":61,"OBJECTID":84,"SN":0,"Name":"Hatsanu Daniel (Mibtak Fetli)","X_Easting":470231.277,"Y_Northing":1561555.398,"Z":2161.8400000000001,"Woreda_Nam":"Aksum","Distance_A":0,"Attra_Type":"Archaeological","NEAR_FID":12,"NEAR_DIST":259.89659614700003,"Nomber":0,"Site_name":" ","Type":" ","X":0,"Y":0,"Altitude":0,"Descriptio":" ","Local_Name":" ","Location_W":" ","Settl_Type":" ","RoadRef_Pn":" ","Asphalt":0,"Gravel":0,"Foot_path":0,"Total_km":0,"direction":" ","Remarks":" "}},{"type":"Feature","id":61,"geometry":{"type":"Point","coordinates":[470016.8049999997,1561682.2599999998,2155.5500000000029,null]},"properties":{"FID":61,"OBJECTID_1":62,"OBJECTID":85,"SN":0,"Name":"Tourist Center","X_Easting":470016.80499999999,"Y_Northing":1561682.26,"Z":2155.5500000000002,"Woreda_Nam":"Aksum","Distance_A":0,"Attra_Type":"Historical","NEAR_FID":12,"NEAR_DIST":398.17953953099999,"Nomber":0,"Site_name":" ","Type":" ","X":0,"Y":0,"Altitude":0,"Descriptio":" ","Local_Name":" ","Location_W":" ","Settl_Type":" ","RoadRef_Pn":" ","Asphalt":0,"Gravel":0,"Foot_path":0,"Total_km":0,"direction":" ","Remarks":" "}},{"type":"Feature","id":62,"geometry":{"type":"Point","coordinates":[470006.42899999954,1561804.7760000005,2142.0299999999988,null]},"properties":{"FID":62,"OBJECTID_1":63,"OBJECTID":86,"SN":0,"Name":"Axumite Heritage foundation compound","X_Easting":470006.429,"Y_Northing":1561804.7760000001,"Z":2142.0300000000002,"Woreda_Nam":"Aksum","Distance_A":0,"Attra_Type":"Historical","NEAR_FID":12,"NEAR_DIST":513.19406345899995,"Nomber":0,"Site_name":" ","Type":" ","X":0,"Y":0,"Altitude":0,"Descriptio":" ","Local_Name":" ","Location_W":" ","Settl_Type":" ","RoadRef_Pn":" ","Asphalt":0,"Gravel":0,"Foot_path":0,"Total_km":0,"direction":" ","Remarks":" "}},{"type":"Feature","id":63,"geometry":{"type":"Point","coordinates":[469911.40600000042,1562159.193,2149.8099999999977,null]},"properties":{"FID":63,"OBJECTID_1":64,"OBJECTID":87,"SN":0,"Name":"Unfinished Rock Cut structure","X_Easting":469911.40600000002,"Y_Northing":1562159.193,"Z":2149.8099999999999,"Woreda_Nam":"Aksum","Distance_A":0,"Attra_Type":"Historical","NEAR_FID":12,"NEAR_DIST":829.170759782,"Nomber":0,"Site_name":" ","Type":" ","X":0,"Y":0,"Altitude":0,"Descriptio":" ","Local_Name":" ","Location_W":" ","Settl_Type":" ","RoadRef_Pn":" ","Asphalt":0,"Gravel":0,"Foot_path":0,"Total_km":0,"direction":" ","Remarks":" "}},{"type":"Feature","id":64,"geometry":{"type":"Point","coordinates":[470007.59100000001,1562348.6079999991,2175.9700000000012,null]},"properties":{"FID":64,"OBJECTID_1":65,"OBJECTID":89,"SN":0,"Name":"Yeha Hotel","X_Easting":470007.59100000001,"Y_Northing":1562348.608,"Z":2175.9699999999998,"Woreda_Nam":"Aksum","Distance_A":0,"Attra_Type":"Historical","NEAR_FID":12,"NEAR_DIST":1036.3490467500001,"Nomber":0,"Site_name":" ","Type":" ","X":0,"Y":0,"Altitude":0,"Descriptio":" ","Local_Name":" ","Location_W":" ","Settl_Type":" ","RoadRef_Pn":" ","Asphalt":0,"Gravel":0,"Foot_path":0,"Total_km":0,"direction":" ","Remarks":" "}},{"type":"Feature","id":65,"geometry":{"type":"Point","coordinates":[469926.32600000035,1562529.4100000001,2157.0800000000017,null]},"properties":{"FID":65,"OBJECTID_1":66,"OBJECTID":90,"SN":0,"Name":"Mai Shum Reservoir","X_Easting":469926.326,"Y_Northing":1562529.4099999999,"Z":2157.0799999999999,"Woreda_Nam":"Aksum","Distance_A":0,"Attra_Type":"Historical","NEAR_FID":12,"NEAR_DIST":1191.81193207,"Nomber":0,"Site_name":" ","Type":" ","X":0,"Y":0,"Altitude":0,"Descriptio":" ","Local_Name":" ","Location_W":" ","Settl_Type":" ","RoadRef_Pn":" ","Asphalt":0,"Gravel":0,"Foot_path":0,"Total_km":0,"direction":" ","Remarks":" "}},{"type":"Feature","id":66,"geometry":{"type":"Point","coordinates":[469044.08600000013,1561570.6850000005,2130.6100000000006,null]},"properties":{"FID":66,"OBJECTID_1":67,"OBJECTID":91,"SN":0,"Name":"Ta'akha Mariam Palace","X_Easting":469044.08600000001,"Y_Northing":1561570.6850000001,"Z":2130.6100000000001,"Woreda_Nam":"Aksum","Distance_A":0,"Attra_Type":"Palace","NEAR_FID":12,"NEAR_DIST":227.41817032,"Nomber":0,"Site_name":" ","Type":" ","X":0,"Y":0,"Altitude":0,"Descriptio":" ","Local_Name":" ","Location_W":" ","Settl_Type":" ","RoadRef_Pn":" ","Asphalt":0,"Gravel":0,"Foot_path":0,"Total_km":0,"direction":" ","Remarks":" "}},{"type":"Feature","id":67,"geometry":{"type":"Point","coordinates":[469213.36000000034,1561745.8350000009,2139.3399999999965,null]},"properties":{"FID":67,"OBJECTID_1":68,"OBJECTID":92,"SN":0,"Name":"Enda Semoun Palace","X_Easting":469213.35999999999,"Y_Northing":1561745.835,"Z":2139.3400000000001,"Woreda_Nam":"Aksum","Distance_A":0,"Attra_Type":"Palace","NEAR_FID":12,"NEAR_DIST":383.313793245,"Nomber":0,"Site_name":" ","Type":" ","X":0,"Y":0,"Altitude":0,"Descriptio":" ","Local_Name":" ","Location_W":" ","Settl_Type":" ","RoadRef_Pn":" ","Asphalt":0,"Gravel":0,"Foot_path":0,"Total_km":0,"direction":" ","Remarks":" "}},{"type":"Feature","id":68,"geometry":{"type":"Point","coordinates":[469167.59100000001,1561924.3269999996,2144.5,null]},"properties":{"FID":68,"OBJECTID_1":69,"OBJECTID":93,"SN":0,"Name":"Enda Michael Palace","X_Easting":469167.59100000001,"Y_Northing":1561924.327,"Z":2144.5,"Woreda_Nam":"Aksum","Distance_A":0,"Attra_Type":"Palace","NEAR_FID":12,"NEAR_DIST":565.56103793,"Nomber":0,"Site_name":" ","Type":" ","X":0,"Y":0,"Altitude":0,"Descriptio":" ","Local_Name":" ","Location_W":" ","Settl_Type":" ","RoadRef_Pn":" ","Asphalt":0,"Gravel":0,"Foot_path":0,"Total_km":0,"direction":" ","Remarks":" "}},{"type":"Feature","id":69,"geometry":{"type":"Point","coordinates":[468980.32600000035,1561819.0130000003,2147.1000000000058,null]},"properties":{"FID":69,"OBJECTID_1":70,"OBJECTID":94,"SN":0,"Name":"Adi Kilte (Old town)","X_Easting":468980.326,"Y_Northing":1561819.013,"Z":2147.0999999999999,"Woreda_Nam":"Aksum","Distance_A":0,"Attra_Type":"Historical","NEAR_FID":12,"NEAR_DIST":481.40829890999998,"Nomber":0,"Site_name":" ","Type":" ","X":0,"Y":0,"Altitude":0,"Descriptio":" ","Local_Name":" ","Location_W":" ","Settl_Type":" ","RoadRef_Pn":" ","Asphalt":0,"Gravel":0,"Foot_path":0,"Total_km":0,"direction":" ","Remarks":" "}},{"type":"Feature","id":70,"geometry":{"type":"Point","coordinates":[468315.39699999988,1561670.9900000002,2131.8600000000006,null]},"properties":{"FID":70,"OBJECTID_1":71,"OBJECTID":96,"SN":0,"Name":"Gudit Field","X_Easting":468315.397,"Y_Northing":1561670.99,"Z":2131.8600000000001,"Woreda_Nam":"Aksum","Distance_A":0,"Attra_Type":"Historical","NEAR_FID":10,"NEAR_DIST":200.99459239500001,"Nomber":0,"Site_name":" ","Type":" ","X":0,"Y":0,"Altitude":0,"Descriptio":" ","Local_Name":" ","Location_W":" ","Settl_Type":" ","RoadRef_Pn":" ","Asphalt":0,"Gravel":0,"Foot_path":0,"Total_km":0,"direction":" ","Remarks":" "}},{"type":"Feature","id":71,"geometry":{"type":"Point","coordinates":[465509.75700000022,1560387.6140000001,2136.0899999999965,null]},"properties":{"FID":71,"OBJECTID_1":72,"OBJECTID":100,"SN":0,"Name":"Gobo Dura Site","X_Easting":465509.75699999998,"Y_Northing":1560387.6140000001,"Z":2136.0900000000001,"Woreda_Nam":"Aksum","Distance_A":0,"Attra_Type":"Historical","NEAR_FID":10,"NEAR_DIST":646.24333318599997,"Nomber":0,"Site_name":" ","Type":" ","X":0,"Y":0,"Altitude":0,"Descriptio":" ","Local_Name":" ","Location_W":" ","Settl_Type":" ","RoadRef_Pn":" ","Asphalt":0,"Gravel":0,"Foot_path":0,"Total_km":0,"direction":" ","Remarks":" "}},{"type":"Feature","id":72,"geometry":{"type":"Point","coordinates":[465649.78000000026,1560699.7329999991,2165.3999999999942,null]},"properties":{"FID":72,"OBJECTID_1":73,"OBJECTID":101,"SN":0,"Name":"Rock Art Site","X_Easting":465649.78000000003,"Y_Northing":1560699.733,"Z":2165.4000000000001,"Woreda_Nam":"Aksum","Distance_A":0,"Attra_Type":" ","NEAR_FID":10,"NEAR_DIST":712.64490778699997,"Nomber":0,"Site_name":" ","Type":" ","X":0,"Y":0,"Altitude":0,"Descriptio":" ","Local_Name":" ","Location_W":" ","Settl_Type":" ","RoadRef_Pn":" ","Asphalt":0,"Gravel":0,"Foot_path":0,"Total_km":0,"direction":" ","Remarks":" "}},{"type":"Feature","id":73,"geometry":{"type":"Point","coordinates":[466308.5290000001,1562653.1280000005,2187.4400000000023,null]},"properties":{"FID":73,"OBJECTID_1":74,"OBJECTID":102,"SN":0,"Name":"Gual Gobo Dura","X_Easting":466308.52899999998,"Y_Northing":1562653.128,"Z":2187.4400000000001,"Woreda_Nam":"Aksum","Distance_A":0,"Attra_Type":"Historical","NEAR_FID":10,"NEAR_DIST":1838.09813396,"Nomber":0,"Site_name":" ","Type":" ","X":0,"Y":0,"Altitude":0,"Descriptio":" ","Local_Name":" ","Location_W":" ","Settl_Type":" ","RoadRef_Pn":" ","Asphalt":0,"Gravel":0,"Foot_path":0,"Total_km":0,"direction":" ","Remarks":" "}},{"type":"Feature","id":74,"geometry":{"type":"Point","coordinates":[470779.21600000001,1563475.0749999993,2244.3800000000047,null]},"properties":{"FID":74,"OBJECTID_1":75,"OBJECTID":103,"SN":0,"Name":"Kaleb and G/meskel's Tomb","X_Easting":470779.21600000001,"Y_Northing":1563475.075,"Z":2244.3800000000001,"Woreda_Nam":"Aksum","Distance_A":0,"Attra_Type":"Archaeological","NEAR_FID":12,"NEAR_DIST":2166.7199644799998,"Nomber":0,"Site_name":" ","Type":" ","X":0,"Y":0,"Altitude":0,"Descriptio":" ","Local_Name":" ","Location_W":" ","Settl_Type":" ","RoadRef_Pn":" ","Asphalt":0,"Gravel":0,"Foot_path":0,"Total_km":0,"direction":" ","Remarks":" "}},{"type":"Feature","id":75,"geometry":{"type":"Point","coordinates":[469807.09999999963,1564436.9969999995,2173.5399999999936,null]},"properties":{"FID":75,"OBJECTID_1":76,"OBJECTID":104,"SN":0,"Name":"Mai Kirah","X_Easting":469807.09999999998,"Y_Northing":1564436.997,"Z":2173.54,"Woreda_Nam":"Aksum","Distance_A":0,"Attra_Type":"Church","NEAR_FID":12,"NEAR_DIST":3051.53275945,"Nomber":0,"Site_name":" ","Type":" ","X":0,"Y":0,"Altitude":0,"Descriptio":" ","Local_Name":" ","Location_W":" ","Settl_Type":" ","RoadRef_Pn":" ","Asphalt":0,"Gravel":0,"Foot_path":0,"Total_km":0,"direction":" ","Remarks":" "}},{"type":"Feature","id":76,"geometry":{"type":"Point","coordinates":[472284.29499999993,1562644.9389999993,2275.6699999999983,null]},"properties":{"FID":76,"OBJECTID_1":77,"OBJECTID":105,"SN":0,"Name":"Abba Penteleon Monastery","X_Easting":472284.29499999998,"Y_Northing":1562644.939,"Z":2275.6700000000001,"Woreda_Nam":"Aksum","Distance_A":0,"Attra_Type":"Monastry","NEAR_FID":12,"NEAR_DIST":1345.21039105,"Nomber":0,"Site_name":" ","Type":" ","X":0,"Y":0,"Altitude":0,"Descriptio":" ","Local_Name":" ","Location_W":" ","Settl_Type":" ","RoadRef_Pn":" ","Asphalt":0,"Gravel":0,"Foot_path":0,"Total_km":0,"direction":" ","Remarks":" "}},{"type":"Feature","id":77,"geometry":{"type":"Point","coordinates":[471202.45199999958,1563233.5270000007,2347.3600000000006,null]},"properties":{"FID":77,"OBJECTID_1":78,"OBJECTID":106,"SN":0,"Name":"Abba Liqanos Monastery","X_Easting":471202.45199999999,"Y_Northing":1563233.527,"Z":2347.3600000000001,"Woreda_Nam":"Aksum","Distance_A":0,"Attra_Type":"Monastry","NEAR_FID":12,"NEAR_DIST":1913.3486732199999,"Nomber":0,"Site_name":" ","Type":" ","X":0,"Y":0,"Altitude":0,"Descriptio":" ","Local_Name":" ","Location_W":" ","Settl_Type":" ","RoadRef_Pn":" ","Asphalt":0,"Gravel":0,"Foot_path":0,"Total_km":0,"direction":" ","Remarks":" "}},{"type":"Feature","id":78,"geometry":{"type":"Point","coordinates":[469746.44000000041,1561913.9230000004,2153.4400000000023,null]},"properties":{"FID":78,"OBJECTID_1":79,"OBJECTID":108,"SN":0,"Name":"Enda Rasi Hand Craft Center","X_Easting":469746.44,"Y_Northing":1561913.923,"Z":2153.4400000000001,"Woreda_Nam":"Aksum","Distance_A":0,"Attra_Type":"Historical","NEAR_FID":12,"NEAR_DIST":551.58559353700002,"Nomber":0,"Site_name":" ","Type":" ","X":0,"Y":0,"Altitude":0,"Descriptio":" ","Local_Name":" ","Location_W":" ","Settl_Type":" ","RoadRef_Pn":" ","Asphalt":0,"Gravel":0,"Foot_path":0,"Total_km":0,"direction":" ","Remarks":" "}},{"type":"Feature","id":79,"geometry":{"type":"Point","coordinates":[468012.89900000021,1553632.1620000005,2015.929999999993,null]},"properties":{"FID":79,"OBJECTID_1":80,"OBJECTID":109,"SN":0,"Name":"Abaa Libanos Monastery","X_Easting":468012.89899999998,"Y_Northing":1553632.162,"Z":2015.9300000000001,"Woreda_Nam":"Aksum","Distance_A":0,"Attra_Type":"Monastery","NEAR_FID":2,"NEAR_DIST":5078.9092399700003,"Nomber":0,"Site_name":" ","Type":" ","X":0,"Y":0,"Altitude":0,"Descriptio":" ","Local_Name":" ","Location_W":" ","Settl_Type":" ","RoadRef_Pn":" ","Asphalt":0,"Gravel":0,"Foot_path":0,"Total_km":0,"direction":" ","Remarks":" "}},{"type":"Feature","id":80,"geometry":{"type":"Point","coordinates":[468896.93400000036,1566112.3579999991,2018.570000000007,null]},"properties":{"FID":80,"OBJECTID_1":81,"OBJECTID":110,"SN":0,"Name":"Adi Tsehafi Quarry site","X_Easting":468896.93400000001,"Y_Northing":1566112.358,"Z":2018.5699999999999,"Woreda_Nam":" Aksum","Distance_A":0,"Attra_Type":"Archaeological","NEAR_FID":10,"NEAR_DIST":4676.4469276,"Nomber":0,"Site_name":" ","Type":" ","X":0,"Y":0,"Altitude":0,"Descriptio":" ","Local_Name":" ","Location_W":" ","Settl_Type":" ","RoadRef_Pn":" ","Asphalt":0,"Gravel":0,"Foot_path":0,"Total_km":0,"direction":" ","Remarks":" "}},{"type":"Feature","id":81,"geometry":{"type":"Point","coordinates":[470091.27400000021,1562983.4700000007,2172.4900000000052,null]},"properties":{"FID":81,"OBJECTID_1":82,"OBJECTID":111,"SN":0,"Name":"Northern Ezana Inscription","X_Easting":470091.27399999998,"Y_Northing":1562983.47,"Z":2172.4899999999998,"Woreda_Nam":"Aksum","Distance_A":0,"Attra_Type":"Historical","NEAR_FID":12,"NEAR_DIST":1672.41120383,"Nomber":0,"Site_name":" ","Type":" ","X":0,"Y":0,"Altitude":0,"Descriptio":" ","Local_Name":" ","Location_W":" ","Settl_Type":" ","RoadRef_Pn":" ","Asphalt":0,"Gravel":0,"Foot_path":0,"Total_km":0,"direction":" ","Remarks":" "}},{"type":"Feature","id":82,"geometry":{"type":"Point","coordinates":[463157.53500000015,1563326.6860000007,2194.8500000000058,null]},"properties":{"FID":82,"OBJECTID_1":83,"OBJECTID":112,"SN":0,"Name":"Eyerawi Michael Monastery","X_Easting":463157.53499999997,"Y_Northing":1563326.686,"Z":2194.8499999999999,"Woreda_Nam":"Aksum","Distance_A":0,"Attra_Type":"Monastery","NEAR_FID":10,"NEAR_DIST":3401.3004039500001,"Nomber":0,"Site_name":" ","Type":" ","X":0,"Y":0,"Altitude":0,"Descriptio":" ","Local_Name":" ","Location_W":" ","Settl_Type":" ","RoadRef_Pn":" ","Asphalt":0,"Gravel":0,"Foot_path":0,"Total_km":0,"direction":" ","Remarks":" "}},{"type":"Feature","id":83,"geometry":{"type":"Point","coordinates":[469656.92300000042,1562316.932,2157.1999999999971,null]},"properties":{"FID":83,"OBJECTID_1":84,"OBJECTID":113,"SN":0,"Name":"Main Steale Field","X_Easting":469656.92300000001,"Y_Northing":1562316.932,"Z":2157.1999999999998,"Woreda_Nam":"Aksum","Distance_A":0,"Attra_Type":"Archaeological","NEAR_FID":12,"NEAR_DIST":928.08785389800005,"Nomber":0,"Site_name":" ","Type":" ","X":0,"Y":0,"Altitude":0,"Descriptio":" ","Local_Name":" ","Location_W":" ","Settl_Type":" ","RoadRef_Pn":" ","Asphalt":0,"Gravel":0,"Foot_path":0,"Total_km":0,"direction":" ","Remarks":" "}},{"type":"Feature","id":84,"geometry":{"type":"Point","coordinates":[469474.67399999965,1562145.7249999996,2134.6999999999971,null]},"properties":{"FID":84,"OBJECTID_1":85,"OBJECTID":114,"SN":0,"Name":"Bete Ketine","X_Easting":469474.674,"Y_Northing":1562145.7250000001,"Z":2134.6999999999998,"Woreda_Nam":"Aksum","Distance_A":0,"Attra_Type":"Historical","NEAR_FID":12,"NEAR_DIST":748.099373012,"Nomber":0,"Site_name":" ","Type":" ","X":0,"Y":0,"Altitude":0,"Descriptio":" ","Local_Name":" ","Location_W":" ","Settl_Type":" ","RoadRef_Pn":" ","Asphalt":0,"Gravel":0,"Foot_path":0,"Total_km":0,"direction":" ","Remarks":" "}},{"type":"Feature","id":85,"geometry":{"type":"Point","coordinates":[469503.25100000016,1562124.8609999996,2147.1999999999971,null]},"properties":{"FID":85,"OBJECTID_1":86,"OBJECTID":115,"SN":0,"Name":"Murade Kalle","X_Easting":469503.25099999999,"Y_Northing":1562124.861,"Z":2147.1999999999998,"Woreda_Nam":"Aksum","Distance_A":0,"Attra_Type":"Historical","NEAR_FID":12,"NEAR_DIST":726.05421307300003,"Nomber":0,"Site_name":" ","Type":" ","X":0,"Y":0,"Altitude":0,"Descriptio":" ","Local_Name":" ","Location_W":" ","Settl_Type":" ","RoadRef_Pn":" ","Asphalt":0,"Gravel":0,"Foot_path":0,"Total_km":0,"direction":" ","Remarks":" "}},{"type":"Feature","id":86,"geometry":{"type":"Point","coordinates":[469744.43800000008,1562199.1989999991,2145.2400000000052,null]},"properties":{"FID":86,"OBJECTID_1":87,"OBJECTID":118,"SN":0,"Name":"Tsion Mariam Church","X_Easting":469744.43800000002,"Y_Northing":1562199.199,"Z":2145.2399999999998,"Woreda_Nam":"Aksum","Distance_A":0,"Attra_Type":"Monastery","NEAR_FID":12,"NEAR_DIST":829.74826561299994,"Nomber":0,"Site_name":" ","Type":" ","X":0,"Y":0,"Altitude":0,"Descriptio":" ","Local_Name":" ","Location_W":" ","Settl_Type":" ","RoadRef_Pn":" ","Asphalt":0,"Gravel":0,"Foot_path":0,"Total_km":0,"direction":" ","Remarks":" "}},{"type":"Feature","id":87,"geometry":{"type":"Point","coordinates":[466872,1566374,2133,null]},"properties":{"FID":87,"OBJECTID_1":88,"OBJECTID":119,"SN":0,"Name":"Adi Tsehafi rock Cut Cistern 1","X_Easting":466872,"Y_Northing":1566374,"Z":2133,"Woreda_Nam":"Laelay Machew","Distance_A":0,"Attra_Type":"Historical","NEAR_FID":10,"NEAR_DIST":5019.7762407700002,"Nomber":0,"Site_name":" ","Type":" ","X":0,"Y":0,"Altitude":0,"Descriptio":" ","Local_Name":" ","Location_W":" ","Settl_Type":" ","RoadRef_Pn":" ","Asphalt":0,"Gravel":0,"Foot_path":0,"Total_km":0,"direction":" ","Remarks":" "}},{"type":"Feature","id":88,"geometry":{"type":"Point","coordinates":[468666,1562991,2284,null]},"properties":{"FID":88,"OBJECTID_1":89,"OBJECTID":120,"SN":0,"Name":"BeteGergios Church","X_Easting":468666,"Y_Northing":1562991,"Z":2284,"Woreda_Nam":"Aksum","Distance_A":0,"Attra_Type":"Church","NEAR_FID":10,"NEAR_DIST":1566.48327563,"Nomber":0,"Site_name":" ","Type":" ","X":0,"Y":0,"Altitude":0,"Descriptio":" ","Local_Name":" ","Location_W":" ","Settl_Type":" ","RoadRef_Pn":" ","Asphalt":0,"Gravel":0,"Foot_path":0,"Total_km":0,"direction":" ","Remarks":" "}},{"type":"Feature","id":89,"geometry":{"type":"Point","coordinates":[477555.58999999985,1556227.5099999998,2110,null]},"properties":{"FID":89,"OBJECTID_1":90,"OBJECTID":122,"SN":0,"Name":"Hawelti Melazo","X_Easting":477555.59000000003,"Y_Northing":1556227.51,"Z":2110,"Woreda_Nam":"Laelay Machew","Distance_A":0,"Attra_Type":"Archaeological","NEAR_FID":0,"NEAR_DIST":513.43464169699996,"Nomber":0,"Site_name":" ","Type":" ","X":0,"Y":0,"Altitude":0,"Descriptio":" ","Local_Name":" ","Location_W":" ","Settl_Type":" ","RoadRef_Pn":" ","Asphalt":0,"Gravel":0,"Foot_path":0,"Total_km":0,"direction":" ","Remarks":" "}},{"type":"Feature","id":90,"geometry":{"type":"Point","coordinates":[475942,1551067,2098,null]},"properties":{"FID":90,"OBJECTID_1":91,"OBJECTID":123,"SN":0,"Name":"Mahibere Tsedikan Deguea","X_Easting":475942,"Y_Northing":1551067,"Z":2098,"Woreda_Nam":"Dego","Distance_A":0,"Attra_Type":"Church","NEAR_FID":1,"NEAR_DIST":332.025543814,"Nomber":0,"Site_name":" ","Type":" ","X":0,"Y":0,"Altitude":0,"Descriptio":" ","Local_Name":" ","Location_W":" ","Settl_Type":" ","RoadRef_Pn":" ","Asphalt":0,"Gravel":0,"Foot_path":0,"Total_km":0,"direction":" ","Remarks":" "}},{"type":"Feature","id":91,"geometry":{"type":"Point","coordinates":[470059.68699999992,1561978.0830000006,2245.570000000007,null]},"properties":{"FID":91,"OBJECTID_1":92,"OBJECTID":124,"SN":0,"Name":"Mai Kuho","X_Easting":470059.68699999998,"Y_Northing":1561978.0830000001,"Z":2245.5700000000002,"Woreda_Nam":"Aksum","Distance_A":0,"Attra_Type":"Historical","NEAR_FID":12,"NEAR_DIST":693.816297943,"Nomber":0,"Site_name":" ","Type":" ","X":0,"Y":0,"Altitude":0,"Descriptio":" ","Local_Name":" ","Location_W":" ","Settl_Type":" ","RoadRef_Pn":" ","Asphalt":0,"Gravel":0,"Foot_path":0,"Total_km":0,"direction":" ","Remarks":" "}},{"type":"Feature","id":92,"geometry":{"type":"Point","coordinates":[470289.06799999997,1562995.9289999995,2200.3600000000006,null]},"properties":{"FID":92,"OBJECTID_1":93,"OBJECTID":125,"SN":0,"Name":"Kidanemihret Site","X_Easting":470289.06800000003,"Y_Northing":1562995.929,"Z":2200.3600000000001,"Woreda_Nam":"Aksum","Distance_A":0,"Attra_Type":"Church","NEAR_FID":12,"NEAR_DIST":1700.8066182699999,"Nomber":0,"Site_name":" ","Type":" ","X":0,"Y":0,"Altitude":0,"Descriptio":" ","Local_Name":" ","Location_W":" ","Settl_Type":" ","RoadRef_Pn":" ","Asphalt":0,"Gravel":0,"Foot_path":0,"Total_km":0,"direction":" ","Remarks":" "}},{"type":"Feature","id":93,"geometry":{"type":"Point","coordinates":[369868.71160000004,1560950.9077000003,0,null]},"properties":{"FID":93,"OBJECTID_1":94,"OBJECTID":0,"SN":0,"Name":" ","X_Easting":0,"Y_Northing":0,"Z":0,"Woreda_Nam":" ","Distance_A":0,"Attra_Type":" ","NEAR_FID":0,"NEAR_DIST":0,"Nomber":6,"Site_name":"Dedebit","Type":"Historical","X":369866,"Y":1560812,"Altitude":871,"Descriptio":"It is a place where the popular mass struggle against the military dictators has been launched, and was the base for the first freedom fighters","Local_Name":"Dedebit","Location_W":" ","Settl_Type":"Village","RoadRef_Pn":" ","Asphalt":0,"Gravel":0,"Foot_path":0,"Total_km":0,"direction":" ","Remarks":" "}},{"type":"Feature","id":94,"geometry":{"type":"Point","coordinates":[367683.77419999987,1592314.4886000007,0,null]},"properties":{"FID":94,"OBJECTID_1":95,"OBJECTID":0,"SN":0,"Name":" ","X_Easting":0,"Y_Northing":0,"Z":0,"Woreda_Nam":" ","Distance_A":0,"Attra_Type":" ","NEAR_FID":0,"NEAR_DIST":0,"Nomber":8,"Site_name":"Sheraro Amphi-Theatre","Type":"Historical","X":367681,"Y":1592173,"Altitude":1035,"Descriptio":" ","Local_Name":" ","Location_W":" ","Settl_Type":" ","RoadRef_Pn":" ","Asphalt":0,"Gravel":0,"Foot_path":0,"Total_km":0,"direction":" ","Remarks":" "}},{"type":"Feature","id":95,"geometry":{"type":"Point","coordinates":[355661.98639999982,1524131.8532999996,0,null]},"properties":{"FID":95,"OBJECTID_1":96,"OBJECTID":0,"SN":0,"Name":" ","X_Easting":0,"Y_Northing":0,"Z":0,"Woreda_Nam":" ","Distance_A":0,"Attra_Type":" ","NEAR_FID":0,"NEAR_DIST":0,"Nomber":13,"Site_name":"Mulu Ancient Palace","Type":"Historical","X":355659,"Y":1523996,"Altitude":940,"Descriptio":"There is an ancient palace with a Gonderine style of building","Local_Name":" ","Location_W":" ","Settl_Type":" ","RoadRef_Pn":" ","Asphalt":0,"Gravel":0,"Foot_path":0,"Total_km":0,"direction":" ","Remarks":" "}},{"type":"Feature","id":96,"geometry":{"type":"Point","coordinates":[440775.22910000011,1541577.3336999994,0,null]},"properties":{"FID":96,"OBJECTID_1":97,"OBJECTID":0,"SN":0,"Name":" ","X_Easting":0,"Y_Northing":0,"Z":0,"Woreda_Nam":" ","Distance_A":0,"Attra_Type":" ","NEAR_FID":0,"NEAR_DIST":0,"Nomber":44,"Site_name":"Mariam Debre Kerbe","Type":"Built Church","X":440774,"Y":1541440,"Altitude":1850,"Descriptio":"Monastic life","Local_Name":"Debrekerbe","Location_W":" ","Settl_Type":"Village","RoadRef_Pn":" ","Asphalt":0,"Gravel":0,"Foot_path":0,"Total_km":0,"direction":" ","Remarks":" "}},{"type":"Feature","id":97,"geometry":{"type":"Point","coordinates":[425277.55730000045,1562902.0918000005,0,null]},"properties":{"FID":97,"OBJECTID_1":98,"OBJECTID":0,"SN":0,"Name":" ","X_Easting":0,"Y_Northing":0,"Z":0,"Woreda_Nam":" ","Distance_A":0,"Attra_Type":" ","NEAR_FID":0,"NEAR_DIST":0,"Nomber":45,"Site_name":"Giorgis Lekamba","Type":"Built Church","X":425276,"Y":1562763,"Altitude":1250,"Descriptio":"A built church constructed in","Local_Name":"Arada","Location_W":" ","Settl_Type":" ","RoadRef_Pn":" ","Asphalt":0,"Gravel":0,"Foot_path":0,"Total_km":0,"direction":" ","Remarks":" "}},{"type":"Feature","id":98,"geometry":{"type":"Point","coordinates":[429266.47609999962,1569739.6568999998,0,null]},"properties":{"FID":98,"OBJECTID_1":99,"OBJECTID":0,"SN":0,"Name":" ","X_Easting":0,"Y_Northing":0,"Z":0,"Woreda_Nam":" ","Distance_A":0,"Attra_Type":" ","NEAR_FID":0,"NEAR_DIST":0,"Nomber":46,"Site_name":"Woibela Mariam","Type":"Built Church","X":429265,"Y":1569600,"Altitude":1200,"Descriptio":"A built church constructed in","Local_Name":"Semema","Location_W":" ","Settl_Type":" ","RoadRef_Pn":" ","Asphalt":0,"Gravel":0,"Foot_path":0,"Total_km":0,"direction":" ","Remarks":" "}},{"type":"Feature","id":99,"geometry":{"type":"Point","coordinates":[403719.99260000046,1526502.0730000008,0,null]},"properties":{"FID":99,"OBJECTID_1":100,"OBJECTID":0,"SN":0,"Name":" ","X_Easting":0,"Y_Northing":0,"Z":0,"Woreda_Nam":" ","Distance_A":0,"Attra_Type":" ","NEAR_FID":0,"NEAR_DIST":0,"Nomber":55,"Site_name":"Debre Abay","Type":"Monasteries","X":403718,"Y":1526366,"Altitude":1520,"Descriptio":"Monastic life and believed to have been built in","Local_Name":"Debre Abay","Location_W":" ","Settl_Type":"Village","RoadRef_Pn":"Shire-Gondar","Asphalt":0,"Gravel":0,"Foot_path":0,"Total_km":23,"direction":"Endaba Guna","Remarks":"9 km from Endaba Guna and 12 km                                               from the main road Shire-Gondar."}},{"type":"Feature","id":100,"geometry":{"type":"Point","coordinates":[432873.3984000003,1560973.9349000007,0,null]},"properties":{"FID":100,"OBJECTID_1":101,"OBJECTID":0,"SN":0,"Name":" ","X_Easting":0,"Y_Northing":0,"Z":0,"Woreda_Nam":" ","Distance_A":0,"Attra_Type":" ","NEAR_FID":0,"NEAR_DIST":0,"Nomber":56,"Site_name":"Abune Samuel /Koyetsa/","Type":"Monasteries","X":432872,"Y":1560835,"Altitude":2382,"Descriptio":"A square and circular church noted for its fine murals, a solid podium that may be of Axumite period","Local_Name":"Koyetsa","Location_W":" ","Settl_Type":" ","RoadRef_Pn":" ","Asphalt":0,"Gravel":0,"Foot_path":0,"Total_km":0,"direction":" ","Remarks":" "}},{"type":"Feature","id":101,"geometry":{"type":"Point","coordinates":[429355.47429999989,1569664.6508000009,0,null]},"properties":{"FID":101,"OBJECTID_1":102,"OBJECTID":0,"SN":0,"Name":" ","X_Easting":0,"Y_Northing":0,"Z":0,"Woreda_Nam":" ","Distance_A":0,"Attra_Type":" ","NEAR_FID":0,"NEAR_DIST":0,"Nomber":57,"Site_name":"Webla Mariam Monastery(Semema)","Type":"Monasteries","X":429354,"Y":1569525,"Altitude":1883,"Descriptio":"Monastic life, treasures","Local_Name":"Semema","Location_W":" ","Settl_Type":" ","RoadRef_Pn":" ","Asphalt":0,"Gravel":0,"Foot_path":0,"Total_km":0,"direction":" ","Remarks":" "}},{"type":"Feature","id":102,"geometry":{"type":"Point","coordinates":[385825.36259999964,1525447.9780999999,0,null]},"properties":{"FID":102,"OBJECTID_1":103,"OBJECTID":0,"SN":0,"Name":" ","X_Easting":0,"Y_Northing":0,"Z":0,"Woreda_Nam":" ","Distance_A":0,"Attra_Type":" ","NEAR_FID":0,"NEAR_DIST":0,"Nomber":59,"Site_name":"Waldiba","Type":"Monasteries","X":385823,"Y":1525312,"Altitude":1325,"Descriptio":"Monastic life, treasure, and painting","Local_Name":"Waldiba","Location_W":" ","Settl_Type":" ","RoadRef_Pn":" ","Asphalt":0,"Gravel":0,"Foot_path":0,"Total_km":0,"direction":" ","Remarks":" "}},{"type":"Feature","id":103,"geometry":{"type":"Point","coordinates":[416536.73890000023,1560987.9310999997,0,null]},"properties":{"FID":103,"OBJECTID_1":104,"OBJECTID":0,"SN":0,"Name":" ","X_Easting":0,"Y_Northing":0,"Z":0,"Woreda_Nam":" ","Distance_A":0,"Attra_Type":" ","NEAR_FID":0,"NEAR_DIST":0,"Nomber":71,"Site_name":"Kidane Mihret Adi Bozut","Type":"Monasteries","X":416535,"Y":1560849,"Altitude":1924,"Descriptio":"Monastic life, Rock painting and Archaeological site","Local_Name":" ","Location_W":" ","Settl_Type":" ","RoadRef_Pn":" ","Asphalt":0,"Gravel":0,"Foot_path":0,"Total_km":0,"direction":" ","Remarks":" "}},{"type":"Feature","id":104,"geometry":{"type":"Point","coordinates":[429355.47429999989,1569664.6508000009,0,null]},"properties":{"FID":104,"OBJECTID_1":105,"OBJECTID":0,"SN":0,"Name":" ","X_Easting":0,"Y_Northing":0,"Z":0,"Woreda_Nam":" ","Distance_A":0,"Attra_Type":" ","NEAR_FID":0,"NEAR_DIST":0,"Nomber":89,"Site_name":"Webla Mariam Monastery(Semema)","Type":"Archaeological","X":429354,"Y":1569525,"Altitude":1954,"Descriptio":"Pottery and lithic site, dressed stela and base plate","Local_Name":"Semema","Location_W":" ","Settl_Type":"Village","RoadRef_Pn":"Shire-Semema","Asphalt":0,"Gravel":0,"Foot_path":0,"Total_km":19,"direction":"Semema","Remarks":"19km"}},{"type":"Feature","id":105,"geometry":{"type":"Point","coordinates":[427008.52029999997,1559897.8443999998,0,null]},"properties":{"FID":105,"OBJECTID_1":106,"OBJECTID":0,"SN":0,"Name":" ","X_Easting":0,"Y_Northing":0,"Z":0,"Woreda_Nam":" ","Distance_A":0,"Attra_Type":" ","NEAR_FID":0,"NEAR_DIST":0,"Nomber":91,"Site_name":"Adi Nekasi Adgi(Mai Adrasha)","Type":"Archaeological","X":427007,"Y":1559759,"Altitude":1934,"Descriptio":"Stela, Proto Axumite Ceramics","Local_Name":"Mai Adrasha","Location_W":" ","Settl_Type":"Village","RoadRef_Pn":"Shire-Axum","Asphalt":0,"Gravel":0,"Foot_path":0,"Total_km":3,"direction":"Mai Adrasha","Remarks":"0.40m/0:05"}},{"type":"Feature","id":106,"geometry":{"type":"Point","coordinates":[427288.51489999983,1561389.9677000009,0,null]},"properties":{"FID":106,"OBJECTID_1":107,"OBJECTID":0,"SN":0,"Name":" ","X_Easting":0,"Y_Northing":0,"Z":0,"Woreda_Nam":" ","Distance_A":0,"Attra_Type":" ","NEAR_FID":0,"NEAR_DIST":0,"Nomber":92,"Site_name":"Adi Kumbro(Mai Adrasha)","Type":"Archaeological","X":427287,"Y":1561251,"Altitude":1948,"Descriptio":"Middle Stone age Lithic site at the foothill of Adi Agrad","Local_Name":"Mai Adrasha","Location_W":" ","Settl_Type":"Village","RoadRef_Pn":"Shire-Axum","Asphalt":0,"Gravel":0,"Foot_path":0,"Total_km":3,"direction":"Mai Adrasha","Remarks":"1km/0:20"}},{"type":"Feature","id":107,"geometry":{"type":"Point","coordinates":[427081.51889999956,1560147.8651000001,0,null]},"properties":{"FID":107,"OBJECTID_1":108,"OBJECTID":0,"SN":0,"Name":" ","X_Easting":0,"Y_Northing":0,"Z":0,"Woreda_Nam":" ","Distance_A":0,"Attra_Type":" ","NEAR_FID":0,"NEAR_DIST":0,"Nomber":93,"Site_name":"Beles-Adi Nekas Addi(Mai Adrasha","Type":"Archaeological","X":427080,"Y":1560009,"Altitude":1945,"Descriptio":"Axumite site consisting of different Ceramics","Local_Name":"Mai Adrasha","Location_W":" ","Settl_Type":"Village","RoadRef_Pn":"Shire-Axum","Asphalt":0,"Gravel":0,"Foot_path":0,"Total_km":3,"direction":"Mai Adrasha","Remarks":"5km/1:40"}},{"type":"Feature","id":108,"geometry":{"type":"Point","coordinates":[427100.51999999955,1565113.2748000007,0,null]},"properties":{"FID":108,"OBJECTID_1":109,"OBJECTID":0,"SN":0,"Name":" ","X_Easting":0,"Y_Northing":0,"Z":0,"Woreda_Nam":" ","Distance_A":0,"Attra_Type":" ","NEAR_FID":0,"NEAR_DIST":0,"Nomber":94,"Site_name":"Kelkel Bahri(Mai Liham)","Type":"Archaeological","X":427099,"Y":1564974,"Altitude":2014,"Descriptio":"A pre and post Axumite Ceramics","Local_Name":"Mai Liham","Location_W":" ","Settl_Type":"Village","RoadRef_Pn":"Shire-Axum","Asphalt":0,"Gravel":0,"Foot_path":0,"Total_km":2,"direction":"Mai Liham","Remarks":"1km/0:20"}},{"type":"Feature","id":109,"geometry":{"type":"Point","coordinates":[427653.50870000012,1565914.341,0,null]},"properties":{"FID":109,"OBJECTID_1":110,"OBJECTID":0,"SN":0,"Name":" ","X_Easting":0,"Y_Northing":0,"Z":0,"Woreda_Nam":" ","Distance_A":0,"Attra_Type":" ","NEAR_FID":0,"NEAR_DIST":0,"Nomber":96,"Site_name":"Golo Ab'ur(Mai Liham)","Type":"Archaeological","X":427652,"Y":1565775,"Altitude":2013,"Descriptio":"Axumite Iron slag and other Iron working site and Ceramics","Local_Name":"Golo Ab'ur","Location_W":" ","Settl_Type":"Village","RoadRef_Pn":"Shire-Sheraro","Asphalt":0,"Gravel":0,"Foot_path":0,"Total_km":8,"direction":"Golo Ab'ur","Remarks":" "}},{"type":"Feature","id":110,"geometry":{"type":"Point","coordinates":[427029.51989999972,1559982.8513999991,0,null]},"properties":{"FID":110,"OBJECTID_1":111,"OBJECTID":0,"SN":0,"Name":" ","X_Easting":0,"Y_Northing":0,"Z":0,"Woreda_Nam":" ","Distance_A":0,"Attra_Type":" ","NEAR_FID":0,"NEAR_DIST":0,"Nomber":97,"Site_name":"Beles-Adi Nekasi Adigi(Mai Adrasha)","Type":"Archaeological","X":427028,"Y":1559844,"Altitude":1937,"Descriptio":"Cemetry and settlement site of early Axumite, Grinding stone, ceramics and stela(Extremely Important Site)","Local_Name":"Mai Adrasha","Location_W":" ","Settl_Type":"Village","RoadRef_Pn":"Shire-Axum","Asphalt":0,"Gravel":0,"Foot_path":0,"Total_km":3,"direction":"Mai Adrasha","Remarks":"40m/0:05"}},{"type":"Feature","id":111,"geometry":{"type":"Point","coordinates":[427029.51989999972,1559982.8513999991,0,null]},"properties":{"FID":111,"OBJECTID_1":112,"OBJECTID":0,"SN":0,"Name":" ","X_Easting":0,"Y_Northing":0,"Z":0,"Woreda_Nam":" ","Distance_A":0,"Attra_Type":" ","NEAR_FID":0,"NEAR_DIST":0,"Nomber":98,"Site_name":"Adi Waro(Mai Adrasha)","Type":"Archaeological","X":427028,"Y":1559844,"Altitude":1937,"Descriptio":"Early Axumite cemetry, stela and pottery","Local_Name":"Mai Adrasha","Location_W":" ","Settl_Type":"Village","RoadRef_Pn":"Shire-Axum","Asphalt":0,"Gravel":0,"Foot_path":0,"Total_km":3,"direction":"Mai Adrasha","Remarks":"15m/"}},{"type":"Feature","id":112,"geometry":{"type":"Point","coordinates":[429238.47360000014,1558940.7661000006,0,null]},"properties":{"FID":112,"OBJECTID_1":113,"OBJECTID":0,"SN":0,"Name":" ","X_Easting":0,"Y_Northing":0,"Z":0,"Woreda_Nam":" ","Distance_A":0,"Attra_Type":" ","NEAR_FID":0,"NEAR_DIST":0,"Nomber":99,"Site_name":"Kumir Emni(Mai Adrasha/Adi Gidad Border)","Type":"Archaeological","X":429237,"Y":1558802,"Altitude":2017,"Descriptio":"Post Axumite Ceramics, Late Axumite pottery","Local_Name":"Adi Gidad","Location_W":" ","Settl_Type":"Village","RoadRef_Pn":"Shire-Axum","Asphalt":0,"Gravel":0,"Foot_path":0,"Total_km":4,"direction":"Adi Gidad","Remarks":"1.5km/0:30"}},{"type":"Feature","id":113,"geometry":{"type":"Point","coordinates":[426767.52489999961,1558371.7183999997,0,null]},"properties":{"FID":113,"OBJECTID_1":114,"OBJECTID":0,"SN":0,"Name":" ","X_Easting":0,"Y_Northing":0,"Z":0,"Woreda_Nam":" ","Distance_A":0,"Attra_Type":" ","NEAR_FID":0,"NEAR_DIST":0,"Nomber":100,"Site_name":"Enda Abune Yohannes/Adi Regaw/","Type":"Archaeological","X":426766,"Y":1558233,"Altitude":1963,"Descriptio":"Stela and Lithic","Local_Name":"Adi Regaw","Location_W":" ","Settl_Type":"Village","RoadRef_Pn":"Shire-Axum","Asphalt":0,"Gravel":0,"Foot_path":0,"Total_km":4,"direction":"Adi Regaw","Remarks":"0.5km/0:10"}},{"type":"Feature","id":114,"geometry":{"type":"Point","coordinates":[428484.48849999998,1556348.5517999995,0,null]},"properties":{"FID":114,"OBJECTID_1":115,"OBJECTID":0,"SN":0,"Name":" ","X_Easting":0,"Y_Northing":0,"Z":0,"Woreda_Nam":" ","Distance_A":0,"Attra_Type":" ","NEAR_FID":0,"NEAR_DIST":0,"Nomber":101,"Site_name":"Gobo Gohalit(Adi Gidad)","Type":"Archaeological","X":428483,"Y":1556210,"Altitude":1948,"Descriptio":"Large middle stone age Lithic site and pottery","Local_Name":"Adi Gidad","Location_W":" ","Settl_Type":"Village","RoadRef_Pn":"Shire-Axum","Asphalt":0,"Gravel":0,"Foot_path":0,"Total_km":5,"direction":"Adi Gidad","Remarks":"0.5km/0:10"}},{"type":"Feature","id":115,"geometry":{"type":"Point","coordinates":[425324.55630000029,1562824.0854000002,0,null]},"properties":{"FID":115,"OBJECTID_1":116,"OBJECTID":0,"SN":0,"Name":" ","X_Easting":0,"Y_Northing":0,"Z":0,"Woreda_Nam":" ","Distance_A":0,"Attra_Type":" ","NEAR_FID":0,"NEAR_DIST":0,"Nomber":102,"Site_name":"Lehamba St. Giorgis Monastery(Mai Liham)","Type":"Archaeological","X":425323,"Y":1562685,"Altitude":2308,"Descriptio":"Tombs, Potteries and Lithics","Local_Name":"Mai Liham","Location_W":" ","Settl_Type":"Village","RoadRef_Pn":"Shire-Axum","Asphalt":0,"Gravel":0,"Foot_path":0,"Total_km":2,"direction":"Mai Liham","Remarks":"1.5km/0:30"}},{"type":"Feature","id":116,"geometry":{"type":"Point","coordinates":[422669.61160000041,1562834.0854000002,0,null]},"properties":{"FID":116,"OBJECTID_1":117,"OBJECTID":0,"SN":0,"Name":" ","X_Easting":0,"Y_Northing":0,"Z":0,"Woreda_Nam":" ","Distance_A":0,"Attra_Type":" ","NEAR_FID":0,"NEAR_DIST":0,"Nomber":104,"Site_name":"Adi Hano Arch. Site","Type":"Archaeological","X":422668,"Y":1562695,"Altitude":1919,"Descriptio":"This is a site situated beside the main road Shire-Adi Daero and there is one stele erected. Currently a mosque has been built over the site.","Local_Name":" ","Location_W":" ","Settl_Type":" ","RoadRef_Pn":" ","Asphalt":0,"Gravel":0,"Foot_path":0,"Total_km":0,"direction":" ","Remarks":" "}},{"type":"Feature","id":117,"geometry":{"type":"Point","coordinates":[418678.69409999996,1560559.8964000009,0,null]},"properties":{"FID":117,"OBJECTID_1":118,"OBJECTID":0,"SN":0,"Name":" ","X_Easting":0,"Y_Northing":0,"Z":0,"Woreda_Nam":" ","Distance_A":0,"Attra_Type":" ","NEAR_FID":0,"NEAR_DIST":0,"Nomber":105,"Site_name":"Addi Bozut Edaga RebuÆe","Type":"Archaeological","X":418677,"Y":1560421,"Altitude":1860,"Descriptio":"There are a number of stelae buried underground in which only the smallest proportion of them are visible.","Local_Name":" ","Location_W":" ","Settl_Type":" ","RoadRef_Pn":" ","Asphalt":0,"Gravel":0,"Foot_path":0,"Total_km":0,"direction":" ","Remarks":" "}},{"type":"Feature","id":118,"geometry":{"type":"Point","coordinates":[412542.83349999972,1592760.5457000006,0,null]},"properties":{"FID":118,"OBJECTID_1":119,"OBJECTID":0,"SN":0,"Name":" ","X_Easting":0,"Y_Northing":0,"Z":0,"Woreda_Nam":" ","Distance_A":0,"Attra_Type":" ","NEAR_FID":0,"NEAR_DIST":0,"Nomber":127,"Site_name":"Maj.Gen. Hayelom's Statue","Type":"Principal Monuments","X":412541,"Y":1592619,"Altitude":1822,"Descriptio":"It is a statue committed to the late Freedom fighter of TPLF: Maj. Gen. Hayelom Araya.","Local_Name":" ","Location_W":" ","Settl_Type":" ","RoadRef_Pn":" ","Asphalt":0,"Gravel":0,"Foot_path":0,"Total_km":0,"direction":" ","Remarks":" "}},{"type":"Feature","id":119,"geometry":{"type":"Point","coordinates":[363603.8459999999,1567836.4722000007,0,null]},"properties":{"FID":119,"OBJECTID_1":120,"OBJECTID":0,"SN":0,"Name":" ","X_Easting":0,"Y_Northing":0,"Z":0,"Woreda_Nam":" ","Distance_A":0,"Attra_Type":" ","NEAR_FID":0,"NEAR_DIST":0,"Nomber":130,"Site_name":"Shimelba Birds Viewing","Type":"Nature Reserves","X":363601,"Y":1567697,"Altitude":1005,"Descriptio":"There is a river that flows throughout the year and vegetation that suits to the survival of the birds","Local_Name":" ","Location_W":" ","Settl_Type":" ","RoadRef_Pn":" ","Asphalt":0,"Gravel":0,"Foot_path":0,"Total_km":0,"direction":" ","Remarks":" "}},{"type":"Feature","id":120,"geometry":{"type":"Point","coordinates":[405736.94079999998,1499734.8491999991,0,null]},"properties":{"FID":120,"OBJECTID_1":121,"OBJECTID":0,"SN":0,"Name":" ","X_Easting":0,"Y_Northing":0,"Z":0,"Woreda_Nam":" ","Distance_A":0,"Attra_Type":" ","NEAR_FID":0,"NEAR_DIST":0,"Nomber":134,"Site_name":"Emba Madre (Beati Gaewa)","Type":"Rock Art","X":405735,"Y":1499601,"Altitude":1850,"Descriptio":"It has a rock art that depicts animals","Local_Name":"Mai Tsebri","Location_W":" ","Settl_Type":"Town","RoadRef_Pn":"Shire-Gondar","Asphalt":0,"Gravel":0,"Foot_path":0,"Total_km":81,"direction":"Mai Tsebri","Remarks":" "}},{"type":"Feature","id":121,"geometry":{"type":"Point","coordinates":[416536.73890000023,1560987.9310999997,0,null]},"properties":{"FID":121,"OBJECTID_1":122,"OBJECTID":0,"SN":0,"Name":" ","X_Easting":0,"Y_Northing":0,"Z":0,"Woreda_Nam":" ","Distance_A":0,"Attra_Type":" ","NEAR_FID":0,"NEAR_DIST":0,"Nomber":135,"Site_name":"Adi Bezut","Type":"Rock Art","X":416535,"Y":1560849,"Altitude":1924,"Descriptio":"It has a rock art that depicts animals","Local_Name":" ","Location_W":" ","Settl_Type":" ","RoadRef_Pn":" ","Asphalt":0,"Gravel":0,"Foot_path":0,"Total_km":0,"direction":" ","Remarks":" "}},{"type":"Feature","id":122,"geometry":{"type":"Point","coordinates":[364771.83550000004,1592769.5242999997,0,null]},"properties":{"FID":122,"OBJECTID_1":123,"OBJECTID":0,"SN":0,"Name":" ","X_Easting":0,"Y_Northing":0,"Z":0,"Woreda_Nam":" ","Distance_A":0,"Attra_Type":" ","NEAR_FID":0,"NEAR_DIST":0,"Nomber":136,"Site_name":"Geza Meker Kunama Village","Type":"Living Culture","X":364769,"Y":1592628,"Altitude":1028,"Descriptio":"##############################################################################################################################################################################################################################################################","Local_Name":" ","Location_W":" ","Settl_Type":" ","RoadRef_Pn":" ","Asphalt":0,"Gravel":0,"Foot_path":0,"Total_km":0,"direction":" ","Remarks":" "}},{"type":"Feature","id":123,"geometry":{"type":"Point","coordinates":[242292.39589999989,1581379.4887000006,0,null]},"properties":{"FID":123,"OBJECTID_1":124,"OBJECTID":0,"SN":0,"Name":" ","X_Easting":0,"Y_Northing":0,"Z":0,"Woreda_Nam":" ","Distance_A":0,"Attra_Type":" ","NEAR_FID":0,"NEAR_DIST":0,"Nomber":174,"Site_name":"Kidane Mihret Beati Midri","Type":"Built Church","X":242287,"Y":1581239,"Altitude":625,"Descriptio":" ","Local_Name":"Humera","Location_W":" ","Settl_Type":"Town","RoadRef_Pn":"Mekelle-Humera","Asphalt":0,"Gravel":0,"Foot_path":0,"Total_km":840,"direction":"Humera","Remarks":" "}},{"type":"Feature","id":124,"geometry":{"type":"Point","coordinates":[269826.80539999995,1567753.3948999997,0,null]},"properties":{"FID":124,"OBJECTID_1":125,"OBJECTID":0,"SN":0,"Name":" ","X_Easting":0,"Y_Northing":0,"Z":0,"Woreda_Nam":" ","Distance_A":0,"Attra_Type":" ","NEAR_FID":0,"NEAR_DIST":0,"Nomber":176,"Site_name":"Kafta -Sheraro National park","Type":"Parks","X":269822,"Y":1567614,"Altitude":722,"Descriptio":"This is a forest located around the town of Sheraro and part of it has been inclosed with the Kafta-Sheraro National Park. It includes one of the nine isolated elephant populations in Ethiopia. The park is very important for it contains rich wildlife and","Local_Name":" ","Location_W":" ","Settl_Type":" ","RoadRef_Pn":" ","Asphalt":0,"Gravel":0,"Foot_path":0,"Total_km":0,"direction":" ","Remarks":" "}}]}