{"type":"FeatureCollection","features":[{"type":"Feature","id":1,"geometry":{"type":"Point","coordinates":[38.722835238000073,14.141018322000036,2208,null]},"properties":{"OBJECTID_12":1,"OBJECTID_1":1,"OBJECTID":1,"SN":1,"Name":"Me'eraf","X_Easting":470087,"Y_Northing":1563340,"Z":2208,"Woreda_Nam":"Aksum","Attra_Type":" ","NEAR_DIST":0.00059420668565864218,"Site_name":" ","Descriptio":" ","Local_Name":" ","Location_W":" ","Settl_Type":" ","RoadRef_Pn":" ","Asphalt":0,"Gravel":0,"Foot_path":0,"Total_km":0,"direction":" ","Remarks":" ","NEAR_FC":"road_Project"}},{"type":"Feature","id":2,"geometry":{"type":"Point","coordinates":[38.797620803000029,14.064689131000023,2084,null]},"properties":{"OBJECTID_12":2,"OBJECTID_1":2,"OBJECTID":2,"SN":2,"Name":"Melazo","X_Easting":478151,"Y_Northing":1554890,"Z":2084,"Woreda_Nam":"Laelay Machew","Attra_Type":"Archeological (Temple)","NEAR_DIST":0.0059581153937875702,"Site_name":" ","Descriptio":" ","Local_Name":" ","Location_W":" ","Settl_Type":" ","RoadRef_Pn":" ","Asphalt":0,"Gravel":0,"Foot_path":0,"Total_km":0,"direction":" ","Remarks":" ","NEAR_FC":"road_Project"}},{"type":"Feature","id":3,"geometry":{"type":"Point","coordinates":[38.711254631000031,14.125190586000031,2151,null]},"properties":{"OBJECTID_12":3,"OBJECTID_1":3,"OBJECTID":3,"SN":72,"Name":"Axum Town-old","X_Easting":468835,"Y_Northing":1561591,"Z":2151,"Woreda_Nam":"Aksum Adikilte","Attra_Type":"Archeological (Old town)","NEAR_DIST":0.0019458756699346489,"Site_name":" ","Descriptio":" ","Local_Name":" ","Location_W":" ","Settl_Type":" ","RoadRef_Pn":" ","Asphalt":0,"Gravel":0,"Foot_path":0,"Total_km":0,"direction":" ","Remarks":" ","NEAR_FC":"sites_Project"}},{"type":"Feature","id":4,"geometry":{"type":"Point","coordinates":[38.729461383000057,14.147825306000072,2184,null]},"properties":{"OBJECTID_12":4,"OBJECTID_1":4,"OBJECTID":4,"SN":73,"Name":"Berik Awdi","X_Easting":470803,"Y_Northing":1564092,"Z":2184,"Woreda_Nam":" ","Attra_Type":" ","NEAR_DIST":0.0055824478191743524,"Site_name":" ","Descriptio":" ","Local_Name":" ","Location_W":" ","Settl_Type":" ","RoadRef_Pn":" ","Asphalt":0,"Gravel":0,"Foot_path":0,"Total_km":0,"direction":" ","Remarks":" ","NEAR_FC":"sites_Project"}},{"type":"Feature","id":5,"geometry":{"type":"Point","coordinates":[38.74095049500005,14.115612935000058,2116,null]},"properties":{"OBJECTID_12":5,"OBJECTID_1":5,"OBJECTID":5,"SN":74,"Name":"Hamed Gebez","X_Easting":472039,"Y_Northing":1560528,"Z":2116,"Woreda_Nam":"Aksum","Attra_Type":"Archeological","NEAR_DIST":0.0069771106432923924,"Site_name":" ","Descriptio":" ","Local_Name":" ","Location_W":" ","Settl_Type":" ","RoadRef_Pn":" ","Asphalt":0,"Gravel":0,"Foot_path":0,"Total_km":0,"direction":" ","Remarks":" ","NEAR_FC":"road_Project"}},{"type":"Feature","id":6,"geometry":{"type":"Point","coordinates":[38.692140933000076,14.166542036000067,2134,null]},"properties":{"OBJECTID_12":6,"OBJECTID_1":6,"OBJECTID":6,"SN":75,"Name":"Adi Tsehafi arbaetu ensisa","X_Easting":466778,"Y_Northing":1566167,"Z":2134,"Woreda_Nam":"Aksum","Attra_Type":"Open field","NEAR_DIST":0.0020643620476119367,"Site_name":" ","Descriptio":" ","Local_Name":" ","Location_W":" ","Settl_Type":" ","RoadRef_Pn":" ","Asphalt":0,"Gravel":0,"Foot_path":0,"Total_km":0,"direction":" ","Remarks":" ","NEAR_FC":"sites_Project"}},{"type":"Feature","id":7,"geometry":{"type":"Point","coordinates":[38.823815833000026,13.621738420000042,2000,null]},"properties":{"OBJECTID_12":7,"OBJECTID_1":7,"OBJECTID":8,"SN":90,"Name":"Mariam Tamba","X_Easting":480943,"Y_Northing":1505900,"Z":2000,"Woreda_Nam":" ","Attra_Type":" ","NEAR_DIST":0,"Site_name":" ","Descriptio":" ","Local_Name":" ","Location_W":" ","Settl_Type":" ","RoadRef_Pn":" ","Asphalt":0,"Gravel":0,"Foot_path":0,"Total_km":0,"direction":" ","Remarks":" ","NEAR_FC":"sites_Project"}},{"type":"Feature","id":8,"geometry":{"type":"Point","coordinates":[38.718172406000065,14.127766662000056,2152,null]},"properties":{"OBJECTID_12":8,"OBJECTID_1":8,"OBJECTID":9,"SN":105,"Name":"Axum Tsion Mariam","X_Easting":469582,"Y_Northing":1561875,"Z":2152,"Woreda_Nam":" ","Attra_Type":" ","NEAR_DIST":0,"Site_name":" ","Descriptio":" ","Local_Name":" ","Location_W":" ","Settl_Type":" ","RoadRef_Pn":" ","Asphalt":0,"Gravel":0,"Foot_path":0,"Total_km":0,"direction":" ","Remarks":" ","NEAR_FC":"sites_Project"}},{"type":"Feature","id":9,"geometry":{"type":"Point","coordinates":[38.898623109000027,14.163291265000055,1880,null]},"properties":{"OBJECTID_12":9,"OBJECTID_1":9,"OBJECTID":10,"SN":106,"Name":"Medhane Alem Adwa","X_Easting":489060,"Y_Northing":1565788,"Z":1880,"Woreda_Nam":"Adwa","Attra_Type":"Church","NEAR_DIST":0.00012249677324761135,"Site_name":" ","Descriptio":" ","Local_Name":" ","Location_W":" ","Settl_Type":" ","RoadRef_Pn":" ","Asphalt":0,"Gravel":0,"Foot_path":0,"Total_km":0,"direction":" ","Remarks":" ","NEAR_FC":"road_Project"}},{"type":"Feature","id":10,"geometry":{"type":"Point","coordinates":[38.965146523000044,14.113480279000044,2050,null]},"properties":{"OBJECTID_12":10,"OBJECTID_1":10,"OBJECTID":12,"SN":108,"Name":"Akbetsa Teklehaimanot","X_Easting":496238,"Y_Northing":1560277,"Z":2050,"Woreda_Nam":"Rural Adwa","Attra_Type":"Church","NEAR_DIST":0.0012536869613636037,"Site_name":" ","Descriptio":" ","Local_Name":" ","Location_W":" ","Settl_Type":" ","RoadRef_Pn":" ","Asphalt":0,"Gravel":0,"Foot_path":0,"Total_km":0,"direction":" ","Remarks":" ","NEAR_FC":"road_Project"}},{"type":"Feature","id":11,"geometry":{"type":"Point","coordinates":[38.907493736000049,14.157182546000058,1890,null]},"properties":{"OBJECTID_12":11,"OBJECTID_1":11,"OBJECTID":15,"SN":112,"Name":"Debreberhan Selassie","X_Easting":490017,"Y_Northing":1565112,"Z":1890,"Woreda_Nam":"Adwa","Attra_Type":"Church","NEAR_DIST":0.0013658158134392505,"Site_name":" ","Descriptio":" ","Local_Name":" ","Location_W":" ","Settl_Type":" ","RoadRef_Pn":" ","Asphalt":0,"Gravel":0,"Foot_path":0,"Total_km":0,"direction":" ","Remarks":" ","NEAR_FC":"road_Project"}},{"type":"Feature","id":12,"geometry":{"type":"Point","coordinates":[39.019006875000059,14.286371206000069,2150,null]},"properties":{"OBJECTID_12":12,"OBJECTID_1":12,"OBJECTID":16,"SN":113,"Name":"Abune Aftse","X_Easting":502050,"Y_Northing":1579398,"Z":2150,"Woreda_Nam":" Ahsea","Attra_Type":"Monastry","NEAR_DIST":0.00072429326212193298,"Site_name":" ","Descriptio":" ","Local_Name":" ","Location_W":" ","Settl_Type":" ","RoadRef_Pn":" ","Asphalt":0,"Gravel":0,"Foot_path":0,"Total_km":0,"direction":" ","Remarks":" ","NEAR_FC":"sites_Project"}},{"type":"Feature","id":13,"geometry":{"type":"Point","coordinates":[38.874077951000061,14.193072518000065,1980,null]},"properties":{"OBJECTID_12":13,"OBJECTID_1":13,"OBJECTID":17,"SN":114,"Name":"Teklehaimanot Addi Abun","X_Easting":486413,"Y_Northing":1569083,"Z":1980,"Woreda_Nam":"Adwa","Attra_Type":"Church","NEAR_DIST":0.0053767412177883073,"Site_name":" ","Descriptio":" ","Local_Name":" ","Location_W":" ","Settl_Type":" ","RoadRef_Pn":" ","Asphalt":0,"Gravel":0,"Foot_path":0,"Total_km":0,"direction":" ","Remarks":" ","NEAR_FC":"road_Project"}},{"type":"Feature","id":14,"geometry":{"type":"Point","coordinates":[38.65779970300008,13.954067255000041,0,null]},"properties":{"OBJECTID_12":14,"OBJECTID_1":14,"OBJECTID":18,"SN":115,"Name":"Gebriel Kenef","X_Easting":463038,"Y_Northing":1542673,"Z":0,"Woreda_Nam":"Adet","Attra_Type":"Church","NEAR_DIST":0.010902769664511163,"Site_name":" ","Descriptio":" ","Local_Name":" ","Location_W":" ","Settl_Type":" ","RoadRef_Pn":" ","Asphalt":0,"Gravel":0,"Foot_path":0,"Total_km":0,"direction":" ","Remarks":" ","NEAR_FC":"road_Project"}},{"type":"Feature","id":15,"geometry":{"type":"Point","coordinates":[38.799115392000033,13.607912212000031,1960,null]},"properties":{"OBJECTID_12":15,"OBJECTID_1":15,"OBJECTID":19,"SN":116,"Name":"Abune Likanos/Libanos","X_Easting":478270,"Y_Northing":1504373,"Z":1960,"Woreda_Nam":"Aksum","Attra_Type":"Monastry","NEAR_DIST":5.8314534726477104e-05,"Site_name":" ","Descriptio":" ","Local_Name":" ","Location_W":" ","Settl_Type":" ","RoadRef_Pn":" ","Asphalt":0,"Gravel":0,"Foot_path":0,"Total_km":0,"direction":" ","Remarks":" ","NEAR_FC":"road_Project"}},{"type":"Feature","id":16,"geometry":{"type":"Point","coordinates":[39.122873621000053,13.579479761000073,2639,null]},"properties":{"OBJECTID_12":16,"OBJECTID_1":16,"OBJECTID":20,"SN":120,"Name":"Mariam Koraro","X_Easting":513293,"Y_Northing":1501223,"Z":2639,"Woreda_Nam":"Degua Temben","Attra_Type":"Church","NEAR_DIST":0.0053059008929922553,"Site_name":" ","Descriptio":" ","Local_Name":" ","Location_W":" ","Settl_Type":" ","RoadRef_Pn":" ","Asphalt":0,"Gravel":0,"Foot_path":0,"Total_km":0,"direction":" ","Remarks":" ","NEAR_FC":"road_Project"}},{"type":"Feature","id":17,"geometry":{"type":"Point","coordinates":[39.128285479000056,13.639192148000063,2508,null]},"properties":{"OBJECTID_12":17,"OBJECTID_1":17,"OBJECTID":21,"SN":122,"Name":"Melfa Mariam","X_Easting":513875,"Y_Northing":1507827,"Z":2508,"Woreda_Nam":"Degua Temben","Attra_Type":" ","NEAR_DIST":0,"Site_name":" ","Descriptio":" ","Local_Name":" ","Location_W":" ","Settl_Type":" ","RoadRef_Pn":" ","Asphalt":0,"Gravel":0,"Foot_path":0,"Total_km":0,"direction":" ","Remarks":" ","NEAR_FC":"sites_Project"}},{"type":"Feature","id":18,"geometry":{"type":"Point","coordinates":[39.018969727000069,14.285647866000033,2150,null]},"properties":{"OBJECTID_12":18,"OBJECTID_1":18,"OBJECTID":22,"SN":153,"Name":"Yeha Temple","X_Easting":502046,"Y_Northing":1579318,"Z":2150,"Woreda_Nam":"Ahsea","Attra_Type":"Temple","NEAR_DIST":0.00072429326212193298,"Site_name":" ","Descriptio":" ","Local_Name":" ","Location_W":" ","Settl_Type":" ","RoadRef_Pn":" ","Asphalt":0,"Gravel":0,"Foot_path":0,"Total_km":0,"direction":" ","Remarks":" ","NEAR_FC":"sites_Project"}},{"type":"Feature","id":19,"geometry":{"type":"Point","coordinates":[38.879057517000035,14.170407183000066,1981,null]},"properties":{"OBJECTID_12":19,"OBJECTID_1":19,"OBJECTID":23,"SN":155,"Name":"Enda Giorgis Adwa","X_Easting":486949,"Y_Northing":1566576,"Z":1981,"Woreda_Nam":"Adwa","Attra_Type":"Church","NEAR_DIST":0,"Site_name":" ","Descriptio":" ","Local_Name":" ","Location_W":" ","Settl_Type":" ","RoadRef_Pn":" ","Asphalt":0,"Gravel":0,"Foot_path":0,"Total_km":0,"direction":" ","Remarks":" ","NEAR_FC":"sites_Project"}},{"type":"Feature","id":20,"geometry":{"type":"Point","coordinates":[38.879057517000035,14.170407183000066,1981,null]},"properties":{"OBJECTID_12":20,"OBJECTID_1":20,"OBJECTID":24,"SN":156,"Name":"Aba Fremonna","X_Easting":486949,"Y_Northing":1566576,"Z":1981,"Woreda_Nam":" ","Attra_Type":" ","NEAR_DIST":0,"Site_name":" ","Descriptio":" ","Local_Name":" ","Location_W":" ","Settl_Type":" ","RoadRef_Pn":" ","Asphalt":0,"Gravel":0,"Foot_path":0,"Total_km":0,"direction":" ","Remarks":" ","NEAR_FC":"sites_Project"}},{"type":"Feature","id":21,"geometry":{"type":"Point","coordinates":[39.153771431000052,13.660535418000052,2487,null]},"properties":{"OBJECTID_12":21,"OBJECTID_1":21,"OBJECTID":25,"SN":160,"Name":"Adi Gezaeti/Mewaferi EPRDF","X_Easting":516630,"Y_Northing":1510189,"Z":2487,"Woreda_Nam":"Degua Temben","Attra_Type":"Historic","NEAR_DIST":0.001815732957714621,"Site_name":" ","Descriptio":" ","Local_Name":" ","Location_W":" ","Settl_Type":" ","RoadRef_Pn":" ","Asphalt":0,"Gravel":0,"Foot_path":0,"Total_km":0,"direction":" ","Remarks":" ","NEAR_FC":"sites_Project"}},{"type":"Feature","id":22,"geometry":{"type":"Point","coordinates":[39.092150882000055,13.56218603700006,2035,null]},"properties":{"OBJECTID_12":22,"OBJECTID_1":22,"OBJECTID":26,"SN":161,"Name":"Menewe Alula's Birth Place","X_Easting":509970,"Y_Northing":1499309,"Z":2035,"Woreda_Nam":"Degua Temben","Attra_Type":"Monastry","NEAR_DIST":0.00018295748323409546,"Site_name":" ","Descriptio":" ","Local_Name":" ","Location_W":" ","Settl_Type":" ","RoadRef_Pn":" ","Asphalt":0,"Gravel":0,"Foot_path":0,"Total_km":0,"direction":" ","Remarks":" ","NEAR_FC":"road_Project"}},{"type":"Feature","id":23,"geometry":{"type":"Point","coordinates":[39.128285479000056,13.639192148000063,2508,null]},"properties":{"OBJECTID_12":23,"OBJECTID_1":23,"OBJECTID":27,"SN":162,"Name":"Melfa","X_Easting":513875,"Y_Northing":1507827,"Z":2508,"Woreda_Nam":"Degua Temben","Attra_Type":"Church","NEAR_DIST":0,"Site_name":" ","Descriptio":" ","Local_Name":" ","Location_W":" ","Settl_Type":" ","RoadRef_Pn":" ","Asphalt":0,"Gravel":0,"Foot_path":0,"Total_km":0,"direction":" ","Remarks":" ","NEAR_FC":"sites_Project"}},{"type":"Feature","id":24,"geometry":{"type":"Point","coordinates":[38.999676270000066,13.73194428100004,1949,null]},"properties":{"OBJECTID_12":24,"OBJECTID_1":24,"OBJECTID":28,"SN":163,"Name":"Workamba","X_Easting":499965,"Y_Northing":1518081,"Z":1949,"Woreda_Nam":"Kola Temben","Attra_Type":"Church","NEAR_DIST":0.00038972011419136451,"Site_name":" ","Descriptio":" ","Local_Name":" ","Location_W":" ","Settl_Type":" ","RoadRef_Pn":" ","Asphalt":0,"Gravel":0,"Foot_path":0,"Total_km":0,"direction":" ","Remarks":" ","NEAR_FC":"road_Project"}},{"type":"Feature","id":25,"geometry":{"type":"Point","coordinates":[39.14472861400003,13.645973831000049,2600,null]},"properties":{"OBJECTID_12":25,"OBJECTID_1":25,"OBJECTID":29,"SN":165,"Name":"Geza Gebrehara","X_Easting":515653,"Y_Northing":1508578,"Z":2600,"Woreda_Nam":"Kola Temben","Attra_Type":" ","NEAR_DIST":0.0014813916221552593,"Site_name":" ","Descriptio":" ","Local_Name":" ","Location_W":" ","Settl_Type":" ","RoadRef_Pn":" ","Asphalt":0,"Gravel":0,"Foot_path":0,"Total_km":0,"direction":" ","Remarks":" ","NEAR_FC":"road_Project"}},{"type":"Feature","id":26,"geometry":{"type":"Point","coordinates":[39.022770492000063,13.715323667000064,1883,null]},"properties":{"OBJECTID_12":26,"OBJECTID_1":26,"OBJECTID":30,"SN":166,"Name":"Wersege Italian Cemetry","X_Easting":502462,"Y_Northing":1516243,"Z":1883,"Woreda_Nam":"Kola Temben","Attra_Type":"Historic","NEAR_DIST":0.016995146750015309,"Site_name":" ","Descriptio":" ","Local_Name":" ","Location_W":" ","Settl_Type":" ","RoadRef_Pn":" ","Asphalt":0,"Gravel":0,"Foot_path":0,"Total_km":0,"direction":" ","Remarks":" ","NEAR_FC":"road_Project"}},{"type":"Feature","id":27,"geometry":{"type":"Point","coordinates":[39.075861554000028,14.038070166000068,1994,null]},"properties":{"OBJECTID_12":27,"OBJECTID_1":27,"OBJECTID":32,"SN":193,"Name":"Enda Abba Tsahma","X_Easting":508191,"Y_Northing":1551938,"Z":1994,"Woreda_Nam":"Edaga Ari","Attra_Type":"Monastry","NEAR_DIST":0.00065848611565537732,"Site_name":" ","Descriptio":" ","Local_Name":" ","Location_W":" ","Settl_Type":" ","RoadRef_Pn":" ","Asphalt":0,"Gravel":0,"Foot_path":0,"Total_km":0,"direction":" ","Remarks":" ","NEAR_FC":"road_Project"}},{"type":"Feature","id":28,"geometry":{"type":"Point","coordinates":[38.953009359000077,14.16116515300007,2178,null]},"properties":{"OBJECTID_12":28,"OBJECTID_1":28,"OBJECTID":33,"SN":194,"Name":"Enda Aba Gerima","X_Easting":494929,"Y_Northing":1565551,"Z":2178,"Woreda_Nam":"Rural Adwa","Attra_Type":"Monastry","NEAR_DIST":0.01236457207480488,"Site_name":" ","Descriptio":" ","Local_Name":" ","Location_W":" ","Settl_Type":" ","RoadRef_Pn":" ","Asphalt":0,"Gravel":0,"Foot_path":0,"Total_km":0,"direction":" ","Remarks":" ","NEAR_FC":"road_Project"}},{"type":"Feature","id":29,"geometry":{"type":"Point","coordinates":[38.616060423000079,14.178530131000059,2350,null]},"properties":{"OBJECTID_12":29,"OBJECTID_1":29,"OBJECTID":34,"SN":195,"Name":"Debre Benkol","X_Easting":458570,"Y_Northing":1567505,"Z":2350,"Woreda_Nam":"Tahtay Machew","Attra_Type":"Monastry","NEAR_DIST":0.01093610290471997,"Site_name":" ","Descriptio":" ","Local_Name":" ","Location_W":" ","Settl_Type":" ","RoadRef_Pn":" ","Asphalt":0,"Gravel":0,"Foot_path":0,"Total_km":0,"direction":" ","Remarks":" ","NEAR_FC":"road_Project"}},{"type":"Feature","id":30,"geometry":{"type":"Point","coordinates":[39.160552687000063,13.624660602000063,2618,null]},"properties":{"OBJECTID_12":30,"OBJECTID_1":30,"OBJECTID":35,"SN":205,"Name":"Abune Aregawi /Zeji/","X_Easting":517366,"Y_Northing":1506222,"Z":2618,"Woreda_Nam":"Kola Temben","Attra_Type":" ","NEAR_DIST":0.0045819536208871713,"Site_name":" ","Descriptio":" ","Local_Name":" ","Location_W":" ","Settl_Type":" ","RoadRef_Pn":" ","Asphalt":0,"Gravel":0,"Foot_path":0,"Total_km":0,"direction":" ","Remarks":" ","NEAR_FC":"road_Project"}},{"type":"Feature","id":31,"geometry":{"type":"Point","coordinates":[39.077084419000073,13.56007524100005,1900,null]},"properties":{"OBJECTID_12":31,"OBJECTID_1":31,"OBJECTID":36,"SN":206,"Name":"Chik Silassie","X_Easting":508340,"Y_Northing":1499075,"Z":1900,"Woreda_Nam":"Kola Temben","Attra_Type":" ","NEAR_DIST":0.0075627449506785486,"Site_name":" ","Descriptio":" ","Local_Name":" ","Location_W":" ","Settl_Type":" ","RoadRef_Pn":" ","Asphalt":0,"Gravel":0,"Foot_path":0,"Total_km":0,"direction":" ","Remarks":" ","NEAR_FC":"road_Project"}},{"type":"Feature","id":32,"geometry":{"type":"Point","coordinates":[39.226367043000039,13.602917124000044,0,null]},"properties":{"OBJECTID_12":32,"OBJECTID_1":32,"OBJECTID":37,"SN":207,"Name":"Giorgis Rubakisa","X_Easting":524487,"Y_Northing":1503823,"Z":0,"Woreda_Nam":"Kola Temben","Attra_Type":" ","NEAR_DIST":0.032049679214883664,"Site_name":" ","Descriptio":" ","Local_Name":" ","Location_W":" ","Settl_Type":" ","RoadRef_Pn":" ","Asphalt":0,"Gravel":0,"Foot_path":0,"Total_km":0,"direction":" ","Remarks":" ","NEAR_FC":"road_Project"}},{"type":"Feature","id":33,"geometry":{"type":"Point","coordinates":[39.109000866000031,13.663913796000031,2546,null]},"properties":{"OBJECTID_12":33,"OBJECTID_1":33,"OBJECTID":39,"SN":210,"Name":"Endaba Selama","X_Easting":511788,"Y_Northing":1510560,"Z":2546,"Woreda_Nam":"Kola Temben","Attra_Type":" ","NEAR_DIST":0.014383506404079644,"Site_name":" ","Descriptio":" ","Local_Name":" ","Location_W":" ","Settl_Type":" ","RoadRef_Pn":" ","Asphalt":0,"Gravel":0,"Foot_path":0,"Total_km":0,"direction":" ","Remarks":" ","NEAR_FC":"sites_Project"}},{"type":"Feature","id":34,"geometry":{"type":"Point","coordinates":[39.168645294000044,13.70696646600004,2300,null]},"properties":{"OBJECTID_12":34,"OBJECTID_1":34,"OBJECTID":40,"SN":211,"Name":"Mereta Abye Egzi","X_Easting":518235,"Y_Northing":1515325,"Z":2300,"Woreda_Nam":"Kola Temben","Attra_Type":" ","NEAR_DIST":0.023094182198393945,"Site_name":" ","Descriptio":" ","Local_Name":" ","Location_W":" ","Settl_Type":" ","RoadRef_Pn":" ","Asphalt":0,"Gravel":0,"Foot_path":0,"Total_km":0,"direction":" ","Remarks":" ","NEAR_FC":"sites_Project"}},{"type":"Feature","id":35,"geometry":{"type":"Point","coordinates":[39.207868989000076,13.697813066000037,2209,null]},"properties":{"OBJECTID_12":35,"OBJECTID_1":35,"OBJECTID":41,"SN":213,"Name":"Enda Abune Abiyezgi","X_Easting":522477,"Y_Northing":1514316,"Z":2209,"Woreda_Nam":"Kola Temben","Attra_Type":" ","NEAR_DIST":0.022356106271600621,"Site_name":" ","Descriptio":" ","Local_Name":" ","Location_W":" ","Settl_Type":" ","RoadRef_Pn":" ","Asphalt":0,"Gravel":0,"Foot_path":0,"Total_km":0,"direction":" ","Remarks":" ","NEAR_FC":"sites_Project"}},{"type":"Feature","id":36,"geometry":{"type":"Point","coordinates":[39.153086097000028,13.658853989000022,2480,null]},"properties":{"OBJECTID_12":36,"OBJECTID_1":36,"OBJECTID":42,"SN":221,"Name":"Medhanealem Harekuwa","X_Easting":516556,"Y_Northing":1510003,"Z":2480,"Woreda_Nam":"Kola Temben","Attra_Type":" ","NEAR_DIST":0.001815732957714621,"Site_name":" ","Descriptio":" ","Local_Name":" ","Location_W":" ","Settl_Type":" ","RoadRef_Pn":" ","Asphalt":0,"Gravel":0,"Foot_path":0,"Total_km":0,"direction":" ","Remarks":" ","NEAR_FC":"sites_Project"}},{"type":"Feature","id":37,"geometry":{"type":"Point","coordinates":[39.095715502000076,13.669425997000076,2444,null]},"properties":{"OBJECTID_12":37,"OBJECTID_1":37,"OBJECTID":43,"SN":222,"Name":"Enda Amanuel","X_Easting":510351,"Y_Northing":1511169,"Z":2444,"Woreda_Nam":" Kola Temben","Attra_Type":" ","NEAR_DIST":0.014383506404079644,"Site_name":" ","Descriptio":" ","Local_Name":" ","Location_W":" ","Settl_Type":" ","RoadRef_Pn":" ","Asphalt":0,"Gravel":0,"Foot_path":0,"Total_km":0,"direction":" ","Remarks":" ","NEAR_FC":"sites_Project"}},{"type":"Feature","id":38,"geometry":{"type":"Point","coordinates":[38.718233502000032,14.130822863000049,2151,null]},"properties":{"OBJECTID_12":38,"OBJECTID_1":38,"OBJECTID":44,"SN":226,"Name":"Archaeological Museum of Axum","X_Easting":469589,"Y_Northing":1562213,"Z":2151,"Woreda_Nam":"Aksum","Attra_Type":"Archaeological","NEAR_DIST":0.0011252685145888165,"Site_name":" ","Descriptio":" ","Local_Name":" ","Location_W":" ","Settl_Type":" ","RoadRef_Pn":" ","Asphalt":0,"Gravel":0,"Foot_path":0,"Total_km":0,"direction":" ","Remarks":" ","NEAR_FC":"sites_Project"}},{"type":"Feature","id":39,"geometry":{"type":"Point","coordinates":[38.906507346000069,14.189958894000029,2600,null]},"properties":{"OBJECTID_12":39,"OBJECTID_1":39,"OBJECTID":47,"SN":229,"Name":"Adwa Mountains","X_Easting":489912,"Y_Northing":1568737,"Z":2600,"Woreda_Nam":"Adwa","Attra_Type":"Historical","NEAR_DIST":0.012237165954321219,"Site_name":" ","Descriptio":" ","Local_Name":" ","Location_W":" ","Settl_Type":" ","RoadRef_Pn":" ","Asphalt":0,"Gravel":0,"Foot_path":0,"Total_km":0,"direction":" ","Remarks":" ","NEAR_FC":"road_Project"}},{"type":"Feature","id":40,"geometry":{"type":"Point","coordinates":[39.01411715100005,13.619033479000052,1847,null]},"properties":{"OBJECTID_12":40,"OBJECTID_1":40,"OBJECTID":48,"SN":231,"Name":"Mai Lomin /Seasonal & Potential/","X_Easting":501527,"Y_Northing":1505594,"Z":1847,"Woreda_Nam":"Abiyi Adi","Attra_Type":" ","NEAR_DIST":0.013361473508041257,"Site_name":" ","Descriptio":" ","Local_Name":" ","Location_W":" ","Settl_Type":" ","RoadRef_Pn":" ","Asphalt":0,"Gravel":0,"Foot_path":0,"Total_km":0,"direction":" ","Remarks":" ","NEAR_FC":"road_Project"}},{"type":"Feature","id":41,"geometry":{"type":"Point","coordinates":[38.70589953800004,14.125138890000073,2130,null]},"properties":{"OBJECTID_12":41,"OBJECTID_1":41,"OBJECTID":51,"SN":251,"Name":"Dongur Palace","X_Easting":468257,"Y_Northing":1561586,"Z":2130,"Woreda_Nam":"Aksum","Attra_Type":"Archaeological","NEAR_DIST":0.00093979551748393363,"Site_name":" ","Descriptio":" ","Local_Name":" ","Location_W":" ","Settl_Type":" ","RoadRef_Pn":" ","Asphalt":0,"Gravel":0,"Foot_path":0,"Total_km":0,"direction":" ","Remarks":" ","NEAR_FC":"sites_Project"}},{"type":"Feature","id":42,"geometry":{"type":"Point","coordinates":[38.708411022000064,14.131887128000074,2286,null]},"properties":{"OBJECTID_12":42,"OBJECTID_1":42,"OBJECTID":52,"SN":252,"Name":"Bete Giorgis Hill-Ona Negast","X_Easting":468529,"Y_Northing":1562332,"Z":2286,"Woreda_Nam":"Aksum","Attra_Type":"Archaeological","NEAR_DIST":0.0060921674615711267,"Site_name":" ","Descriptio":" ","Local_Name":" ","Location_W":" ","Settl_Type":" ","RoadRef_Pn":" ","Asphalt":0,"Gravel":0,"Foot_path":0,"Total_km":0,"direction":" ","Remarks":" ","NEAR_FC":"sites_Project"}},{"type":"Feature","id":43,"geometry":{"type":"Point","coordinates":[38.716551845000026,14.127095664000024,2152,null]},"properties":{"OBJECTID_12":43,"OBJECTID_1":43,"OBJECTID":57,"SN":257,"Name":"Arbaetu Ensesa","X_Easting":469407,"Y_Northing":1561801,"Z":2152,"Woreda_Nam":"Aksum","Attra_Type":"Church","NEAR_DIST":0.0013315890694306977,"Site_name":" ","Descriptio":" ","Local_Name":" ","Location_W":" ","Settl_Type":" ","RoadRef_Pn":" ","Asphalt":0,"Gravel":0,"Foot_path":0,"Total_km":0,"direction":" ","Remarks":" ","NEAR_FC":"sites_Project"}},{"type":"Feature","id":44,"geometry":{"type":"Point","coordinates":[38.718172406000065,14.127766662000056,2152,null]},"properties":{"OBJECTID_12":44,"OBJECTID_1":44,"OBJECTID":60,"SN":260,"Name":"Maryam Tsion Church","X_Easting":469582,"Y_Northing":1561875,"Z":2152,"Woreda_Nam":"Aksum","Attra_Type":"Monastry","NEAR_DIST":0,"Site_name":" ","Descriptio":" ","Local_Name":" ","Location_W":" ","Settl_Type":" ","RoadRef_Pn":" ","Asphalt":0,"Gravel":0,"Foot_path":0,"Total_km":0,"direction":" ","Remarks":" ","NEAR_FC":"sites_Project"}},{"type":"Feature","id":45,"geometry":{"type":"Point","coordinates":[38.71734732300007,14.128163533000077,2152,null]},"properties":{"OBJECTID_12":45,"OBJECTID_1":45,"OBJECTID":61,"SN":261,"Name":"Throne Bases/Menagesha/","X_Easting":469493,"Y_Northing":1561919,"Z":2152,"Woreda_Nam":"Aksum","Attra_Type":" ","NEAR_DIST":0.00091557006697389213,"Site_name":" ","Descriptio":" ","Local_Name":" ","Location_W":" ","Settl_Type":" ","RoadRef_Pn":" ","Asphalt":0,"Gravel":0,"Foot_path":0,"Total_km":0,"direction":" ","Remarks":" ","NEAR_FC":"sites_Project"}},{"type":"Feature","id":46,"geometry":{"type":"Point","coordinates":[38.721942624000064,14.13595388300007,2176,null]},"properties":{"OBJECTID_12":46,"OBJECTID_1":46,"OBJECTID":66,"SN":266,"Name":"Inscription/On the way to Kaleb and G.Meskel Tomb/","X_Easting":469990,"Y_Northing":1562780,"Z":2176,"Woreda_Nam":"Aksum","Attra_Type":"Archaeological","NEAR_DIST":0.00043195482276955059,"Site_name":" ","Descriptio":" ","Local_Name":" ","Location_W":" ","Settl_Type":" ","RoadRef_Pn":" ","Asphalt":0,"Gravel":0,"Foot_path":0,"Total_km":0,"direction":" ","Remarks":" ","NEAR_FC":"road_Project"}},{"type":"Feature","id":47,"geometry":{"type":"Point","coordinates":[38.729208563000043,14.142228147000026,2260,null]},"properties":{"OBJECTID_12":47,"OBJECTID_1":47,"OBJECTID":69,"SN":269,"Name":"Tomb of Kaleb and G/Meskel","X_Easting":470775,"Y_Northing":1563473,"Z":2260,"Woreda_Nam":"Aksum","Attra_Type":"Palace","NEAR_DIST":4.3334343428418911e-05,"Site_name":" ","Descriptio":" ","Local_Name":" ","Location_W":" ","Settl_Type":" ","RoadRef_Pn":" ","Asphalt":0,"Gravel":0,"Foot_path":0,"Total_km":0,"direction":" ","Remarks":" ","NEAR_FC":"sites_Project"}},{"type":"Feature","id":48,"geometry":{"type":"Point","coordinates":[38.719409098000028,14.131710335000037,2166,null]},"properties":{"OBJECTID_12":48,"OBJECTID_1":48,"OBJECTID":70,"SN":270,"Name":"Axum Stelae Park","X_Easting":469716,"Y_Northing":1562311,"Z":2166,"Woreda_Nam":"Aksum","Attra_Type":"Historical","NEAR_DIST":0.00054998825992251088,"Site_name":" ","Descriptio":" ","Local_Name":" ","Location_W":" ","Settl_Type":" ","RoadRef_Pn":" ","Asphalt":0,"Gravel":0,"Foot_path":0,"Total_km":0,"direction":" ","Remarks":" ","NEAR_FC":"sites_Project"}},{"type":"Feature","id":49,"geometry":{"type":"Point","coordinates":[38.938793978000035,13.706121214000063,1200,null]},"properties":{"OBJECTID_12":49,"OBJECTID_1":49,"OBJECTID":71,"SN":278,"Name":"Abba Yohanni","X_Easting":493382,"Y_Northing":1515226,"Z":1200,"Woreda_Nam":"Kola Temben","Attra_Type":"Monastry","NEAR_DIST":0.0042053322129727636,"Site_name":" ","Descriptio":" ","Local_Name":" ","Location_W":" ","Settl_Type":" ","RoadRef_Pn":" ","Asphalt":0,"Gravel":0,"Foot_path":0,"Total_km":0,"direction":" ","Remarks":" ","NEAR_FC":"road_Project"}},{"type":"Feature","id":50,"geometry":{"type":"Point","coordinates":[38.972234140000069,13.724066966000066,2100,null]},"properties":{"OBJECTID_12":50,"OBJECTID_1":50,"OBJECTID":72,"SN":279,"Name":"Gebriel Wuqien","X_Easting":496998,"Y_Northing":1517210,"Z":2100,"Woreda_Nam":"Kola Temben","Attra_Type":" ","NEAR_DIST":0.0030114593993914259,"Site_name":" ","Descriptio":" ","Local_Name":" ","Location_W":" ","Settl_Type":" ","RoadRef_Pn":" ","Asphalt":0,"Gravel":0,"Foot_path":0,"Total_km":0,"direction":" ","Remarks":" ","NEAR_FC":"road_Project"}},{"type":"Feature","id":51,"geometry":{"type":"Point","coordinates":[39.146279811000056,13.732307846000026,1900,null]},"properties":{"OBJECTID_12":51,"OBJECTID_1":51,"OBJECTID":73,"SN":280,"Name":"Mariam Hibi'ito","X_Easting":515815,"Y_Northing":1518126,"Z":1900,"Woreda_Nam":"Kola Temben","Attra_Type":" ","NEAR_DIST":0.033799413754182508,"Site_name":" ","Descriptio":" ","Local_Name":" ","Location_W":" ","Settl_Type":" ","RoadRef_Pn":" ","Asphalt":0,"Gravel":0,"Foot_path":0,"Total_km":0,"direction":" ","Remarks":" ","NEAR_FC":"sites_Project"}},{"type":"Feature","id":52,"geometry":{"type":"Point","coordinates":[38.949955071000034,13.714352134000023,2130,null]},"properties":{"OBJECTID_12":52,"OBJECTID_1":52,"OBJECTID":74,"SN":282,"Name":"Mariam Te'amina","X_Easting":494589,"Y_Northing":1516136,"Z":2130,"Woreda_Nam":"Abiyi","Attra_Type":" ","NEAR_DIST":0.013867878028031282,"Site_name":" ","Descriptio":" ","Local_Name":" ","Location_W":" ","Settl_Type":" ","RoadRef_Pn":" ","Asphalt":0,"Gravel":0,"Foot_path":0,"Total_km":0,"direction":" ","Remarks":" ","NEAR_FC":"sites_Project"}},{"type":"Feature","id":53,"geometry":{"type":"Point","coordinates":[38.956932590000065,13.692552671000044,2100,null]},"properties":{"OBJECTID_12":53,"OBJECTID_1":53,"OBJECTID":75,"SN":283,"Name":"Kaka Arbaetu Ensissa","X_Easting":495343,"Y_Northing":1513725,"Z":2100,"Woreda_Nam":"Abiyi","Attra_Type":" ","NEAR_DIST":0.0092235486223514809,"Site_name":" ","Descriptio":" ","Local_Name":" ","Location_W":" ","Settl_Type":" ","RoadRef_Pn":" ","Asphalt":0,"Gravel":0,"Foot_path":0,"Total_km":0,"direction":" ","Remarks":" ","NEAR_FC":"road_Project"}},{"type":"Feature","id":54,"geometry":{"type":"Point","coordinates":[39.064699024000049,13.729304527000068,1800,null]},"properties":{"OBJECTID_12":54,"OBJECTID_1":54,"OBJECTID":76,"SN":284,"Name":"Eyesus Welegesa","X_Easting":506995,"Y_Northing":1517790,"Z":1800,"Woreda_Nam":"Kola Temben","Attra_Type":" ","NEAR_DIST":0.0089142608428570275,"Site_name":" ","Descriptio":" ","Local_Name":" ","Location_W":" ","Settl_Type":" ","RoadRef_Pn":" ","Asphalt":0,"Gravel":0,"Foot_path":0,"Total_km":0,"direction":" ","Remarks":" ","NEAR_FC":"road_Project"}},{"type":"Feature","id":55,"geometry":{"type":"Point","coordinates":[39.027138359000048,13.655961001000037,2400,null]},"properties":{"OBJECTID_12":55,"OBJECTID_1":55,"OBJECTID":77,"SN":285,"Name":"Mariam Etsewto","X_Easting":502935,"Y_Northing":1509678,"Z":2400,"Woreda_Nam":"Kola Temben","Attra_Type":" ","NEAR_DIST":0.039156017913452079,"Site_name":" ","Descriptio":" ","Local_Name":" ","Location_W":" ","Settl_Type":" ","RoadRef_Pn":" ","Asphalt":0,"Gravel":0,"Foot_path":0,"Total_km":0,"direction":" ","Remarks":" ","NEAR_FC":"sites_Project"}},{"type":"Feature","id":56,"geometry":{"type":"Point","coordinates":[39.18627026300004,13.692043272000035,2115,null]},"properties":{"OBJECTID_12":56,"OBJECTID_1":56,"OBJECTID":78,"SN":287,"Name":"Tensehe Kidane Mihret","X_Easting":520142,"Y_Northing":1513676,"Z":2115,"Woreda_Nam":"Kola Temben","Attra_Type":" ","NEAR_DIST":0.022356106271600621,"Site_name":" ","Descriptio":" ","Local_Name":" ","Location_W":" ","Settl_Type":" ","RoadRef_Pn":" ","Asphalt":0,"Gravel":0,"Foot_path":0,"Total_km":0,"direction":" ","Remarks":" ","NEAR_FC":"sites_Project"}},{"type":"Feature","id":57,"geometry":{"type":"Point","coordinates":[38.823815833000026,13.621738420000042,2000,null]},"properties":{"OBJECTID_12":57,"OBJECTID_1":57,"OBJECTID":79,"SN":288,"Name":"Teklehaimanot Tamba/Guya/","X_Easting":480943,"Y_Northing":1505900,"Z":2000,"Woreda_Nam":"Ambera","Attra_Type":" ","NEAR_DIST":0,"Site_name":" ","Descriptio":" ","Local_Name":" ","Location_W":" ","Settl_Type":" ","RoadRef_Pn":" ","Asphalt":0,"Gravel":0,"Foot_path":0,"Total_km":0,"direction":" ","Remarks":" ","NEAR_FC":"sites_Project"}},{"type":"Feature","id":58,"geometry":{"type":"Point","coordinates":[39.301737420000052,14.127127668000071,2079,null]},"properties":{"OBJECTID_12":58,"OBJECTID_1":58,"OBJECTID":81,"SN":293,"Name":"Wukro Mariam","X_Easting":532567,"Y_Northing":1561807,"Z":2079,"Woreda_Nam":"Embaseneyti","Attra_Type":"Monastry","NEAR_DIST":0.00094298379656139041,"Site_name":" ","Descriptio":" ","Local_Name":" ","Location_W":" ","Settl_Type":" ","RoadRef_Pn":" ","Asphalt":0,"Gravel":0,"Foot_path":0,"Total_km":0,"direction":" ","Remarks":" ","NEAR_FC":"road_Project"}},{"type":"Feature","id":59,"geometry":{"type":"Point","coordinates":[38.726039008000043,14.12507111900004,2142,null]},"properties":{"OBJECTID_12":59,"OBJECTID_1":59,"OBJECTID":82,"SN":0,"Name":"Bazen Tomb","X_Easting":470430.71000000002,"Y_Northing":1561575.875,"Z":2142,"Woreda_Nam":"Aksum","Attra_Type":"Archaeological","NEAR_DIST":0.0011654068497106321,"Site_name":" ","Descriptio":" ","Local_Name":" ","Location_W":" ","Settl_Type":" ","RoadRef_Pn":" ","Asphalt":0,"Gravel":0,"Foot_path":0,"Total_km":0,"direction":" ","Remarks":" ","NEAR_FC":"sites_Project"}},{"type":"Feature","id":60,"geometry":{"type":"Point","coordinates":[38.725255243000049,14.124208631000045,2165,null]},"properties":{"OBJECTID_12":60,"OBJECTID_1":60,"OBJECTID":83,"SN":0,"Name":"Ezana Park","X_Easting":470346.00400000002,"Y_Northing":1561480.585,"Z":2165,"Woreda_Nam":"Aksum","Attra_Type":"Historical","NEAR_DIST":0.00089653277831127547,"Site_name":" ","Descriptio":" ","Local_Name":" ","Location_W":" ","Settl_Type":" ","RoadRef_Pn":" ","Asphalt":0,"Gravel":0,"Foot_path":0,"Total_km":0,"direction":" ","Remarks":" ","NEAR_FC":"road_Project"}},{"type":"Feature","id":61,"geometry":{"type":"Point","coordinates":[38.724191490000067,14.124883859000022,2161.8399999999965,null]},"properties":{"OBJECTID_12":61,"OBJECTID_1":61,"OBJECTID":84,"SN":0,"Name":"Hatsanu Daniel (Mibtak Fetli)","X_Easting":470231.277,"Y_Northing":1561555.398,"Z":2161.8400000000001,"Woreda_Nam":"Aksum","Attra_Type":"Archaeological","NEAR_DIST":0.00067006936140546309,"Site_name":" ","Descriptio":" ","Local_Name":" ","Location_W":" ","Settl_Type":" ","RoadRef_Pn":" ","Asphalt":0,"Gravel":0,"Foot_path":0,"Total_km":0,"direction":" ","Remarks":" ","NEAR_FC":"road_Project"}},{"type":"Feature","id":62,"geometry":{"type":"Point","coordinates":[38.722203023000077,14.126028633000033,2155.5500000000029,null]},"properties":{"OBJECTID_12":62,"OBJECTID_1":62,"OBJECTID":85,"SN":0,"Name":"Tourist Center","X_Easting":470016.80499999999,"Y_Northing":1561682.26,"Z":2155.5500000000002,"Woreda_Nam":"Aksum","Attra_Type":"Historical","NEAR_DIST":0.00026853080668711728,"Site_name":" ","Descriptio":" ","Local_Name":" ","Location_W":" ","Settl_Type":" ","RoadRef_Pn":" ","Asphalt":0,"Gravel":0,"Foot_path":0,"Total_km":0,"direction":" ","Remarks":" ","NEAR_FC":"road_Project"}},{"type":"Feature","id":63,"geometry":{"type":"Point","coordinates":[38.722105545000034,14.127136286000052,2142.0299999999988,null]},"properties":{"OBJECTID_12":63,"OBJECTID_1":63,"OBJECTID":86,"SN":0,"Name":"Axumite Heritage foundation compound","X_Easting":470006.429,"Y_Northing":1561804.7760000001,"Z":2142.0300000000002,"Woreda_Nam":"Aksum","Attra_Type":"Historical","NEAR_DIST":0.0011119339588954141,"Site_name":" ","Descriptio":" ","Local_Name":" ","Location_W":" ","Settl_Type":" ","RoadRef_Pn":" ","Asphalt":0,"Gravel":0,"Foot_path":0,"Total_km":0,"direction":" ","Remarks":" ","NEAR_FC":"sites_Project"}},{"type":"Feature","id":64,"geometry":{"type":"Point","coordinates":[38.721221252000078,14.13033983300005,2149.8099999999977,null]},"properties":{"OBJECTID_12":64,"OBJECTID_1":64,"OBJECTID":87,"SN":0,"Name":"Unfinished Rock Cut structure","X_Easting":469911.40600000002,"Y_Northing":1562159.193,"Z":2149.8099999999999,"Woreda_Nam":"Aksum","Attra_Type":"Historical","NEAR_DIST":0.00054318994265256757,"Site_name":" ","Descriptio":" ","Local_Name":" ","Location_W":" ","Settl_Type":" ","RoadRef_Pn":" ","Asphalt":0,"Gravel":0,"Foot_path":0,"Total_km":0,"direction":" ","Remarks":" ","NEAR_FC":"road_Project"}},{"type":"Feature","id":65,"geometry":{"type":"Point","coordinates":[38.722110346000079,14.132053515000052,2175.9700000000012,null]},"properties":{"OBJECTID_12":65,"OBJECTID_1":65,"OBJECTID":89,"SN":0,"Name":"Yeha Hotel","X_Easting":470007.59100000001,"Y_Northing":1562348.608,"Z":2175.9699999999998,"Woreda_Nam":"Aksum","Attra_Type":"Historical","NEAR_DIST":0.0017915915295871497,"Site_name":" ","Descriptio":" ","Local_Name":" ","Location_W":" ","Settl_Type":" ","RoadRef_Pn":" ","Asphalt":0,"Gravel":0,"Foot_path":0,"Total_km":0,"direction":" ","Remarks":" ","NEAR_FC":"road_Project"}},{"type":"Feature","id":66,"geometry":{"type":"Point","coordinates":[38.721355416000051,14.133687418000022,2157.0800000000017,null]},"properties":{"OBJECTID_12":66,"OBJECTID_1":66,"OBJECTID":90,"SN":0,"Name":"Mai Shum Reservoir","X_Easting":469926.326,"Y_Northing":1562529.4099999999,"Z":2157.0799999999999,"Woreda_Nam":"Aksum","Attra_Type":"Historical","NEAR_DIST":0.00013124200176304991,"Site_name":" ","Descriptio":" ","Local_Name":" ","Location_W":" ","Settl_Type":" ","RoadRef_Pn":" ","Asphalt":0,"Gravel":0,"Foot_path":0,"Total_km":0,"direction":" ","Remarks":" ","NEAR_FC":"road_Project"}},{"type":"Feature","id":67,"geometry":{"type":"Point","coordinates":[38.713192036000066,14.125009219000049,2130.6100000000006,null]},"properties":{"OBJECTID_12":67,"OBJECTID_1":67,"OBJECTID":91,"SN":0,"Name":"Ta'akha Mariam Palace","X_Easting":469044.08600000001,"Y_Northing":1561570.6850000001,"Z":2130.6100000000001,"Woreda_Nam":"Aksum","Attra_Type":"Palace","NEAR_DIST":0.0019458756699346489,"Site_name":" ","Descriptio":" ","Local_Name":" ","Location_W":" ","Settl_Type":" ","RoadRef_Pn":" ","Asphalt":0,"Gravel":0,"Foot_path":0,"Total_km":0,"direction":" ","Remarks":" ","NEAR_FC":"sites_Project"}},{"type":"Feature","id":68,"geometry":{"type":"Point","coordinates":[38.71475838200007,14.126594753000063,2139.3399999999965,null]},"properties":{"OBJECTID_12":68,"OBJECTID_1":68,"OBJECTID":92,"SN":0,"Name":"Enda Semoun Palace","X_Easting":469213.35999999999,"Y_Northing":1561745.835,"Z":2139.3400000000001,"Woreda_Nam":"Aksum","Attra_Type":"Palace","NEAR_DIST":0.0016686933844858741,"Site_name":" ","Descriptio":" ","Local_Name":" ","Location_W":" ","Settl_Type":" ","RoadRef_Pn":" ","Asphalt":0,"Gravel":0,"Foot_path":0,"Total_km":0,"direction":" ","Remarks":" ","NEAR_FC":"sites_Project"}},{"type":"Feature","id":69,"geometry":{"type":"Point","coordinates":[38.71433231900005,14.128208137000058,2144.5,null]},"properties":{"OBJECTID_12":69,"OBJECTID_1":69,"OBJECTID":93,"SN":0,"Name":"Enda Michael Palace","X_Easting":469167.59100000001,"Y_Northing":1561924.327,"Z":2144.5,"Woreda_Nam":"Aksum","Attra_Type":"Palace","NEAR_DIST":0.0016686933844858741,"Site_name":" ","Descriptio":" ","Local_Name":" ","Location_W":" ","Settl_Type":" ","RoadRef_Pn":" ","Asphalt":0,"Gravel":0,"Foot_path":0,"Total_km":0,"direction":" ","Remarks":" ","NEAR_FC":"sites_Project"}},{"type":"Feature","id":70,"geometry":{"type":"Point","coordinates":[38.712598486000047,14.127253843000062,2147.1000000000058,null]},"properties":{"OBJECTID_12":70,"OBJECTID_1":70,"OBJECTID":94,"SN":0,"Name":"Adi Kilte (Old town)","X_Easting":468980.326,"Y_Northing":1561819.013,"Z":2147.0999999999999,"Woreda_Nam":"Aksum","Attra_Type":"Historical","NEAR_DIST":0.00197910432022359,"Site_name":" ","Descriptio":" ","Local_Name":" ","Location_W":" ","Settl_Type":" ","RoadRef_Pn":" ","Asphalt":0,"Gravel":0,"Foot_path":0,"Total_km":0,"direction":" ","Remarks":" ","NEAR_FC":"sites_Project"}},{"type":"Feature","id":71,"geometry":{"type":"Point","coordinates":[38.706439600000067,14.125908012000025,2131.8600000000006,null]},"properties":{"OBJECTID_12":71,"OBJECTID_1":71,"OBJECTID":96,"SN":0,"Name":"Gudit Field","X_Easting":468315.397,"Y_Northing":1561670.99,"Z":2131.8600000000001,"Woreda_Nam":"Aksum","Attra_Type":"Historical","NEAR_DIST":0.00093979551748393363,"Site_name":" ","Descriptio":" ","Local_Name":" ","Location_W":" ","Settl_Type":" ","RoadRef_Pn":" ","Asphalt":0,"Gravel":0,"Foot_path":0,"Total_km":0,"direction":" ","Remarks":" ","NEAR_FC":"sites_Project"}},{"type":"Feature","id":72,"geometry":{"type":"Point","coordinates":[38.68046157200007,14.114270901000054,2136.0899999999965,null]},"properties":{"OBJECTID_12":72,"OBJECTID_1":72,"OBJECTID":100,"SN":0,"Name":"Gobo Dura Site","X_Easting":465509.75699999998,"Y_Northing":1560387.6140000001,"Z":2136.0900000000001,"Woreda_Nam":"Aksum","Attra_Type":"Historical","NEAR_DIST":0.0031059113671386735,"Site_name":" ","Descriptio":" ","Local_Name":" ","Location_W":" ","Settl_Type":" ","RoadRef_Pn":" ","Asphalt":0,"Gravel":0,"Foot_path":0,"Total_km":0,"direction":" ","Remarks":" ","NEAR_FC":"sites_Project"}},{"type":"Feature","id":73,"geometry":{"type":"Point","coordinates":[38.681754898000065,14.117094727000051,2165.3999999999942,null]},"properties":{"OBJECTID_12":73,"OBJECTID_1":73,"OBJECTID":101,"SN":0,"Name":"Rock Art Site","X_Easting":465649.78000000003,"Y_Northing":1560699.733,"Z":2165.4000000000001,"Woreda_Nam":"Aksum","Attra_Type":" ","NEAR_DIST":0.0031059113671386735,"Site_name":" ","Descriptio":" ","Local_Name":" ","Location_W":" ","Settl_Type":" ","RoadRef_Pn":" ","Asphalt":0,"Gravel":0,"Foot_path":0,"Total_km":0,"direction":" ","Remarks":" ","NEAR_FC":"sites_Project"}},{"type":"Feature","id":74,"geometry":{"type":"Point","coordinates":[38.687833893000061,14.134764864000033,2187.4400000000023,null]},"properties":{"OBJECTID_12":74,"OBJECTID_1":74,"OBJECTID":102,"SN":0,"Name":"Gual Gobo Dura","X_Easting":466308.52899999998,"Y_Northing":1562653.128,"Z":2187.4400000000001,"Woreda_Nam":"Aksum","Attra_Type":"Historical","NEAR_DIST":0.01674086198475153,"Site_name":" ","Descriptio":" ","Local_Name":" ","Location_W":" ","Settl_Type":" ","RoadRef_Pn":" ","Asphalt":0,"Gravel":0,"Foot_path":0,"Total_km":0,"direction":" ","Remarks":" ","NEAR_FC":"road_Project"}},{"type":"Feature","id":75,"geometry":{"type":"Point","coordinates":[38.729247604000079,14.14224695300004,2244.3800000000047,null]},"properties":{"OBJECTID_12":75,"OBJECTID_1":75,"OBJECTID":103,"SN":0,"Name":"Kaleb and G/meskel's Tomb","X_Easting":470779.21600000001,"Y_Northing":1563475.075,"Z":2244.3800000000001,"Woreda_Nam":"Aksum","Attra_Type":"Archaeological","NEAR_DIST":4.3334343428418911e-05,"Site_name":" ","Descriptio":" ","Local_Name":" ","Location_W":" ","Settl_Type":" ","RoadRef_Pn":" ","Asphalt":0,"Gravel":0,"Foot_path":0,"Total_km":0,"direction":" ","Remarks":" ","NEAR_FC":"sites_Project"}},{"type":"Feature","id":76,"geometry":{"type":"Point","coordinates":[38.720229662000065,14.150934122000024,2173.5399999999936,null]},"properties":{"OBJECTID_12":76,"OBJECTID_1":76,"OBJECTID":104,"SN":0,"Name":"Mai Kirah","X_Easting":469807.09999999998,"Y_Northing":1564436.997,"Z":2173.54,"Woreda_Nam":"Aksum","Attra_Type":"Church","NEAR_DIST":0.00046622496255392106,"Site_name":" ","Descriptio":" ","Local_Name":" ","Location_W":" ","Settl_Type":" ","RoadRef_Pn":" ","Asphalt":0,"Gravel":0,"Foot_path":0,"Total_km":0,"direction":" ","Remarks":" ","NEAR_FC":"road_Project"}},{"type":"Feature","id":77,"geometry":{"type":"Point","coordinates":[38.743201605000024,14.134756335000077,2275.6699999999983,null]},"properties":{"OBJECTID_12":77,"OBJECTID_1":77,"OBJECTID":105,"SN":0,"Name":"Abba Penteleon Monastery","X_Easting":472284.29499999998,"Y_Northing":1562644.939,"Z":2275.6700000000001,"Woreda_Nam":"Aksum","Attra_Type":"Monastry","NEAR_DIST":0.011349233891606593,"Site_name":" ","Descriptio":" ","Local_Name":" ","Location_W":" ","Settl_Type":" ","RoadRef_Pn":" ","Asphalt":0,"Gravel":0,"Foot_path":0,"Total_km":0,"direction":" ","Remarks":" ","NEAR_FC":"sites_Project"}},{"type":"Feature","id":78,"geometry":{"type":"Point","coordinates":[38.733171718000051,14.140067312000042,2347.3600000000006,null]},"properties":{"OBJECTID_12":78,"OBJECTID_1":78,"OBJECTID":106,"SN":0,"Name":"Abba Liqanos Monastery","X_Easting":471202.45199999999,"Y_Northing":1563233.527,"Z":2347.3600000000001,"Woreda_Nam":"Aksum","Attra_Type":"Monastry","NEAR_DIST":0.0044888200647437322,"Site_name":" ","Descriptio":" ","Local_Name":" ","Location_W":" ","Settl_Type":" ","RoadRef_Pn":" ","Asphalt":0,"Gravel":0,"Foot_path":0,"Total_km":0,"direction":" ","Remarks":" ","NEAR_FC":"sites_Project"}},{"type":"Feature","id":79,"geometry":{"type":"Point","coordinates":[38.719695525000077,14.128120376000027,2153.4400000000023,null]},"properties":{"OBJECTID_12":79,"OBJECTID_1":79,"OBJECTID":108,"SN":0,"Name":"Enda Rasi Hand Craft Center","X_Easting":469746.44,"Y_Northing":1561913.923,"Z":2153.4400000000001,"Woreda_Nam":"Aksum","Attra_Type":"Historical","NEAR_DIST":0.0011394829940686751,"Site_name":" ","Descriptio":" ","Local_Name":" ","Location_W":" ","Settl_Type":" ","RoadRef_Pn":" ","Asphalt":0,"Gravel":0,"Foot_path":0,"Total_km":0,"direction":" ","Remarks":" ","NEAR_FC":"road_Project"}},{"type":"Feature","id":80,"geometry":{"type":"Point","coordinates":[38.703730713000027,14.053219031000026,2015.929999999993,null]},"properties":{"OBJECTID_12":80,"OBJECTID_1":80,"OBJECTID":109,"SN":0,"Name":"Abaa Libanos Monastery","X_Easting":468012.89899999998,"Y_Northing":1553632.162,"Z":2015.9300000000001,"Woreda_Nam":"Aksum","Attra_Type":"Monastery","NEAR_DIST":0.046872598588919775,"Site_name":" ","Descriptio":" ","Local_Name":" ","Location_W":" ","Settl_Type":" ","RoadRef_Pn":" ","Asphalt":0,"Gravel":0,"Foot_path":0,"Total_km":0,"direction":" ","Remarks":" ","NEAR_FC":"road_Project"}},{"type":"Feature","id":81,"geometry":{"type":"Point","coordinates":[38.711776948000079,14.166072367000027,2018.570000000007,null]},"properties":{"OBJECTID_12":81,"OBJECTID_1":81,"OBJECTID":110,"SN":0,"Name":"Adi Tsehafi Quarry site","X_Easting":468896.93400000001,"Y_Northing":1566112.358,"Z":2018.5699999999999,"Woreda_Nam":" Aksum","Attra_Type":"Archaeological","NEAR_DIST":0.00089267826064702127,"Site_name":" ","Descriptio":" ","Local_Name":" ","Location_W":" ","Settl_Type":" ","RoadRef_Pn":" ","Asphalt":0,"Gravel":0,"Foot_path":0,"Total_km":0,"direction":" ","Remarks":" ","NEAR_FC":"road_Project"}},{"type":"Feature","id":82,"geometry":{"type":"Point","coordinates":[38.722878742000034,14.13779469900004,2172.4900000000052,null]},"properties":{"OBJECTID_12":82,"OBJECTID_1":82,"OBJECTID":111,"SN":0,"Name":"Northern Ezana Inscription","X_Easting":470091.27399999998,"Y_Northing":1562983.47,"Z":2172.4899999999998,"Woreda_Nam":"Aksum","Attra_Type":"Historical","NEAR_DIST":0.00054183916329531663,"Site_name":" ","Descriptio":" ","Local_Name":" ","Location_W":" ","Settl_Type":" ","RoadRef_Pn":" ","Asphalt":0,"Gravel":0,"Foot_path":0,"Total_km":0,"direction":" ","Remarks":" ","NEAR_FC":"road_Project"}},{"type":"Feature","id":83,"geometry":{"type":"Point","coordinates":[38.658629835000056,14.140815316000044,2194.8500000000058,null]},"properties":{"OBJECTID_12":83,"OBJECTID_1":83,"OBJECTID":112,"SN":0,"Name":"Eyerawi Michael Monastery","X_Easting":463157.53499999997,"Y_Northing":1563326.686,"Z":2194.8499999999999,"Woreda_Nam":"Aksum","Attra_Type":"Monastery","NEAR_DIST":0.029824234660290619,"Site_name":" ","Descriptio":" ","Local_Name":" ","Location_W":" ","Settl_Type":" ","RoadRef_Pn":" ","Asphalt":0,"Gravel":0,"Foot_path":0,"Total_km":0,"direction":" ","Remarks":" ","NEAR_FC":"sites_Project"}},{"type":"Feature","id":84,"geometry":{"type":"Point","coordinates":[38.718861669000034,14.131763331000059,2157.1999999999971,null]},"properties":{"OBJECTID_12":84,"OBJECTID_1":84,"OBJECTID":113,"SN":0,"Name":"Main Steale Field","X_Easting":469656.92300000001,"Y_Northing":1562316.932,"Z":2157.1999999999998,"Woreda_Nam":"Aksum","Attra_Type":"Archaeological","NEAR_DIST":0.00054998825992251088,"Site_name":" ","Descriptio":" ","Local_Name":" ","Location_W":" ","Settl_Type":" ","RoadRef_Pn":" ","Asphalt":0,"Gravel":0,"Foot_path":0,"Total_km":0,"direction":" ","Remarks":" ","NEAR_FC":"sites_Project"}},{"type":"Feature","id":85,"geometry":{"type":"Point","coordinates":[38.717175000000054,14.130213334000075,2134.6999999999971,null]},"properties":{"OBJECTID_12":85,"OBJECTID_1":85,"OBJECTID":114,"SN":0,"Name":"Bete Ketine","X_Easting":469474.674,"Y_Northing":1562145.7250000001,"Z":2134.6999999999998,"Woreda_Nam":"Aksum","Attra_Type":"Historical","NEAR_DIST":0.0003251122045824976,"Site_name":" ","Descriptio":" ","Local_Name":" ","Location_W":" ","Settl_Type":" ","RoadRef_Pn":" ","Asphalt":0,"Gravel":0,"Foot_path":0,"Total_km":0,"direction":" ","Remarks":" ","NEAR_FC":"sites_Project"}},{"type":"Feature","id":86,"geometry":{"type":"Point","coordinates":[38.717440004000025,14.130024997000078,2147.1999999999971,null]},"properties":{"OBJECTID_12":86,"OBJECTID_1":86,"OBJECTID":115,"SN":0,"Name":"Murade Kalle","X_Easting":469503.25099999999,"Y_Northing":1562124.861,"Z":2147.1999999999998,"Woreda_Nam":"Aksum","Attra_Type":"Historical","NEAR_DIST":0.0003251122045824976,"Site_name":" ","Descriptio":" ","Local_Name":" ","Location_W":" ","Settl_Type":" ","RoadRef_Pn":" ","Asphalt":0,"Gravel":0,"Foot_path":0,"Total_km":0,"direction":" ","Remarks":" ","NEAR_FC":"sites_Project"}},{"type":"Feature","id":87,"geometry":{"type":"Point","coordinates":[38.719673820000025,14.130699761000074,2145.2400000000052,null]},"properties":{"OBJECTID_12":87,"OBJECTID_1":87,"OBJECTID":118,"SN":0,"Name":"Tsion Mariam Church","X_Easting":469744.43800000002,"Y_Northing":1562199.199,"Z":2145.2399999999998,"Woreda_Nam":"Aksum","Attra_Type":"Monastery","NEAR_DIST":0.00069405850643794703,"Site_name":" ","Descriptio":" ","Local_Name":" ","Location_W":" ","Settl_Type":" ","RoadRef_Pn":" ","Asphalt":0,"Gravel":0,"Foot_path":0,"Total_km":0,"direction":" ","Remarks":" ","NEAR_FC":"road_Project"}},{"type":"Feature","id":88,"geometry":{"type":"Point","coordinates":[38.693009481000047,14.168414792000021,2133,null]},"properties":{"OBJECTID_12":88,"OBJECTID_1":88,"OBJECTID":119,"SN":0,"Name":"Adi Tsehafi rock Cut Cistern 1","X_Easting":466872,"Y_Northing":1566374,"Z":2133,"Woreda_Nam":"Laelay Machew","Attra_Type":"Historical","NEAR_DIST":0.0020643620476119367,"Site_name":" ","Descriptio":" ","Local_Name":" ","Location_W":" ","Settl_Type":" ","RoadRef_Pn":" ","Asphalt":0,"Gravel":0,"Foot_path":0,"Total_km":0,"direction":" ","Remarks":" ","NEAR_FC":"sites_Project"}},{"type":"Feature","id":89,"geometry":{"type":"Point","coordinates":[38.709672804000036,14.137847196000052,2284,null]},"properties":{"OBJECTID_12":89,"OBJECTID_1":89,"OBJECTID":120,"SN":0,"Name":"BeteGergios Church","X_Easting":468666,"Y_Northing":1562991,"Z":2284,"Woreda_Nam":"Aksum","Attra_Type":"Church","NEAR_DIST":0.0060921674615711267,"Site_name":" ","Descriptio":" ","Local_Name":" ","Location_W":" ","Settl_Type":" ","RoadRef_Pn":" ","Asphalt":0,"Gravel":0,"Foot_path":0,"Total_km":0,"direction":" ","Remarks":" ","NEAR_FC":"sites_Project"}},{"type":"Feature","id":90,"geometry":{"type":"Point","coordinates":[38.792094837000036,14.076778058000059,2110,null]},"properties":{"OBJECTID_12":90,"OBJECTID_1":90,"OBJECTID":122,"SN":0,"Name":"Hawelti Melazo","X_Easting":477555.59000000003,"Y_Northing":1556227.51,"Z":2110,"Woreda_Nam":"Laelay Machew","Attra_Type":"Archaeological","NEAR_DIST":0.0046999063569451317,"Site_name":" ","Descriptio":" ","Local_Name":" ","Location_W":" ","Settl_Type":" ","RoadRef_Pn":" ","Asphalt":0,"Gravel":0,"Foot_path":0,"Total_km":0,"direction":" ","Remarks":" ","NEAR_FC":"road_Project"}},{"type":"Feature","id":91,"geometry":{"type":"Point","coordinates":[38.777193183000065,14.030103962000055,2098,null]},"properties":{"OBJECTID_12":91,"OBJECTID_1":91,"OBJECTID":123,"SN":0,"Name":"Mahibere Tsedikan Deguea","X_Easting":475942,"Y_Northing":1551067,"Z":2098,"Woreda_Nam":"Dego","Attra_Type":"Church","NEAR_DIST":0.003046428438189181,"Site_name":" ","Descriptio":" ","Local_Name":" ","Location_W":" ","Settl_Type":" ","RoadRef_Pn":" ","Asphalt":0,"Gravel":0,"Foot_path":0,"Total_km":0,"direction":" ","Remarks":" ","NEAR_FC":"road_Project"}},{"type":"Feature","id":92,"geometry":{"type":"Point","coordinates":[38.722597086000064,14.128703862000066,2245.570000000007,null]},"properties":{"OBJECTID_12":92,"OBJECTID_1":92,"OBJECTID":124,"SN":0,"Name":"Mai Kuho","X_Easting":470059.68699999998,"Y_Northing":1561978.0830000001,"Z":2245.5700000000002,"Woreda_Nam":"Aksum","Attra_Type":"Historical","NEAR_DIST":0.0016428350710067593,"Site_name":" ","Descriptio":" ","Local_Name":" ","Location_W":" ","Settl_Type":" ","RoadRef_Pn":" ","Asphalt":0,"Gravel":0,"Foot_path":0,"Total_km":0,"direction":" ","Remarks":" ","NEAR_FC":"sites_Project"}},{"type":"Feature","id":93,"geometry":{"type":"Point","coordinates":[38.724711265000053,14.137909457000035,2200.3600000000006,null]},"properties":{"OBJECTID_12":93,"OBJECTID_1":93,"OBJECTID":125,"SN":0,"Name":"Kidanemihret Site","X_Easting":470289.06800000003,"Y_Northing":1562995.929,"Z":2200.3600000000001,"Woreda_Nam":"Aksum","Attra_Type":"Church","NEAR_DIST":0.00078712935024223454,"Site_name":" ","Descriptio":" ","Local_Name":" ","Location_W":" ","Settl_Type":" ","RoadRef_Pn":" ","Asphalt":0,"Gravel":0,"Foot_path":0,"Total_km":0,"direction":" ","Remarks":" ","NEAR_FC":"road_Project"}},{"type":"Feature","id":94,"geometry":{"type":"Point","coordinates":[37.794446547000064,14.116556778000074,0,null]},"properties":{"OBJECTID_12":94,"OBJECTID_1":94,"OBJECTID":0,"SN":0,"Name":"Dedebit","X_Easting":369866,"Y_Northing":1560812,"Z":871,"Woreda_Nam":" ","Attra_Type":"Historical","NEAR_DIST":0.017860368172784788,"Site_name":"Dedebit","Descriptio":"It is a place where the popular mass struggle against the military dictators has been launched, and was the base for the first freedom fighters","Local_Name":"Dedebit","Location_W":" ","Settl_Type":"Village","RoadRef_Pn":" ","Asphalt":0,"Gravel":0,"Foot_path":0,"Total_km":0,"direction":" ","Remarks":" ","NEAR_FC":"road_Project"}},{"type":"Feature","id":95,"geometry":{"type":"Point","coordinates":[37.772675364000065,14.399972513000023,0,null]},"properties":{"OBJECTID_12":95,"OBJECTID_1":95,"OBJECTID":0,"SN":0,"Name":" Sheraro Amphi-Theatre","X_Easting":367681,"Y_Northing":1592173,"Z":1035,"Woreda_Nam":" ","Attra_Type":"Historical","NEAR_DIST":0.0012739564568659319,"Site_name":"Sheraro Amphi-Theatre","Descriptio":" ","Local_Name":" ","Location_W":" ","Settl_Type":" ","RoadRef_Pn":" ","Asphalt":0,"Gravel":0,"Foot_path":0,"Total_km":0,"direction":" ","Remarks":" ","NEAR_FC":"road_Project"}},{"type":"Feature","id":96,"geometry":{"type":"Point","coordinates":[37.664773937000064,13.783033575000047,0,null]},"properties":{"OBJECTID_12":96,"OBJECTID_1":96,"OBJECTID":0,"SN":0,"Name":"Mulu Ancient Palace","X_Easting":355659,"Y_Northing":1523996,"Z":940,"Woreda_Nam":" ","Attra_Type":"Historical","NEAR_DIST":0.021843614256936587,"Site_name":"Mulu Ancient Palace","Descriptio":"There is an ancient palace with a Gonderine style of building","Local_Name":" ","Location_W":" ","Settl_Type":" ","RoadRef_Pn":" ","Asphalt":0,"Gravel":0,"Foot_path":0,"Total_km":0,"direction":" ","Remarks":" ","NEAR_FC":"road_Project"}},{"type":"Feature","id":97,"geometry":{"type":"Point","coordinates":[38.451716131000069,13.943783436000047,0,null]},"properties":{"OBJECTID_12":97,"OBJECTID_1":97,"OBJECTID":0,"SN":0,"Name":" Mariam Debre Kerbe","X_Easting":440774,"Y_Northing":1541440,"Z":1850,"Woreda_Nam":" ","Attra_Type":"Built Church","NEAR_DIST":0.00078232624160967895,"Site_name":"Mariam Debre Kerbe","Descriptio":"Monastic life","Local_Name":"Debrekerbe","Location_W":" ","Settl_Type":"Village","RoadRef_Pn":" ","Asphalt":0,"Gravel":0,"Foot_path":0,"Total_km":0,"direction":" ","Remarks":" ","NEAR_FC":"road_Project"}},{"type":"Feature","id":98,"geometry":{"type":"Point","coordinates":[38.307671621000054,14.136221661000036,0,null]},"properties":{"OBJECTID_12":98,"OBJECTID_1":98,"OBJECTID":0,"SN":0,"Name":"Giorgis Lekamba","X_Easting":425276,"Y_Northing":1562763,"Z":1250,"Woreda_Nam":" ","Attra_Type":"Built Church","NEAR_DIST":0.00082892283917400281,"Site_name":"Giorgis Lekamba","Descriptio":"A built church constructed in","Local_Name":"Arada","Location_W":" ","Settl_Type":" ","RoadRef_Pn":" ","Asphalt":0,"Gravel":0,"Foot_path":0,"Total_km":0,"direction":" ","Remarks":" ","NEAR_FC":"sites_Project"}},{"type":"Feature","id":99,"geometry":{"type":"Point","coordinates":[38.344451111000069,14.198145575000069,0,null]},"properties":{"OBJECTID_12":99,"OBJECTID_1":99,"OBJECTID":0,"SN":0,"Name":"Woibela Mariam","X_Easting":429265,"Y_Northing":1569600,"Z":1200,"Woreda_Nam":" ","Attra_Type":"Built Church","NEAR_DIST":0.0010678572481386448,"Site_name":"Woibela Mariam","Descriptio":"A built church constructed in","Local_Name":"Semema","Location_W":" ","Settl_Type":" ","RoadRef_Pn":" ","Asphalt":0,"Gravel":0,"Foot_path":0,"Total_km":0,"direction":" ","Remarks":" ","NEAR_FC":"sites_Project"}},{"type":"Feature","id":100,"geometry":{"type":"Point","coordinates":[38.109214751000025,13.806473919000041,0,null]},"properties":{"OBJECTID_12":100,"OBJECTID_1":100,"OBJECTID":0,"SN":0,"Name":"Debre Abay","X_Easting":403718,"Y_Northing":1526366,"Z":1520,"Woreda_Nam":" ","Attra_Type":"Monasteries","NEAR_DIST":0.022118942431115656,"Site_name":"Debre Abay","Descriptio":"Monastic life and believed to have been built in","Local_Name":"Debre Abay","Location_W":" ","Settl_Type":"Village","RoadRef_Pn":"Shire-Gondar","Asphalt":0,"Gravel":0,"Foot_path":0,"Total_km":23,"direction":"Endaba Guna","Remarks":"9 km from Endaba Guna and 12 km                                               from the main road Shire-Gondar.","NEAR_FC":"road_Project"}},{"type":"Feature","id":101,"geometry":{"type":"Point","coordinates":[38.378093843000045,14.11898086900004,0,null]},"properties":{"OBJECTID_12":101,"OBJECTID_1":101,"OBJECTID":0,"SN":0,"Name":"Abune Samuel /Koyetsa/","X_Easting":432872,"Y_Northing":1560835,"Z":2382,"Woreda_Nam":" ","Attra_Type":"Monasteries","NEAR_DIST":0.034497190251135151,"Site_name":"Abune Samuel /Koyetsa/","Descriptio":"A square and circular church noted for its fine murals, a solid podium that may be of Axumite period","Local_Name":"Koyetsa","Location_W":" ","Settl_Type":" ","RoadRef_Pn":" ","Asphalt":0,"Gravel":0,"Foot_path":0,"Total_km":0,"direction":" ","Remarks":" ","NEAR_FC":"road_Project"}},{"type":"Feature","id":102,"geometry":{"type":"Point","coordinates":[38.345277845000055,14.197469683000065,0,null]},"properties":{"OBJECTID_12":102,"OBJECTID_1":102,"OBJECTID":0,"SN":0,"Name":"Webla Mariam Monastery(Semema)","X_Easting":429354,"Y_Northing":1569525,"Z":1883,"Woreda_Nam":" ","Attra_Type":"Monasteries","NEAR_DIST":0,"Site_name":"Webla Mariam Monastery(Semema)","Descriptio":"Monastic life, treasures","Local_Name":"Semema","Location_W":" ","Settl_Type":" ","RoadRef_Pn":" ","Asphalt":0,"Gravel":0,"Foot_path":0,"Total_km":0,"direction":" ","Remarks":" ","NEAR_FC":"sites_Project"}},{"type":"Feature","id":103,"geometry":{"type":"Point","coordinates":[37.943714413000066,13.79628819800007,0,null]},"properties":{"OBJECTID_12":103,"OBJECTID_1":103,"OBJECTID":0,"SN":0,"Name":"Waldiba","X_Easting":385823,"Y_Northing":1525312,"Z":1325,"Woreda_Nam":" ","Attra_Type":"Monasteries","NEAR_DIST":0.11715889296778874,"Site_name":"Waldiba","Descriptio":"Monastic life, treasure, and painting","Local_Name":"Waldiba","Location_W":" ","Settl_Type":" ","RoadRef_Pn":" ","Asphalt":0,"Gravel":0,"Foot_path":0,"Total_km":0,"direction":" ","Remarks":" ","NEAR_FC":"road_Project"}},{"type":"Feature","id":104,"geometry":{"type":"Point","coordinates":[38.22674840600007,14.118668724000031,0,null]},"properties":{"OBJECTID_12":104,"OBJECTID_1":104,"OBJECTID":0,"SN":0,"Name":"Kidane Mihret Adi Bozut","X_Easting":416535,"Y_Northing":1560849,"Z":1924,"Woreda_Nam":" ","Attra_Type":"Monasteries","NEAR_DIST":0,"Site_name":"Kidane Mihret Adi Bozut","Descriptio":"Monastic life, Rock painting and Archaeological site","Local_Name":" ","Location_W":" ","Settl_Type":" ","RoadRef_Pn":" ","Asphalt":0,"Gravel":0,"Foot_path":0,"Total_km":0,"direction":" ","Remarks":" ","NEAR_FC":"sites_Project"}},{"type":"Feature","id":105,"geometry":{"type":"Point","coordinates":[38.345277845000055,14.197469683000065,0,null]},"properties":{"OBJECTID_12":105,"OBJECTID_1":105,"OBJECTID":0,"SN":0,"Name":"Webla Mariam Monastery(Semema)","X_Easting":429354,"Y_Northing":1569525,"Z":1954,"Woreda_Nam":" ","Attra_Type":"Archaeological","NEAR_DIST":0,"Site_name":"Webla Mariam Monastery(Semema)","Descriptio":"Pottery and lithic site, dressed stela and base plate","Local_Name":"Semema","Location_W":" ","Settl_Type":"Village","RoadRef_Pn":"Shire-Semema","Asphalt":0,"Gravel":0,"Foot_path":0,"Total_km":19,"direction":"Semema","Remarks":"19km","NEAR_FC":"sites_Project"}},{"type":"Feature","id":106,"geometry":{"type":"Point","coordinates":[38.323788925000031,14.109105095000075,0,null]},"properties":{"OBJECTID_12":106,"OBJECTID_1":106,"OBJECTID":0,"SN":0,"Name":"Adi Nekasi Adgi(Mai Adrasha)","X_Easting":427007,"Y_Northing":1559759,"Z":1934,"Woreda_Nam":" ","Attra_Type":"Archaeological","NEAR_DIST":0.00071249947697241253,"Site_name":"Adi Nekasi Adgi(Mai Adrasha)","Descriptio":"Stela, Proto Axumite Ceramics","Local_Name":"Mai Adrasha","Location_W":" ","Settl_Type":"Village","RoadRef_Pn":"Shire-Axum","Asphalt":0,"Gravel":0,"Foot_path":0,"Total_km":3,"direction":"Mai Adrasha","Remarks":"0.40m/0:05","NEAR_FC":"road_Project"}},{"type":"Feature","id":107,"geometry":{"type":"Point","coordinates":[38.326343099000042,14.122603072000061,0,null]},"properties":{"OBJECTID_12":107,"OBJECTID_1":107,"OBJECTID":0,"SN":0,"Name":"Adi Kumbro(Mai Adrasha)","X_Easting":427287,"Y_Northing":1561251,"Z":1948,"Woreda_Nam":" ","Attra_Type":"Archaeological","NEAR_DIST":0.0086448928783606892,"Site_name":"Adi Kumbro(Mai Adrasha)","Descriptio":"Middle Stone age Lithic site at the foothill of Adi Agrad","Local_Name":"Mai Adrasha","Location_W":" ","Settl_Type":"Village","RoadRef_Pn":"Shire-Axum","Asphalt":0,"Gravel":0,"Foot_path":0,"Total_km":3,"direction":"Mai Adrasha","Remarks":"1km/0:20","NEAR_FC":"road_Project"}},{"type":"Feature","id":108,"geometry":{"type":"Point","coordinates":[38.324458511000046,14.111367501000075,0,null]},"properties":{"OBJECTID_12":108,"OBJECTID_1":108,"OBJECTID":0,"SN":0,"Name":"Beles-Adi Nekas Addi(Mai Adrasha","X_Easting":427080,"Y_Northing":1560009,"Z":1945,"Woreda_Nam":" ","Attra_Type":"Archaeological","NEAR_DIST":0.0015677167070791114,"Site_name":"Beles-Adi Nekas Addi(Mai Adrasha","Descriptio":"Axumite site consisting of different Ceramics","Local_Name":"Mai Adrasha","Location_W":" ","Settl_Type":"Village","RoadRef_Pn":"Shire-Axum","Asphalt":0,"Gravel":0,"Foot_path":0,"Total_km":3,"direction":"Mai Adrasha","Remarks":"5km/1:40","NEAR_FC":"sites_Project"}},{"type":"Feature","id":109,"geometry":{"type":"Point","coordinates":[38.324502103000043,14.156261580000034,0,null]},"properties":{"OBJECTID_12":109,"OBJECTID_1":109,"OBJECTID":0,"SN":0,"Name":"Kelkel Bahri(Mai Liham)","X_Easting":427099,"Y_Northing":1564974,"Z":2014,"Woreda_Nam":" ","Attra_Type":"Archaeological","NEAR_DIST":0.0074295462515374961,"Site_name":"Kelkel Bahri(Mai Liham)","Descriptio":"A pre and post Axumite Ceramics","Local_Name":"Mai Liham","Location_W":" ","Settl_Type":"Village","RoadRef_Pn":"Shire-Axum","Asphalt":0,"Gravel":0,"Foot_path":0,"Total_km":2,"direction":"Mai Liham","Remarks":"1km/0:20","NEAR_FC":"road_Project"}},{"type":"Feature","id":110,"geometry":{"type":"Point","coordinates":[38.329604686000039,14.163518586000066,0,null]},"properties":{"OBJECTID_12":110,"OBJECTID_1":110,"OBJECTID":0,"SN":0,"Name":"Golo Ab'ur(Mai Liham)","X_Easting":427652,"Y_Northing":1565775,"Z":2013,"Woreda_Nam":" ","Attra_Type":"Archaeological","NEAR_DIST":0.0088713296273073561,"Site_name":"Golo Ab'ur(Mai Liham)","Descriptio":"Axumite Iron slag and other Iron working site and Ceramics","Local_Name":"Golo Ab'ur","Location_W":" ","Settl_Type":"Village","RoadRef_Pn":"Shire-Sheraro","Asphalt":0,"Gravel":0,"Foot_path":0,"Total_km":8,"direction":"Golo Ab'ur","Remarks":" ","NEAR_FC":"sites_Project"}},{"type":"Feature","id":111,"geometry":{"type":"Point","coordinates":[38.323981196000034,14.109874214000058,0,null]},"properties":{"OBJECTID_12":111,"OBJECTID_1":111,"OBJECTID":0,"SN":0,"Name":"Beles-Adi Nekasi Adigi(Mai Adrasha)","X_Easting":427028,"Y_Northing":1559844,"Z":1937,"Woreda_Nam":" ","Attra_Type":"Archaeological","NEAR_DIST":0,"Site_name":"Beles-Adi Nekasi Adigi(Mai Adrasha)","Descriptio":"Cemetry and settlement site of early Axumite, Grinding stone, ceramics and stela(Extremely Important Site)","Local_Name":"Mai Adrasha","Location_W":" ","Settl_Type":"Village","RoadRef_Pn":"Shire-Axum","Asphalt":0,"Gravel":0,"Foot_path":0,"Total_km":3,"direction":"Mai Adrasha","Remarks":"40m/0:05","NEAR_FC":"sites_Project"}},{"type":"Feature","id":112,"geometry":{"type":"Point","coordinates":[38.323981196000034,14.109874214000058,0,null]},"properties":{"OBJECTID_12":112,"OBJECTID_1":112,"OBJECTID":0,"SN":0,"Name":"Adi Waro(Mai Adrasha)","X_Easting":427028,"Y_Northing":1559844,"Z":1937,"Woreda_Nam":" ","Attra_Type":"Archaeological","NEAR_DIST":0,"Site_name":"Adi Waro(Mai Adrasha)","Descriptio":"Early Axumite cemetry, stela and pottery","Local_Name":"Mai Adrasha","Location_W":" ","Settl_Type":"Village","RoadRef_Pn":"Shire-Axum","Asphalt":0,"Gravel":0,"Foot_path":0,"Total_km":3,"direction":"Mai Adrasha","Remarks":"15m/","NEAR_FC":"sites_Project"}},{"type":"Feature","id":113,"geometry":{"type":"Point","coordinates":[38.344471509000073,14.100508962000049,0,null]},"properties":{"OBJECTID_12":113,"OBJECTID_1":113,"OBJECTID":0,"SN":0,"Name":"Kumir Emni(Mai Adrasha/Adi Gidad Border)","X_Easting":429237,"Y_Northing":1558802,"Z":2017,"Woreda_Nam":" ","Attra_Type":"Archaeological","NEAR_DIST":0.017611276644514111,"Site_name":"Kumir Emni(Mai Adrasha/Adi Gidad Border)","Descriptio":"Post Axumite Ceramics, Late Axumite pottery","Local_Name":"Adi Gidad","Location_W":" ","Settl_Type":"Village","RoadRef_Pn":"Shire-Axum","Asphalt":0,"Gravel":0,"Foot_path":0,"Total_km":4,"direction":"Adi Gidad","Remarks":"1.5km/0:30","NEAR_FC":"road_Project"}},{"type":"Feature","id":114,"geometry":{"type":"Point","coordinates":[38.321597184000041,14.095300679000047,0,null]},"properties":{"OBJECTID_12":114,"OBJECTID_1":114,"OBJECTID":0,"SN":0,"Name":"Enda Abune Yohannes/Adi Regaw/","X_Easting":426766,"Y_Northing":1558233,"Z":1963,"Woreda_Nam":" ","Attra_Type":"Archaeological","NEAR_DIST":0.00011910615998670321,"Site_name":"Enda Abune Yohannes/Adi Regaw/","Descriptio":"Stela and Lithic","Local_Name":"Adi Regaw","Location_W":" ","Settl_Type":"Village","RoadRef_Pn":"Shire-Axum","Asphalt":0,"Gravel":0,"Foot_path":0,"Total_km":4,"direction":"Adi Regaw","Remarks":"0.5km/0:10","NEAR_FC":"road_Project"}},{"type":"Feature","id":115,"geometry":{"type":"Point","coordinates":[38.33755457400008,14.077052813000023,0,null]},"properties":{"OBJECTID_12":115,"OBJECTID_1":115,"OBJECTID":0,"SN":0,"Name":"Gobo Gohalit(Adi Gidad)","X_Easting":428483,"Y_Northing":1556210,"Z":1948,"Woreda_Nam":" ","Attra_Type":"Archaeological","NEAR_DIST":0.0023497912696152576,"Site_name":"Gobo Gohalit(Adi Gidad)","Descriptio":"Large middle stone age Lithic site and pottery","Local_Name":"Adi Gidad","Location_W":" ","Settl_Type":"Village","RoadRef_Pn":"Shire-Axum","Asphalt":0,"Gravel":0,"Foot_path":0,"Total_km":5,"direction":"Adi Gidad","Remarks":"0.5km/0:10","NEAR_FC":"road_Project"}},{"type":"Feature","id":116,"geometry":{"type":"Point","coordinates":[38.308109191000028,14.135517640000046,0,null]},"properties":{"OBJECTID_12":116,"OBJECTID_1":116,"OBJECTID":0,"SN":0,"Name":"Lehamba St. Giorgis Monastery(Mai Liham)","X_Easting":425323,"Y_Northing":1562685,"Z":2308,"Woreda_Nam":" ","Attra_Type":"Archaeological","NEAR_DIST":0.00082892283917400281,"Site_name":"Lehamba St. Giorgis Monastery(Mai Liham)","Descriptio":"Tombs, Potteries and Lithics","Local_Name":"Mai Liham","Location_W":" ","Settl_Type":"Village","RoadRef_Pn":"Shire-Axum","Asphalt":0,"Gravel":0,"Foot_path":0,"Total_km":2,"direction":"Mai Liham","Remarks":"1.5km/0:30","NEAR_FC":"sites_Project"}},{"type":"Feature","id":117,"geometry":{"type":"Point","coordinates":[38.283511377000025,14.135536000000059,0,null]},"properties":{"OBJECTID_12":117,"OBJECTID_1":117,"OBJECTID":0,"SN":0,"Name":"Adi Hano Arch. Site","X_Easting":422668,"Y_Northing":1562695,"Z":1919,"Woreda_Nam":" ","Attra_Type":"Archaeological","NEAR_DIST":0.00015375701346963169,"Site_name":"Adi Hano Arch. Site","Descriptio":"This is a site situated beside the main road Shire-Adi Daero and there is one stele erected. Currently a mosque has been built over the site.","Local_Name":" ","Location_W":" ","Settl_Type":" ","RoadRef_Pn":" ","Asphalt":0,"Gravel":0,"Foot_path":0,"Total_km":0,"direction":" ","Remarks":" ","NEAR_FC":"road_Project"}},{"type":"Feature","id":118,"geometry":{"type":"Point","coordinates":[38.246604193000053,14.114861748000067,0,null]},"properties":{"OBJECTID_12":118,"OBJECTID_1":118,"OBJECTID":0,"SN":0,"Name":"Addi Bozut Edaga RebuÆe","X_Easting":418677,"Y_Northing":1560421,"Z":1860,"Woreda_Nam":" ","Attra_Type":"Archaeological","NEAR_DIST":0.020217451462857632,"Site_name":"Addi Bozut Edaga RebuÆe","Descriptio":"There are a number of stelae buried underground in which only the smallest proportion of them are visible.","Local_Name":" ","Location_W":" ","Settl_Type":" ","RoadRef_Pn":" ","Asphalt":0,"Gravel":0,"Foot_path":0,"Total_km":0,"direction":" ","Remarks":" ","NEAR_FC":"sites_Project"}},{"type":"Feature","id":119,"geometry":{"type":"Point","coordinates":[38.18872232800004,14.405799700000046,0,null]},"properties":{"OBJECTID_12":119,"OBJECTID_1":119,"OBJECTID":0,"SN":0,"Name":"Maj.Gen. Hayelom's Statue","X_Easting":412541,"Y_Northing":1592619,"Z":1822,"Woreda_Nam":" ","Attra_Type":"Principal Monuments","NEAR_DIST":0.0027799381683044234,"Site_name":"Maj.Gen. Hayelom's Statue","Descriptio":"It is a statue committed to the late Freedom fighter of TPLF: Maj. Gen. Hayelom Araya.","Local_Name":" ","Location_W":" ","Settl_Type":" ","RoadRef_Pn":" ","Asphalt":0,"Gravel":0,"Foot_path":0,"Total_km":0,"direction":" ","Remarks":" ","NEAR_FC":"road_Project"}},{"type":"Feature","id":120,"geometry":{"type":"Point","coordinates":[37.736073871000031,14.178502373000072,0,null]},"properties":{"OBJECTID_12":120,"OBJECTID_1":120,"OBJECTID":0,"SN":0,"Name":"Shimelba Birds Viewing","X_Easting":363601,"Y_Northing":1567697,"Z":1005,"Woreda_Nam":" ","Attra_Type":"Nature Reserves","NEAR_DIST":0.019594451097543108,"Site_name":"Shimelba Birds Viewing","Descriptio":"There is a river that flows throughout the year and vegetation that suits to the survival of the birds","Local_Name":" ","Location_W":" ","Settl_Type":" ","RoadRef_Pn":" ","Asphalt":0,"Gravel":0,"Foot_path":0,"Total_km":0,"direction":" ","Remarks":" ","NEAR_FC":"road_Project"}},{"type":"Feature","id":121,"geometry":{"type":"Point","coordinates":[38.128765013000077,13.564533693000044,0,null]},"properties":{"OBJECTID_12":121,"OBJECTID_1":121,"OBJECTID":0,"SN":0,"Name":"Emba Madre (Beati Gaewa)","X_Easting":405735,"Y_Northing":1499601,"Z":1850,"Woreda_Nam":" ","Attra_Type":"Rock Art","NEAR_DIST":0.0044416157120206164,"Site_name":"Emba Madre (Beati Gaewa)","Descriptio":"It has a rock art that depicts animals","Local_Name":"Mai Tsebri","Location_W":" ","Settl_Type":"Town","RoadRef_Pn":"Shire-Gondar","Asphalt":0,"Gravel":0,"Foot_path":0,"Total_km":81,"direction":"Mai Tsebri","Remarks":" ","NEAR_FC":"road_Project"}},{"type":"Feature","id":122,"geometry":{"type":"Point","coordinates":[38.22674840600007,14.118668724000031,0,null]},"properties":{"OBJECTID_12":122,"OBJECTID_1":122,"OBJECTID":0,"SN":0,"Name":"Adi Bezut","X_Easting":416535,"Y_Northing":1560849,"Z":1924,"Woreda_Nam":" ","Attra_Type":"Rock Art","NEAR_DIST":0,"Site_name":"Adi Bezut","Descriptio":"It has a rock art that depicts animals","Local_Name":" ","Location_W":" ","Settl_Type":" ","RoadRef_Pn":" ","Asphalt":0,"Gravel":0,"Foot_path":0,"Total_km":0,"direction":" ","Remarks":" ","NEAR_FC":"sites_Project"}},{"type":"Feature","id":123,"geometry":{"type":"Point","coordinates":[37.745646691000047,14.403944026000033,0,null]},"properties":{"OBJECTID_12":123,"OBJECTID_1":123,"OBJECTID":0,"SN":0,"Name":"Geza Meker Kunama Village","X_Easting":364769,"Y_Northing":364769,"Z":1028,"Woreda_Nam":" ","Attra_Type":"Living Culture","NEAR_DIST":0.027318896018162103,"Site_name":"Geza Meker Kunama Village","Descriptio":"##############################################################################################################################################################################################################################################################","Local_Name":" ","Location_W":" ","Settl_Type":" ","RoadRef_Pn":" ","Asphalt":0,"Gravel":0,"Foot_path":0,"Total_km":0,"direction":" ","Remarks":" ","NEAR_FC":"sites_Project"}},{"type":"Feature","id":124,"geometry":{"type":"Point","coordinates":[36.611175798000033,14.29229143200007,0,null]},"properties":{"OBJECTID_12":124,"OBJECTID_1":124,"OBJECTID":0,"SN":0,"Name":"Kidane Mihret Beati Midri","X_Easting":242287,"Y_Northing":1581239,"Z":625,"Woreda_Nam":" ","Attra_Type":"Built Church","NEAR_DIST":0.0080731543405524863,"Site_name":"Kidane Mihret Beati Midri","Descriptio":" ","Local_Name":"Humera","Location_W":" ","Settl_Type":"Town","RoadRef_Pn":"Mekelle-Humera","Asphalt":0,"Gravel":0,"Foot_path":0,"Total_km":840,"direction":"Humera","Remarks":" ","NEAR_FC":"road_Project"}},{"type":"Feature","id":125,"geometry":{"type":"Point","coordinates":[36.867428901000039,14.171597825000049,0,null]},"properties":{"OBJECTID_12":125,"OBJECTID_1":125,"OBJECTID":0,"SN":0,"Name":"Kafta -Sheraro National park","X_Easting":269822,"Y_Northing":1567614,"Z":722,"Woreda_Nam":" ","Attra_Type":"Parks","NEAR_DIST":0.017461494405250567,"Site_name":"Kafta -Sheraro National park","Descriptio":"This is a forest located around the town of Sheraro and part of it has been inclosed with the Kafta-Sheraro National Park. It includes one of the nine isolated elephant populations in Ethiopia. The park is very important for it contains rich wildlife and","Local_Name":" ","Location_W":" ","Settl_Type":" ","RoadRef_Pn":" ","Asphalt":0,"Gravel":0,"Foot_path":0,"Total_km":0,"direction":" ","Remarks":" ","NEAR_FC":"road_Project"}}]}
